{
"type": "FeatureCollection",
"name": "Gidrigraf_2",
"crs": { "type": "name", "properties": { "name": "urn:ogc:def:crs:EPSG::3857" } },
"features": [
{ "type": "Feature", "properties": { "fid": 1, "full_id": "w25707577", "osm_id": "25707577", "name": "Катунь", "Длина": 0.0, "sum": 19 }, "geometry": { "type": "MultiLineString", "coordinates": [ ] } },
{ "type": "Feature", "properties": { "fid": 2, "full_id": "w25716782", "osm_id": "25716782", "name": "Катунь", "Длина": 0.0, "sum": 19 }, "geometry": { "type": "MultiLineString", "coordinates": [ ] } },
{ "type": "Feature", "properties": { "fid": 3, "full_id": "w25716899", "osm_id": "25716899", "name": "Катунь", "Длина": 0.0, "sum": 19 }, "geometry": { "type": "MultiLineString", "coordinates": [ ] } },
{ "type": "Feature", "properties": { "fid": 4, "full_id": "w25790337", "osm_id": "25790337", "name": "Катунь", "Длина": 0.0, "sum": 19 }, "geometry": { "type": "MultiLineString", "coordinates": [ ] } },
{ "type": "Feature", "properties": { "fid": 5, "full_id": "w25956388", "osm_id": "25956388", "name": "Катунь", "Длина": 0.0, "sum": 19 }, "geometry": { "type": "MultiLineString", "coordinates": [ ] } },
{ "type": "Feature", "properties": { "fid": 6, "full_id": "w26448203", "osm_id": "26448203", "name": "Катунь", "Длина": 0.0, "sum": 19 }, "geometry": { "type": "MultiLineString", "coordinates": [ ] } },
{ "type": "Feature", "properties": { "fid": 7, "full_id": "w26448207", "osm_id": "26448207", "name": "Катунь", "Длина": 0.0, "sum": 19 }, "geometry": { "type": "MultiLineString", "coordinates": [ ] } },
{ "type": "Feature", "properties": { "fid": 8, "full_id": "w26588766", "osm_id": "26588766", "name": "Катунь", "Длина": 0.0, "sum": 19 }, "geometry": { "type": "MultiLineString", "coordinates": [ ] } },
{ "type": "Feature", "properties": { "fid": 9, "full_id": "w26588876", "osm_id": "26588876", "name": "Катунь", "Длина": 0.0, "sum": 19 }, "geometry": { "type": "MultiLineString", "coordinates": [ ] } },
{ "type": "Feature", "properties": { "fid": 10, "full_id": "w33764367", "osm_id": "33764367", "name": "Катунь", "Длина": 0.0, "sum": 19 }, "geometry": { "type": "MultiLineString", "coordinates": [ ] } },
{ "type": "Feature", "properties": { "fid": 11, "full_id": "w33764422", "osm_id": "33764422", "name": "Катунь", "Длина": 0.0, "sum": 19 }, "geometry": { "type": "MultiLineString", "coordinates": [ ] } },
{ "type": "Feature", "properties": { "fid": 13, "full_id": "w39353450", "osm_id": "39353450", "name": "Катунь", "Длина": 0.0, "sum": 19 }, "geometry": { "type": "MultiLineString", "coordinates": [ ] } },
{ "type": "Feature", "properties": { "fid": 15, "full_id": "w55896736", "osm_id": "55896736", "name": "Катунь", "Длина": 0.0, "sum": 19 }, "geometry": { "type": "MultiLineString", "coordinates": [ ] } },
{ "type": "Feature", "properties": { "fid": 16, "full_id": "w88006003", "osm_id": "88006003", "name": "р. Улалушка", "Длина": 0.0, "sum": 19 }, "geometry": { "type": "MultiLineString", "coordinates": [ ] } },
{ "type": "Feature", "properties": { "fid": 17, "full_id": "w119492580", "osm_id": "119492580", "name": "Катунь", "Длина": 0.0, "sum": 19 }, "geometry": { "type": "MultiLineString", "coordinates": [ ] } },
{ "type": "Feature", "properties": { "fid": 18, "full_id": "w139844266", "osm_id": "139844266", "name": "Катунь", "Длина": 0.0, "sum": 19 }, "geometry": { "type": "MultiLineString", "coordinates": [ ] } },
{ "type": "Feature", "properties": { "fid": 19, "full_id": "w140215623", "osm_id": "140215623", "name": "Катунь", "Длина": 0.0, "sum": 19 }, "geometry": { "type": "MultiLineString", "coordinates": [ ] } },
{ "type": "Feature", "properties": { "fid": 20, "full_id": "w140215624", "osm_id": "140215624", "name": "Катунь", "Длина": 0.0, "sum": 19 }, "geometry": { "type": "MultiLineString", "coordinates": [ ] } },
{ "type": "Feature", "properties": { "fid": 21, "full_id": "w140215625", "osm_id": "140215625", "name": "Катунь", "Длина": 0.0, "sum": 19 }, "geometry": { "type": "MultiLineString", "coordinates": [ ] } },
{ "type": "Feature", "properties": { "fid": 22, "full_id": "w140215626", "osm_id": "140215626", "name": "Катунь", "Длина": 0.0, "sum": 19 }, "geometry": { "type": "MultiLineString", "coordinates": [ ] } },
{ "type": "Feature", "properties": { "fid": 23, "full_id": "w140215627", "osm_id": "140215627", "name": "Катунь", "Длина": 0.0, "sum": 19 }, "geometry": { "type": "MultiLineString", "coordinates": [ ] } },
{ "type": "Feature", "properties": { "fid": 24, "full_id": "w142538237", "osm_id": "142538237", "name": "Катунь", "Длина": 0.0, "sum": 19 }, "geometry": { "type": "MultiLineString", "coordinates": [ ] } },
{ "type": "Feature", "properties": { "fid": 25, "full_id": "w163061443", "osm_id": "163061443", "name": "Катунь", "Длина": 0.0, "sum": 19 }, "geometry": { "type": "MultiLineString", "coordinates": [ ] } },
{ "type": "Feature", "properties": { "fid": 26, "full_id": "w163061447", "osm_id": "163061447", "name": "Катунь", "Длина": 0.0, "sum": 19 }, "geometry": { "type": "MultiLineString", "coordinates": [ ] } },
{ "type": "Feature", "properties": { "fid": 27, "full_id": "w163061448", "osm_id": "163061448", "name": "Катунь", "Длина": 0.0, "sum": 19 }, "geometry": { "type": "MultiLineString", "coordinates": [ ] } },
{ "type": "Feature", "properties": { "fid": 28, "full_id": "w163341229", "osm_id": "163341229", "name": "Катунь", "Длина": 0.0, "sum": 19 }, "geometry": { "type": "MultiLineString", "coordinates": [ ] } },
{ "type": "Feature", "properties": { "fid": 29, "full_id": "w163341233", "osm_id": "163341233", "name": "Катунь", "Длина": 0.0, "sum": 19 }, "geometry": { "type": "MultiLineString", "coordinates": [ ] } },
{ "type": "Feature", "properties": { "fid": 31, "full_id": "w261660337", "osm_id": "261660337", "name": "Катунь", "Длина": 0.0, "sum": 19 }, "geometry": { "type": "MultiLineString", "coordinates": [ ] } },
{ "type": "Feature", "properties": { "fid": 32, "full_id": "w382947345", "osm_id": "382947345", "name": "Катунь", "Длина": 0.0, "sum": 19 }, "geometry": { "type": "MultiLineString", "coordinates": [ ] } },
{ "type": "Feature", "properties": { "fid": 33, "full_id": "w382947346", "osm_id": "382947346", "name": "Катунь", "Длина": 0.0, "sum": 19 }, "geometry": { "type": "MultiLineString", "coordinates": [ ] } },
{ "type": "Feature", "properties": { "fid": 34, "full_id": "w416628398", "osm_id": "416628398", "name": "Катунь", "Длина": 0.0, "sum": 19 }, "geometry": { "type": "MultiLineString", "coordinates": [ ] } },
{ "type": "Feature", "properties": { "fid": 35, "full_id": "w416628399", "osm_id": "416628399", "name": "Катунь", "Длина": 0.0, "sum": 19 }, "geometry": { "type": "MultiLineString", "coordinates": [ ] } },
{ "type": "Feature", "properties": { "fid": 36, "full_id": "w418081231", "osm_id": "418081231", "name": "Катунь", "Длина": 0.0, "sum": 19 }, "geometry": { "type": "MultiLineString", "coordinates": [ ] } },
{ "type": "Feature", "properties": { "fid": 37, "full_id": "w418244320", "osm_id": "418244320", "name": "Катунь", "Длина": 0.0, "sum": 19 }, "geometry": { "type": "MultiLineString", "coordinates": [ ] } },
{ "type": "Feature", "properties": { "fid": 38, "full_id": "w418244321", "osm_id": "418244321", "name": "Катунь", "Длина": 0.0, "sum": 19 }, "geometry": { "type": "MultiLineString", "coordinates": [ ] } },
{ "type": "Feature", "properties": { "fid": 39, "full_id": "w421116153", "osm_id": "421116153", "name": "Катунь", "Длина": 0.0, "sum": 19 }, "geometry": { "type": "MultiLineString", "coordinates": [ ] } },
{ "type": "Feature", "properties": { "fid": 40, "full_id": "w443981820", "osm_id": "443981820", "name": "Катунь", "Длина": 0.0, "sum": 19 }, "geometry": { "type": "MultiLineString", "coordinates": [ ] } },
{ "type": "Feature", "properties": { "fid": 41, "full_id": "w444115897", "osm_id": "444115897", "name": "Катунь", "Длина": 0.0, "sum": 19 }, "geometry": { "type": "MultiLineString", "coordinates": [ ] } },
{ "type": "Feature", "properties": { "fid": 42, "full_id": "w496389763", "osm_id": "496389763", "name": "Катунь", "Длина": 0.0, "sum": 19 }, "geometry": { "type": "MultiLineString", "coordinates": [ ] } },
{ "type": "Feature", "properties": { "fid": 44, "full_id": "w526696586", "osm_id": "526696586", "name": "Катунь", "Длина": 0.0, "sum": 19 }, "geometry": { "type": "MultiLineString", "coordinates": [ ] } },
{ "type": "Feature", "properties": { "fid": 45, "full_id": "w541027032", "osm_id": "541027032", "name": "Катунь", "Длина": 0.0, "sum": 19 }, "geometry": { "type": "MultiLineString", "coordinates": [ ] } },
{ "type": "Feature", "properties": { "fid": 46, "full_id": "w560111321", "osm_id": "560111321", "name": "Катунь", "Длина": 0.0, "sum": 19 }, "geometry": { "type": "MultiLineString", "coordinates": [ ] } },
{ "type": "Feature", "properties": { "fid": 47, "full_id": "w560111322", "osm_id": "560111322", "name": "Катунь", "Длина": 0.0, "sum": 19 }, "geometry": { "type": "MultiLineString", "coordinates": [ ] } },
{ "type": "Feature", "properties": { "fid": 49, "full_id": "w560112658", "osm_id": "560112658", "name": "Катунь", "Длина": 0.0, "sum": 19 }, "geometry": { "type": "MultiLineString", "coordinates": [ ] } },
{ "type": "Feature", "properties": { "fid": 50, "full_id": "w599440167", "osm_id": "599440167", "name": "Катунь", "Длина": 0.0, "sum": 19 }, "geometry": { "type": "MultiLineString", "coordinates": [ ] } },
{ "type": "Feature", "properties": { "fid": 51, "full_id": "w607441331", "osm_id": "607441331", "name": "Катунь", "Длина": 0.0, "sum": 19 }, "geometry": { "type": "MultiLineString", "coordinates": [ ] } },
{ "type": "Feature", "properties": { "fid": 52, "full_id": "w607441332", "osm_id": "607441332", "name": "Катунь", "Длина": 0.0, "sum": 19 }, "geometry": { "type": "MultiLineString", "coordinates": [ ] } },
{ "type": "Feature", "properties": { "fid": 53, "full_id": "w647985161", "osm_id": "647985161", "name": "Катунь", "Длина": 0.0, "sum": 19 }, "geometry": { "type": "MultiLineString", "coordinates": [ ] } },
{ "type": "Feature", "properties": { "fid": 54, "full_id": "w654212657", "osm_id": "654212657", "name": "Катунь", "Длина": 0.0, "sum": 19 }, "geometry": { "type": "MultiLineString", "coordinates": [ ] } },
{ "type": "Feature", "properties": { "fid": 55, "full_id": "w656482607", "osm_id": "656482607", "name": "Катунь", "Длина": 0.0, "sum": 19 }, "geometry": { "type": "MultiLineString", "coordinates": [ ] } },
{ "type": "Feature", "properties": { "fid": 56, "full_id": "w656482609", "osm_id": "656482609", "name": "Катунь", "Длина": 0.0, "sum": 19 }, "geometry": { "type": "MultiLineString", "coordinates": [ ] } },
{ "type": "Feature", "properties": { "fid": 57, "full_id": "w656482638", "osm_id": "656482638", "name": "Катунь", "Длина": 0.0, "sum": 19 }, "geometry": { "type": "MultiLineString", "coordinates": [ ] } },
{ "type": "Feature", "properties": { "fid": 58, "full_id": "w656482639", "osm_id": "656482639", "name": "Катунь", "Длина": 0.0, "sum": 19 }, "geometry": { "type": "MultiLineString", "coordinates": [ ] } },
{ "type": "Feature", "properties": { "fid": 59, "full_id": "w656482640", "osm_id": "656482640", "name": null, "Длина": 0.0, "sum": 19 }, "geometry": { "type": "MultiLineString", "coordinates": [ ] } },
{ "type": "Feature", "properties": { "fid": 60, "full_id": "w656482643", "osm_id": "656482643", "name": "Катунь", "Длина": 0.0, "sum": 19 }, "geometry": { "type": "MultiLineString", "coordinates": [ ] } },
{ "type": "Feature", "properties": { "fid": 61, "full_id": "w656482644", "osm_id": "656482644", "name": "Катунь", "Длина": 0.0, "sum": 19 }, "geometry": { "type": "MultiLineString", "coordinates": [ ] } },
{ "type": "Feature", "properties": { "fid": 66, "full_id": "w734385293", "osm_id": "734385293", "name": null, "Длина": 589.79321316187941, "sum": 19 }, "geometry": { "type": "MultiLineString", "coordinates": [ [ [ 9562408.022946527227759, 6795573.542045200243592 ], [ 9562407.789175596088171, 6795600.558412475511432 ], [ 9562417.941513154655695, 6795621.466793376021087 ], [ 9562433.470582121983171, 6795633.411882238462567 ], [ 9562444.224044932052493, 6795650.724160308949649 ], [ 9562492.592363681644201, 6795745.074919274076819 ], [ 9562493.193488931283355, 6795788.067135198041797 ], [ 9562512.897038802504539, 6795814.939645032398403 ], [ 9562575.592176016420126, 6795856.143128558062017 ], [ 9562616.201526258140802, 6795951.689030778594315 ], [ 9562625.162745267152786, 6795999.471440746448934 ], [ 9562611.425920102745295, 6796057.392629714682698 ], [ 9562582.761151224374771, 6796100.386504067108035 ], [ 9562566.642088957130909, 6796120.08532898593694 ], [ 9562502.74470124207437, 6796163.693999045528471 ], [ 9562474.079932363703847, 6796203.688398174010217 ], [ 9562463.927594803273678, 6796280.731938983313739 ], [ 9562466.32096385397017, 6796305.220480473712087 ], [ 9562474.681057613343, 6796327.901815602555871 ], [ 9562466.910957157611847, 6796351.197691294364631 ], [ 9562472.888813812285662, 6796374.475561112165451 ], [ 9562484.517241939902306, 6796389.498765327036381 ] ] ] } },
{ "type": "Feature", "properties": { "fid": 67, "full_id": "w810440525", "osm_id": "810440525", "name": "Катунь", "Длина": 0.0, "sum": 19 }, "geometry": { "type": "MultiLineString", "coordinates": [ ] } },
{ "type": "Feature", "properties": { "fid": 68, "full_id": "w922009242", "osm_id": "922009242", "name": "Катунь", "Длина": 0.0, "sum": 19 }, "geometry": { "type": "MultiLineString", "coordinates": [ ] } },
{ "type": "Feature", "properties": { "fid": 71, "full_id": "w944819466", "osm_id": "944819466", "name": "р. Улалушка", "Длина": 14204.724297607456, "sum": 19 }, "geometry": { "type": "MultiLineString", "coordinates": [ [ [ 9580416.477534778416157, 6790034.994221220724285 ], [ 9580408.117441020905972, 6790035.590160450898111 ], [ 9580380.944353317841887, 6790042.145494871772826 ], [ 9580367.207528155297041, 6790042.452494133263826 ], [ 9580352.580147065222263, 6790040.068735458888113 ], [ 9580347.203415658324957, 6790037.37797840218991 ], [ 9580342.12724687717855, 6790033.188345033675432 ], [ 9580338.843321900814772, 6790026.037079292349517 ], [ 9580338.542759275063872, 6790020.059637266211212 ], [ 9580340.335003076121211, 6790014.082199648953974 ], [ 9580345.121741181239486, 6790008.122825150378048 ], [ 9580349.596784710884094, 6790003.933206912130117 ], [ 9580350.487340638414025, 6789997.955781198106706 ], [ 9580348.405666159465909, 6789992.285357254557312 ], [ 9580344.520615929737687, 6789986.614937282167375 ], [ 9580335.258834296837449, 6789976.772975731641054 ], [ 9580311.970796823501587, 6789961.531502913683653 ], [ 9580300.927903335541487, 6789955.265171104110777 ], [ 9580282.415472015738487, 6789948.402911284938455 ], [ 9580275.847622059285641, 6789946.904050043784082 ], [ 9580268.678646853193641, 6789946.615112968720496 ], [ 9580262.110796894878149, 6789947.499982793815434 ], [ 9580256.144072188064456, 6789949.287781302817166 ], [ 9580246.281165305525064, 6789958.244838363490999 ], [ 9580241.505559150129557, 6789964.222234774380922 ], [ 9580225.987622134387493, 6789988.998680226504803 ], [ 9580223.293690457940102, 6789994.687160541303456 ], [ 9580218.518084300681949, 6790000.646525159478188 ], [ 9580214.04304077103734, 6790004.836141695268452 ], [ 9580208.36574674025178, 6790009.007701691240072 ], [ 9580202.399022033438087, 6790011.698449323885143 ], [ 9580195.530609453096986, 6790014.082199648953974 ], [ 9580176.417052883654833, 6790019.156700786203146 ], [ 9580148.653971880674362, 6790023.942265272140503 ], [ 9580135.507140016183257, 6790024.231205102987587 ], [ 9580121.480884177610278, 6790021.251513572409749 ], [ 9580110.137428063899279, 6790015.58107332047075 ], [ 9580104.460134034976363, 6790012.005447433330119 ], [ 9580098.782840004190803, 6790008.718762401491404 ], [ 9580093.706671223044395, 6790005.125080845318735 ], [ 9580089.832752944901586, 6789999.454651885665953 ], [ 9580087.439383892342448, 6789993.784226890653372 ], [ 9580086.548827966675162, 6789986.614937282167375 ], [ 9580086.838258642703295, 6789980.348586067557335 ], [ 9580089.532190319150686, 6789973.77524303086102 ], [ 9580093.417240548878908, 6789967.797839568927884 ], [ 9580097.892284076660872, 6789963.31930452119559 ], [ 9580107.744059013202786, 6789955.265171104110777 ], [ 9580111.629109241068363, 6789950.497705770656466 ], [ 9580113.421353043988347, 6789937.351073477417231 ], [ 9580112.219102542847395, 6789931.084760375320911 ], [ 9580109.235740188509226, 6789925.10738841816783 ], [ 9580105.350689960643649, 6789920.032946199178696 ], [ 9580095.498915025964379, 6789911.075931393541396 ], [ 9580089.231627693399787, 6789907.193357487209141 ], [ 9580077.888171581551433, 6789901.5229970831424 ], [ 9580070.418633749708533, 6789899.139279878698289 ], [ 9580064.151346417143941, 6789898.54335068911314 ], [ 9580044.447796547785401, 6789900.331138391047716 ], [ 9580037.879946591332555, 6789901.811932547949255 ], [ 9580031.902089934796095, 6789905.405568269081414 ], [ 9580026.235927853733301, 6789908.981147102080286 ], [ 9580020.85919644869864, 6789913.170716226100922 ], [ 9580015.181902417913079, 6789918.841084786690772 ], [ 9579992.784420872107148, 6789972.294435719959438 ], [ 9579987.118258789181709, 6789981.251518218778074 ], [ 9579977.567046480253339, 6789991.996418561786413 ], [ 9579972.490877699106932, 6789997.359844735823572 ], [ 9579961.13628963753581, 6790006.316954956389964 ], [ 9579949.191708276048303, 6790010.795513777062297 ], [ 9579934.864889809861779, 6790013.197322552092373 ], [ 9579920.827502021566033, 6790012.890324398875237 ], [ 9579900.823389526456594, 6790010.795513777062297 ], [ 9579894.556102195754647, 6790011.391451227478683 ], [ 9579887.988252237439156, 6790012.601384969428182 ], [ 9579877.234789429232478, 6790015.870012854225934 ], [ 9579863.798526888713241, 6790020.962573845870793 ], [ 9579858.132364807650447, 6790023.635266709141433 ], [ 9579848.870583172887564, 6790029.305712598375976 ], [ 9579837.527127061039209, 6790039.761736287735403 ], [ 9579829.167033303529024, 6790050.50671424344182 ], [ 9579824.090864522382617, 6790063.057588892988861 ], [ 9579824.090864522382617, 6790069.631004385650158 ], [ 9579827.37478950060904, 6790075.897424668073654 ], [ 9579843.794414393603802, 6790096.502604505978525 ], [ 9579846.488346070051193, 6790101.866099879145622 ], [ 9579847.980027247220278, 6790108.439546862617135 ], [ 9579843.493851767852902, 6790135.311275728046894 ], [ 9579843.204421089962125, 6790150.535016520880163 ], [ 9579842.603295842185616, 6790156.512554830871522 ], [ 9579840.510489415377378, 6790163.086046162992716 ], [ 9579834.243202082812786, 6790174.716082359664142 ], [ 9579829.167033303529024, 6790179.808743215166032 ], [ 9579823.200308596715331, 6790182.788493075408041 ], [ 9579816.331896014511585, 6790184.883348177187145 ], [ 9579810.053476732224226, 6790182.788493075408041 ], [ 9579806.179558454081416, 6790177.713889426551759 ], [ 9579802.595070850104094, 6790171.447390374727547 ], [ 9579799.010583246126771, 6790166.372793829999864 ], [ 9579790.349926862865686, 6790156.205551247112453 ], [ 9579785.273758081719279, 6790152.629863280802965 ], [ 9579779.006470751017332, 6790150.842019892297685 ], [ 9579764.969082960858941, 6790149.650124518200755 ], [ 9579758.10067038051784, 6790151.726912024430931 ], [ 9579747.658902144059539, 6790159.4922961210832 ], [ 9579742.582733364775777, 6790163.970939635299146 ], [ 9579737.795995261520147, 6790169.948487861081958 ], [ 9579735.413758156821132, 6790175.926040499471128 ], [ 9579732.430395804345608, 6790189.055000901222229 ], [ 9579731.829270552843809, 6790195.32151357550174 ], [ 9579731.829270552843809, 6790202.20204171910882 ], [ 9579733.320951730012894, 6790208.468564563430846 ], [ 9579736.003751458600163, 6790214.735092257149518 ], [ 9579746.156089017167687, 6790231.457895941101015 ], [ 9579748.850020695477724, 6790236.821480675600469 ], [ 9579750.942827122285962, 6790243.990991745144129 ], [ 9579751.232257798314095, 6790249.968599024228752 ], [ 9579749.440013997256756, 6790256.831114331260324 ], [ 9579747.057776894420385, 6790263.097679438069463 ], [ 9579744.074414540082216, 6790268.479344410821795 ], [ 9579738.998245760798454, 6790272.95804818533361 ], [ 9579733.020389104261994, 6790274.149961702525616 ], [ 9579726.452539147809148, 6790274.456969759427011 ], [ 9579719.884689189493656, 6790272.362091490998864 ], [ 9579701.372257873415947, 6790264.000643108971417 ], [ 9579696.596651716157794, 6790259.828951789066195 ], [ 9579689.728239135816693, 6790248.776689062826335 ], [ 9579689.127113884314895, 6790241.896121354773641 ], [ 9579687.63543270714581, 6790235.629572650417686 ], [ 9579684.050945105031133, 6790230.554935896769166 ], [ 9579677.78365777246654, 6790227.864115562289953 ], [ 9579670.614682564511895, 6790226.979215111583471 ], [ 9579657.478982651606202, 6790227.268162186257541 ], [ 9579644.944407988339663, 6790228.460068982094526 ], [ 9579632.398701377213001, 6790230.554935896769166 ], [ 9579619.864126713946462, 6790233.245757124386728 ], [ 9579613.585707431659102, 6790235.340625274926424 ], [ 9579607.318420100957155, 6790238.031448095105588 ], [ 9579594.182720188051462, 6790245.778855693526566 ], [ 9579588.215995479375124, 6790250.564554069191217 ], [ 9579584.030382627621293, 6790255.35025527048856 ], [ 9579581.347582899034023, 6790261.309811665676534 ], [ 9579580.445895021781325, 6790268.479344410821795 ], [ 9579578.954213844612241, 6790274.745918528176844 ], [ 9579576.861407419666648, 6790281.012497494928539 ], [ 9579569.992994837462902, 6790291.468846106901765 ], [ 9579565.517951307818294, 6790296.254571477882564 ], [ 9579537.153745055198669, 6790312.959484077990055 ], [ 9579515.357388757169247, 6790317.745222145691514 ], [ 9579489.976544855162501, 6790321.627992844209075 ], [ 9579467.579063307493925, 6790323.415873929858208 ], [ 9579460.120657425373793, 6790323.722883853130043 ], [ 9579452.951682217419147, 6790324.607794873416424 ], [ 9579440.116544928401709, 6790328.797578976489604 ], [ 9579434.439250899478793, 6790331.777383645996451 ], [ 9579425.489163838326931, 6790341.330825396813452 ], [ 9579423.095794787630439, 6790347.3085045106709 ], [ 9579424.888038590550423, 6790353.882150683552027 ], [ 9578555.115461174398661, 6790627.379454948939383 ], [ 9578557.942976238206029, 6790632.67106147762388 ], [ 9578555.115461174398661, 6790627.379454948939383 ], [ 9578543.170879812911153, 6790615.730708735063672 ], [ 9578535.71247392706573, 6790608.867889350280166 ], [ 9578532.717979626730084, 6790604.38899983279407 ], [ 9578525.860698994249105, 6790601.391034848988056 ], [ 9578525.560136368498206, 6790595.431228232569993 ], [ 9578523.767892565578222, 6790589.760386011563241 ], [ 9578519.281717088073492, 6790585.570466917939484 ], [ 9578507.938260976225138, 6790578.11169389821589 ], [ 9578501.670973643660545, 6790576.612716128118336 ], [ 9578495.704248938709497, 6790576.323756590485573 ], [ 9578489.425829656422138, 6790576.612716128118336 ], [ 9578482.26798639819026, 6790578.11169389821589 ], [ 9578475.399573817849159, 6790578.400653499178588 ], [ 9578469.1211545355618, 6790577.515714751556516 ], [ 9578462.553304580971599, 6790576.016737092286348 ], [ 9578455.985454622656107, 6790573.92178083024919 ], [ 9578449.117042040452361, 6790570.652927746064961 ], [ 9578437.773585930466652, 6790564.675083802081645 ], [ 9578432.997979773208499, 6790559.889199838042259 ], [ 9578422.84564221277833, 6790543.165718073956668 ], [ 9578418.070036057382822, 6790538.686864890158176 ], [ 9578412.092179402709007, 6790535.418026023544371 ], [ 9578406.125454695895314, 6790533.612038265913725 ], [ 9578399.257042113691568, 6790534.208014181815088 ], [ 9578392.388629531487823, 6790536.30296017229557 ], [ 9578386.421904826536775, 6790537.494912443682551 ], [ 9578374.477323463186622, 6790542.876759730279446 ], [ 9578368.198904182761908, 6790546.452619969844818 ], [ 9578334.168535847216845, 6790558.697244271636009 ], [ 9578314.46498597599566, 6790561.081155580468476 ], [ 9578308.186566695570946, 6790562.580130473710597 ], [ 9578301.318154115229845, 6790564.964042925275862 ], [ 9578295.351429408416152, 6790569.15395135525614 ], [ 9578291.766941804438829, 6790574.228800249285996 ], [ 9578289.674135377630591, 6790580.495610920712352 ], [ 9578290.575823251157999, 6790586.762426438741386 ], [ 9578302.219841988757253, 6790595.431228232569993 ], [ 9578313.563298100605607, 6790603.485998216085136 ], [ 9578318.038341630250216, 6790607.675926576368511 ], [ 9578320.732273308560252, 6790613.635742199607193 ], [ 9578319.5300228074193, 6790620.498565626330674 ], [ 9578315.65610452927649, 6790626.18748945184052 ], [ 9578305.804329592734575, 6790635.741278453730047 ], [ 9578293.559185605496168, 6790643.200104542076588 ], [ 9578280.724048316478729, 6790650.965959826484323 ], [ 9578262.801610300317407, 6790664.691675749607384 ], [ 9578256.834885591641068, 6790669.766584500670433 ], [ 9578251.157591562718153, 6790674.24551016651094 ], [ 9578243.988616356626153, 6790677.839488602243364 ], [ 9578237.721329024061561, 6790679.91641154140234 ], [ 9578224.886191735044122, 6790680.223434978164732 ], [ 9578218.618904404342175, 6790679.320424905046821 ], [ 9578212.641047747805715, 6790675.744506004266441 ], [ 9578207.865441592410207, 6790670.976616594009101 ], [ 9578204.882079239934683, 6790664.998698610812426 ], [ 9578203.089835438877344, 6790658.731822558678687 ], [ 9578202.488710187375546, 6790651.850906599313021 ], [ 9578199.805910458788276, 6790637.818190596066415 ], [ 9578196.521985482424498, 6790632.147318697534502 ], [ 9578191.74637932702899, 6790627.975437765009701 ], [ 9578185.467960046604276, 6790625.880468063987792 ], [ 9578179.200672714039683, 6790625.284485401585698 ], [ 9578166.06497280113399, 6790627.379454948939383 ], [ 9578159.797685470432043, 6790627.668416309170425 ], [ 9578117.997216675430536, 6790626.783472178503871 ], [ 9578104.850384812802076, 6790620.805586808361113 ], [ 9578098.28253485634923, 6790619.613622278906405 ], [ 9578085.74796019308269, 6790618.421657923609018 ], [ 9578078.57898498699069, 6790618.421657923609018 ], [ 9578071.710572404786944, 6790619.902583358809352 ], [ 9578059.765991041436791, 6790624.688502784818411 ], [ 9578054.990384887903929, 6790628.860382026061416 ], [ 9578050.214778730645776, 6790634.242290019057691 ], [ 9578046.930853754281998, 6790639.317179691046476 ], [ 9578038.270197369158268, 6790657.539852446876466 ], [ 9578036.17739094235003, 6790664.0956902327016 ], [ 9578035.587397640570998, 6790677.839488602243364 ], [ 9578027.465158857405186, 6790666.437241654843092 ], [ 9577986.223397621884942, 6790661.951266932301223 ], [ 9577723.194325523450971, 6790872.812241653911769 ], [ 9577673.398302396759391, 6790884.757810316979885 ], [ 9577625.352810170501471, 6790930.469466043636203 ], [ 9577669.316736377775669, 6791042.262711840681732 ], [ 9577601.485992189496756, 6791071.249741653911769 ], [ 9577574.613386267796159, 6791121.139158430509269 ], [ 9577659.372046556323767, 6791131.090877822600305 ], [ 9577660.863727733492851, 6791137.954139701090753 ], [ 9577665.038208639249206, 6791145.124448457732797 ], [ 9577670.114377416670322, 6791149.296595765277743 ], [ 9577675.491108823567629, 6791152.583743643946946 ], [ 9577657.04849218763411, 6791161.208074988797307 ], [ 9577625.931671522557735, 6791259.778005843050778 ], [ 9577617.872140388935804, 6791247.821305121295154 ], [ 9577615.178208712488413, 6791241.553978106938303 ], [ 9577611.293158482760191, 6791228.423311587423086 ], [ 9577608.009233504533768, 6791223.041008766740561 ], [ 9577603.834752600640059, 6791218.561779614537954 ], [ 9577597.266902644187212, 6791216.177674785256386 ], [ 9577590.69905268587172, 6791215.888692432083189 ], [ 9577584.420633405447006, 6791217.080744714476168 ], [ 9577577.85278344899416, 6791221.252929089590907 ], [ 9577573.678302543237805, 6791226.63523072283715 ], [ 9577570.694940190762281, 6791232.902546193450689 ], [ 9577569.203259013593197, 6791239.476911147125065 ], [ 9577569.492689689621329, 6791246.033219973556697 ], [ 9577572.776614667847753, 6791252.607595587149262 ], [ 9577582.33895892649889, 6791262.758153030648828 ], [ 9577559.152658857405186, 6791278.947658320888877 ], [ 9577582.965158853679895, 6791321.280991654843092 ], [ 9577617.36099218763411, 6791350.385158321820199 ], [ 9577647.78807551972568, 6791366.260158321820199 ], [ 9577661.553908579051495, 6791384.150413847528398 ], [ 9577651.479494659230113, 6791468.643824627622962 ], [ 9577521.502857208251953, 6791462.629193995147943 ], [ 9577474.715275228023529, 6791549.868868565186858 ], [ 9577393.507706694304943, 6791374.902791794389486 ], [ 9577270.488537419587374, 6791464.471512812189758 ], [ 9577131.350305877625942, 6791232.180088831111789 ], [ 9577098.511056093499064, 6791318.171028978191316 ], [ 9577185.696481281891465, 6791451.340484893880785 ], [ 9577099.70217464491725, 6791515.821803020313382 ], [ 9576818.074994888156652, 6791444.458895545452833 ], [ 9576750.960473887622356, 6791427.444597372785211 ], [ 9576641.678129775449634, 6791482.985034012235701 ], [ 9576836.954780524596572, 6791703.940402722917497 ], [ 9576707.367761293426156, 6791722.454471318982542 ], [ 9576545.531485576182604, 6791877.107300551608205 ], [ 9576486.409704018384218, 6791856.208585185930133 ], [ 9576402.218773130327463, 6791903.388821229338646 ], [ 9576415.944466345012188, 6791957.722297274507582 ], [ 9576321.601197898387909, 6792013.266370474360883 ], [ 9576389.673066517338157, 6792171.519394317641854 ], [ 9576164.540528336539865, 6792403.81969768833369 ], [ 9576183.052959656342864, 6792586.539586907252669 ], [ 9576083.332959802821279, 6792680.29464496858418 ], [ 9575937.615746354684234, 6792719.115698711946607 ], [ 9575843.272477908059955, 6793103.687218180857599 ], [ 9575818.314648073166609, 6793259.070998318493366 ], [ 9575808.03985907137394, 6793360.475833339616656 ], [ 9575762.631825525313616, 6793506.739324986003339 ], [ 9575720.298492193222046, 6793682.687241653911769 ], [ 9575667.912669334560633, 6793902.118031902238727 ], [ 9575570.808908861130476, 6793918.166408322751522 ], [ 9575480.604708852246404, 6793929.219160307198763 ], [ 9575344.590158861130476, 6793982.989324988797307 ], [ 9575295.39134006947279, 6793951.171140806749463 ], [ 9575239.831782214343548, 6794005.012464284896851 ], [ 9575089.951219813898206, 6794008.445312483236194 ], [ 9575023.749518638476729, 6794054.409483324736357 ], [ 9574795.321923527866602, 6793987.179744677618146 ], [ 9574767.54771057702601, 6794014.281157766468823 ], [ 9574816.249987797811627, 6794109.2813606755808 ], [ 9574806.643115742132068, 6794136.726472742855549 ], [ 9574692.774408610537648, 6794101.385713669471443 ], [ 9574636.86976033449173, 6794137.413053434342146 ], [ 9574703.060329560190439, 6794263.275118378922343 ], [ 9574644.417221808806062, 6794324.671076144091785 ], [ 9574606.691046379506588, 6794316.793287431821227 ], [ 9574450.977342657744884, 6794363.771039963699877 ], [ 9574306.23974072933197, 6794268.767851378768682 ], [ 9574232.490578077733517, 6794296.213503996841609 ], [ 9574225.421790413558483, 6794322.502876652404666 ], [ 9574197.168903650715947, 6794427.570877979509532 ], [ 9574220.835427392274141, 6794474.892577857710421 ], [ 9574122.740692105144262, 6794600.777957460843027 ], [ 9574075.407644620165229, 6794573.331272524781525 ], [ 9574087.073927255347371, 6794500.965705919079483 ], [ 9574060.657812090590596, 6794476.952406126074493 ], [ 9573953.312427116557956, 6794445.747870880179107 ], [ 9573840.467859301716089, 6794478.325625262223184 ], [ 9573770.158468917012215, 6794390.873713475652039 ], [ 9573725.552748955786228, 6794353.0745431156829 ], [ 9573707.040317637845874, 6794344.130692578852177 ], [ 9573694.194048399105668, 6794341.72759906668216 ], [ 9573686.813566159456968, 6794345.937530272640288 ], [ 9573684.052842786535621, 6794358.151763675734401 ], [ 9573681.659473733976483, 6794385.037596781738102 ], [ 9573681.659473733976483, 6794420.867444573901594 ], [ 9573685.778294894844294, 6794442.314837285317481 ], [ 9573762.956097861751914, 6794502.68223496619612 ], [ 9573750.94472480379045, 6794591.85190225020051 ], [ 9573671.718643207103014, 6794596.658238447271287 ], [ 9573579.11195881664753, 6794638.162696407176554 ], [ 9573512.231208747252822, 6794634.729581236839294 ], [ 9573475.874263053759933, 6794566.13985893689096 ], [ 9573423.064296623691916, 6794586.377019003964961 ], [ 9573408.65955451503396, 6794646.727421656250954 ], [ 9573466.957571841776371, 6794715.679210664704442 ], [ 9573340.398442758247256, 6794784.613517470657825 ], [ 9573287.243385905399919, 6794767.809032099321485 ], [ 9573281.410244587808847, 6794721.497496452182531 ], [ 9573266.660412058234215, 6794694.068471480160952 ], [ 9573232.017786523327231, 6794685.142313432879746 ], [ 9573192.577290935441852, 6794712.932692115195096 ], [ 9573192.232200514525175, 6794774.313990041613579 ], [ 9573269.743961952626705, 6794904.992474356666207 ], [ 9573245.743479738011956, 6794931.410311386920512 ], [ 9573192.577290935441852, 6794916.665461483411491 ], [ 9573169.93490650691092, 6794872.069681811146438 ], [ 9573130.973084731027484, 6794886.163945437408984 ], [ 9573117.536822190508246, 6794899.589657834731042 ], [ 9573090.675429062917829, 6794930.940499577671289 ], [ 9573070.33735809288919, 6794946.751488864421844 ], [ 9573063.814035933464766, 6794951.829081688076258 ], [ 9573039.936005158349872, 6794954.810587855055928 ], [ 9573007.107887323945761, 6794945.866072650998831 ], [ 9572990.688262432813644, 6794920.496228728443384 ], [ 9572989.19658125564456, 6794883.182464547455311 ], [ 9572965.318550480529666, 6794868.257007022388279 ], [ 9572935.473794998601079, 6794860.794288575649261 ], [ 9572905.629039516672492, 6794823.480799512937665 ], [ 9572865.331383850425482, 6794820.499341703951359 ], [ 9572832.503266016021371, 6794802.592548504471779 ], [ 9572823.542047005146742, 6794777.223153481259942 ], [ 9572796.680653877556324, 6794763.797643971629441 ], [ 9572756.394130159169436, 6794763.797643971629441 ], [ 9572736.99114291369915, 6794775.741467621177435 ], [ 9572722.063199199736118, 6794804.092308675870299 ], [ 9572726.538242729380727, 6794829.461787883192301 ], [ 9572725.046561552211642, 6794863.775761221535504 ], [ 9572701.168530777096748, 6794881.682689728215337 ], [ 9572663.865369413048029, 6794880.200984756462276 ], [ 9572629.534438451752067, 6794875.719732346944511 ], [ 9572604.164726499468088, 6794847.368640503846109 ], [ 9572584.77287120372057, 6794824.980563552118838 ], [ 9572586.264552380889654, 6794795.129890576936305 ], [ 9572599.689682967960835, 6794759.316455983556807 ], [ 9572610.142583156004548, 6794730.965771704912186 ], [ 9572616.109307860955596, 6794698.134032557718456 ], [ 9572604.164726499468088, 6794653.358765782788396 ], [ 9572586.264552380889654, 6794625.008452485315502 ], [ 9572583.281190026551485, 6794584.714678948745131 ], [ 9572583.281190026551485, 6794536.958685923367739 ], [ 9572577.30333337187767, 6794505.609369551762938 ], [ 9572557.900346126407385, 6794472.778544126078486 ], [ 9572538.508490828797221, 6794462.334864221513271 ], [ 9572508.652603399008512, 6794480.240904975682497 ], [ 9572481.791210271418095, 6794508.608780160546303 ], [ 9572442.996367728337646, 6794536.958685923367739 ], [ 9572413.151612246409059, 6794535.458975229412317 ], [ 9572366.887231875211, 6794511.590123132802546 ], [ 9572296.744820725172758, 6794474.278243211098015 ], [ 9572247.497077997773886, 6794432.485528096556664 ], [ 9572214.657828215509653, 6794390.711097164079547 ], [ 9572205.707741154357791, 6794356.381060056388378 ], [ 9572219.144003693014383, 6794331.302156527526677 ], [ 9572237.344740437343717, 6794316.684877548366785 ], [ 9572288.985852217301726, 6794303.260131593793631 ], [ 9572311.361069867387414, 6794297.893853098154068 ], [ 9572325.498645195737481, 6794283.818681619130075 ], [ 9572332.266870236024261, 6794262.353640507906675 ], [ 9572324.608089270070195, 6794229.776755007915199 ], [ 9572310.169951314106584, 6794199.675323396921158 ], [ 9572282.41800226084888, 6794173.422485495917499 ], [ 9572244.213153019547462, 6794155.499055241234601 ], [ 9572202.423816176131368, 6794151.921601127833128 ], [ 9572157.061123676598072, 6794144.766697646118701 ], [ 9572115.271786833181977, 6794123.265889368019998 ], [ 9572069.909094335511327, 6794091.032851802185178 ], [ 9572023.344151336699724, 6794056.415001436136663 ], [ 9571981.554814493283629, 6794024.182229969650507 ], [ 9571948.12557140737772, 6794005.970048110932112 ], [ 9571917.980253301560879, 6793996.123200968839228 ], [ 9571851.422329755499959, 6793977.622001296840608 ], [ 9571831.128786582499743, 6793959.717071941122413 ], [ 9571808.441874360665679, 6793915.542112838476896 ], [ 9571752.325719051063061, 6793826.000481037423015 ], [ 9571727.256569724529982, 6793803.308085927739739 ], [ 9571674.724902018904686, 6793790.17326526530087 ], [ 9571623.395484816282988, 6793783.018681404180825 ], [ 9571595.932966437190771, 6793773.461178988218307 ], [ 9571573.246054213494062, 6793738.844686209224164 ], [ 9571567.279329506680369, 6793707.805597739294171 ], [ 9571582.797266522422433, 6793682.728702788241208 ], [ 9571611.450903452932835, 6793654.074651317670941 ], [ 9571610.259784901514649, 6793621.843481294810772 ], [ 9571591.157360281795263, 6793586.017168750986457 ], [ 9571573.246054213494062, 6793553.786269607953727 ], [ 9571566.088210955262184, 6793521.555498746223748 ], [ 9571566.088210955262184, 6793477.38292979542166 ], [ 9571529.074480265378952, 6793426.038266978226602 ], [ 9571482.509537266567349, 6793399.76987078320235 ], [ 9571453.855900337919593, 6793366.347344057634473 ], [ 9571406.09983878582716, 6793328.137435203418136 ], [ 9571372.67059569992125, 6793291.138130260631442 ], [ 9571329.69014030508697, 6793279.196496145799756 ], [ 9571270.000629343092442, 6793276.811784636229277 ], [ 9571238.953623360022902, 6793270.831942949444056 ], [ 9571210.299986429512501, 6793240.986998497508466 ], [ 9571169.712900085374713, 6793198.008303817361593 ], [ 9571130.316932294517756, 6793125.185319549404085 ], [ 9571096.887689208611846, 6793079.822585938498378 ], [ 9571077.78526458889246, 6793041.614028970710933 ], [ 9571045.547140056267381, 6793008.174914981238544 ], [ 9571025.253596885129809, 6792991.464442441239953 ], [ 9570991.8243537992239, 6792971.177071853540838 ], [ 9570940.483804645016789, 6792962.812836797907948 ], [ 9570901.087836852297187, 6792972.369382521137595 ], [ 9570862.882987612858415, 6792991.464442441239953 ], [ 9570821.09365076944232, 6793003.405652275308967 ], [ 9570769.764233564957976, 6792998.636392377316952 ], [ 9570720.817053463310003, 6792993.849069927819073 ], [ 9570650.374079689383507, 6792983.118251772597432 ], [ 9570565.604287449270487, 6792952.063994498923421 ], [ 9570502.330288883298635, 6792925.797135699540377 ], [ 9570446.214133575558662, 6792905.509929614141583 ], [ 9570433.089565608650446, 6792882.82011373527348 ], [ 9570435.471802711486816, 6792862.533015311695635 ], [ 9570448.607502624392509, 6792830.28693050891161 ], [ 9570498.745801279321313, 6792767.023556229658425 ], [ 9570513.072619745507836, 6792732.393300518393517 ], [ 9570527.399438209831715, 6792692.994112986139953 ], [ 9570535.7595319673419, 6792654.78738103993237 ], [ 9570534.568413415923715, 6792632.11633216496557 ], [ 9570519.039344452321529, 6792621.367928779684007 ], [ 9570491.587958021089435, 6792614.196312943473458 ], [ 9570470.092164348810911, 6792621.367928779684007 ], [ 9570448.607502624392509, 6792636.885376218706369 ], [ 9570422.336102796718478, 6792658.364173829555511 ], [ 9570381.749016456305981, 6792690.609574086032808 ], [ 9570354.286498077213764, 6792696.570922647602856 ], [ 9570331.599585853517056, 6792688.225035890005529 ], [ 9570318.953691700473428, 6792669.708759392611682 ], [ 9570310.593597939237952, 6792638.65570389200002 ], [ 9570318.953691700473428, 6792601.641484388150275 ], [ 9570341.651735872030258, 6792574.165445487946272 ], [ 9570373.889860404655337, 6792556.245554494671524 ], [ 9570422.859304405748844, 6792534.748963380232453 ], [ 9570445.557348577305675, 6792514.444672573357821 ], [ 9570467.053142251446843, 6792482.199973728507757 ], [ 9570478.997723612934351, 6792436.822777464054525 ], [ 9570468.244260801002383, 6792400.983642920851707 ], [ 9570440.781742423772812, 6792381.871911213733256 ], [ 9570413.308092094957829, 6792374.718571436591446 ], [ 9570388.227810818701982, 6792387.851096532307565 ], [ 9570347.618460578843951, 6792429.651325047016144 ], [ 9570333.291642114520073, 6792481.007735225372016 ], [ 9570309.402479387819767, 6792529.9799794703722 ], [ 9570267.602010598406196, 6792558.630053832195699 ], [ 9570226.992660354822874, 6792550.284309224225581 ], [ 9570173.247610200196505, 6792520.423955770209432 ], [ 9570150.560697976499796, 6792497.735218768939376 ], [ 9570135.031629011034966, 6792472.644006409682333 ], [ 9570137.413866113871336, 6792438.015009463764727 ], [ 9570160.111910287290812, 6792409.347297732718289 ], [ 9570215.048078991472721, 6792363.970509661361575 ], [ 9570235.352754112333059, 6792338.879711722023785 ], [ 9570236.54387266561389, 6792311.404564267024398 ], [ 9570209.081354286521673, 6792293.503318475559354 ], [ 9570169.663122596219182, 6792276.776256752200425 ], [ 9570145.773959871381521, 6792245.72470785304904 ], [ 9570146.976210372522473, 6792219.442076248116791 ], [ 9570186.383310113102198, 6792187.19855191744864 ], [ 9570225.801541803404689, 6792157.339537145569921 ], [ 9570244.90396642498672, 6792139.420568432658911 ], [ 9570271.186498198658228, 6792114.348529557697475 ], [ 9570280.737710509449244, 6792078.510822013020515 ], [ 9570278.344341458752751, 6792043.883510271087289 ], [ 9570259.24191683717072, 6792014.025023867376149 ], [ 9570188.77667916379869, 6791998.490706659853458 ], [ 9570144.582841319963336, 6791998.490706659853458 ], [ 9570096.815647820010781, 6792020.003937617875636 ], [ 9570027.541528699919581, 6792071.3577501764521 ], [ 9569903.331240873783827, 6792151.378585491329432 ], [ 9569825.697027994319797, 6792176.450739001855254 ], [ 9569782.70544064976275, 6792205.117626344785094 ], [ 9569755.231790322810411, 6792205.117626344785094 ], [ 9569737.320484252646565, 6792170.489773281849921 ], [ 9569717.015809131786227, 6792105.985179387964308 ], [ 9569664.461877530440688, 6791981.782317338511348 ], [ 9569632.212621046230197, 6791898.16863610688597 ], [ 9569598.772246012464166, 6791855.179004233330488 ], [ 9569556.971777219325304, 6791821.744788617826998 ], [ 9569519.94691458158195, 6791795.463532875292003 ], [ 9569480.539814841002226, 6791769.182362413965166 ], [ 9569442.323833651840687, 6791754.858708850108087 ], [ 9569364.689620770514011, 6791763.221696440130472 ], [ 9569310.944570617750287, 6791765.60596230160445 ], [ 9569253.61503285728395, 6791771.566630029119551 ], [ 9569203.454470308497548, 6791785.90837580896914 ], [ 9569166.429607668891549, 6791782.331968314014375 ], [ 9569084.019788634032011, 6791777.54536479152739 ], [ 9569037.443713687360287, 6791778.737499745562673 ], [ 9568982.507544981315732, 6791812.189600544981658 ], [ 9568903.67108160071075, 6791888.613357870839536 ], [ 9568826.048000670969486, 6791948.329516047611833 ], [ 9568769.909581463783979, 6791986.550978451967239 ], [ 9568713.782294206321239, 6791994.914205288514495 ], [ 9568683.915274826809764, 6792003.277440762147307 ], [ 9568662.419481152668595, 6792015.217193628661335 ], [ 9568642.114806031808257, 6792052.24679631087929 ], [ 9568618.236775258556008, 6792084.489783368073404 ], [ 9568575.234055964276195, 6792086.874143810942769 ], [ 9568531.051350068300962, 6792085.681963500566781 ], [ 9568486.857512224465609, 6792061.802267607301474 ], [ 9568412.807786948978901, 6792064.186621369794011 ], [ 9568371.007318153977394, 6792074.934285304509103 ], [ 9568324.431243205443025, 6792079.721064588986337 ], [ 9568279.046286810189486, 6792080.913244020193815 ], [ 9568239.62805512174964, 6792066.570975835435092 ], [ 9568163.585710959509015, 6792054.12537578959018 ] ] ] } },
{ "type": "Feature", "properties": { "fid": 77, "full_id": "w1087420196", "osm_id": "1087420196", "name": "Катунь", "Длина": 0.0, "sum": 19 }, "geometry": { "type": "MultiLineString", "coordinates": [ ] } },
{ "type": "Feature", "properties": { "fid": 78, "full_id": "w1087420197", "osm_id": "1087420197", "name": "Катунь", "Длина": 0.0, "sum": 19 }, "geometry": { "type": "MultiLineString", "coordinates": [ ] } },
{ "type": "Feature", "properties": { "fid": 79, "full_id": "w1087420198", "osm_id": "1087420198", "name": "Катунь", "Длина": 0.0, "sum": 19 }, "geometry": { "type": "MultiLineString", "coordinates": [ ] } },
{ "type": "Feature", "properties": { "fid": 80, "full_id": "w1087420200", "osm_id": "1087420200", "name": "Катунь", "Длина": 0.0, "sum": 19 }, "geometry": { "type": "MultiLineString", "coordinates": [ ] } },
{ "type": "Feature", "properties": { "fid": 81, "full_id": "w1087420692", "osm_id": "1087420692", "name": "Катунь", "Длина": 0.0, "sum": 19 }, "geometry": { "type": "MultiLineString", "coordinates": [ ] } },
{ "type": "Feature", "properties": { "fid": 82, "full_id": "w1088760024", "osm_id": "1088760024", "name": "Катунь", "Длина": 0.0, "sum": 19 }, "geometry": { "type": "MultiLineString", "coordinates": [ ] } },
{ "type": "Feature", "properties": { "fid": 83, "full_id": "w1088760025", "osm_id": "1088760025", "name": "Катунь", "Длина": 0.0, "sum": 19 }, "geometry": { "type": "MultiLineString", "coordinates": [ ] } },
{ "type": "Feature", "properties": { "fid": 84, "full_id": "w1088760026", "osm_id": "1088760026", "name": "Катунь", "Длина": 0.0, "sum": 19 }, "geometry": { "type": "MultiLineString", "coordinates": [ ] } },
{ "type": "Feature", "properties": { "fid": 85, "full_id": "w1088760027", "osm_id": "1088760027", "name": "Катунь", "Длина": 0.0, "sum": 19 }, "geometry": { "type": "MultiLineString", "coordinates": [ ] } },
{ "type": "Feature", "properties": { "fid": 93, "full_id": null, "osm_id": null, "name": "р. Каяс", "Длина": 4440.0833462361907, "sum": 19 }, "geometry": { "type": "MultiLineString", "coordinates": [ [ [ 9564459.674557693302631, 6793800.706414117477834 ], [ 9564445.267213044688106, 6793718.083284648135304 ], [ 9564418.604479404166341, 6793638.331037128344178 ], [ 9564398.548440827056766, 6793570.84836614690721 ], [ 9564377.548588670790195, 6793496.523046711459756 ], [ 9564356.312783118337393, 6793412.995544869452715 ], [ 9564340.739859042689204, 6793348.580268025398254 ], [ 9564318.324286514893174, 6793283.693084390833974 ], [ 9564285.290811207145452, 6793191.435306930914521 ], [ 9564229.133903190493584, 6793134.806492121890187 ], [ 9564187.606105662882328, 6793069.211448300629854 ], [ 9564189.965639615431428, 6793030.279138120822608 ], [ 9564177.224156279116869, 6792993.234455099329352 ], [ 9564118.943667707964778, 6792883.752079803496599 ], [ 9564074.487851163372397, 6792858.62371027469635 ], [ 9564055.708157839253545, 6792848.5950239431113 ], [ 9564046.505975430831313, 6792752.326038772240281 ], [ 9564046.034068640321493, 6792661.719935076311231 ], [ 9564055.472204444929957, 6792562.619509161449969 ], [ 9564044.618348274379969, 6792541.383703607134521 ], [ 9563961.090846428647637, 6792403.115014116279781 ], [ 9563911.625090330839157, 6792301.355383764952421 ], [ 9563900.295688278973103, 6792278.53581700194627 ], [ 9563869.069022364914417, 6792220.487086362205446 ], [ 9563824.709784101694822, 6792123.274287604726851 ], [ 9563805.293163111433387, 6792069.261636225506663 ], [ 9563802.058258175849915, 6792052.488269095309079 ], [ 9563801.350397994741797, 6791976.511275890283287 ], [ 9563796.631330093368888, 6791880.242290716618299 ], [ 9563823.05811033770442, 6791707.524405552074313 ], [ 9563799.462770834565163, 6791610.311606794595718 ], [ 9563712.631921462714672, 6791471.571010514162481 ], [ 9563689.036581953987479, 6791408.807407439686358 ], [ 9563700.834251705557108, 6791375.773932131938636 ], [ 9563696.115183806046844, 6791295.549777816981077 ], [ 9563673.935564674437046, 6791220.98850498907268 ], [ 9563674.879378255456686, 6791173.797825980000198 ], [ 9563734.75255224108696, 6791118.289789798669517 ], [ 9563730.705207550898194, 6791103.444674593396485 ], [ 9563728.499787272885442, 6791095.34332213178277 ], [ 9563705.081412814557552, 6791007.922589273191988 ], [ 9563661.076104637235403, 6790987.984527390450239 ], [ 9563583.152495922520757, 6790975.302032408304513 ], [ 9563574.068290216848254, 6790910.35586042329669 ], [ 9563606.1579519379884, 6790862.693274626508355 ], [ 9563597.191722927615047, 6790812.671154880896211 ], [ 9563632.112825393676758, 6790753.210899327881634 ], [ 9563637.775706876069307, 6790695.166364151053131 ], [ 9563642.022867985069752, 6790604.088353666476905 ], [ 9563672.224902551621199, 6790543.212377747520804 ], [ 9563689.134227257221937, 6790534.770711100660264 ], [ 9563699.282089373096824, 6790528.858404060825706 ], [ 9563724.84250964410603, 6790515.60583052970469 ], [ 9563735.22445902787149, 6790392.202204921282828 ], [ 9563726.729850007221103, 6790380.398547465912998 ], [ 9563697.943822612985969, 6790327.31502129137516 ], [ 9563706.67409822717309, 6790231.753896300680935 ], [ 9563771.089375073090196, 6790149.878068221732974 ], [ 9563810.729545436799526, 6790147.518534272909164 ], [ 9563820.875541426241398, 6790093.95711359847337 ], [ 9563790.083623372018337, 6790069.889867305755615 ], [ 9563802.117246521636844, 6790010.311635058373213 ], [ 9563841.285510094836354, 6789976.570299570448697 ], [ 9563804.697563307359815, 6789926.028475450351834 ], [ 9563796.690318435430527, 6789914.514556675218046 ], [ 9563802.117246519774199, 6789800.31311347708106 ], [ 9563809.8692940864712, 6789795.285736438818276 ], [ 9563863.937036020681262, 6789760.672943112440407 ], [ 9563884.464981392025948, 6789697.673386636190116 ], [ 9563859.335944820195436, 6789658.741076457314193 ], [ 9563840.459673216566443, 6789629.718808867968619 ], [ 9563785.010625384747982, 6789583.235990045592189 ], [ 9563702.326791258528829, 6789523.819553076289594 ], [ 9563646.977889288216829, 6789485.079377711750567 ], [ 9563608.989392688497901, 6789381.731790687888861 ], [ 9563572.888523248955607, 6789284.990898719988763 ], [ 9563522.394496710970998, 6789200.283629903569818 ], [ 9563465.765681901946664, 6789106.37417868245393 ], [ 9563440.754622029140592, 6789064.138520970009267 ], [ 9563437.215321099385619, 6788871.600550621747971 ], [ 9563394.743709994480014, 6788632.815714844502509 ], [ 9563430.60862603969872, 6788360.525496972724795 ], [ 9563519.327102571725845, 6788213.290578473359346 ], [ 9563507.057526033371687, 6788083.044304413720965 ], [ 9563472.136423567309976, 6788086.819558734074235 ], [ 9563465.706693550571799, 6787938.640826649032533 ], [ 9563457.783024860545993, 6787914.336685178801417 ], [ 9563427.777185307815671, 6787824.262418407015502 ], [ 9563446.889410303905606, 6787751.116865946911275 ], [ 9563458.68708005361259, 6787706.52167428471148 ], [ 9563466.709495484828949, 6787635.26374898571521 ], [ 9563534.192166466265917, 6787564.949637264944613 ], [ 9563543.158395478501916, 6787423.613553637638688 ] ] ] } },
{ "type": "Feature", "properties": { "fid": 94, "full_id": "w42393280", "osm_id": "42393280", "name": "р. Майма", "Длина": null, "sum": null }, "geometry": { "type": "MultiLineString", "coordinates": [ [ [ 9571993.430491721257567, 6784506.85230949241668 ], [ 9571982.133675843477249, 6784525.550025503151119 ], [ 9571968.296663139015436, 6784556.283252246677876 ], [ 9571960.626750223338604, 6784573.319219103083014 ], [ 9571964.856890873983502, 6784620.601433402858675 ], [ 9572005.622088402509689, 6784894.500818029977381 ], [ 9572045.062583990395069, 6785080.733143007382751 ], [ 9572041.04395037330687, 6785189.236786769703031 ], [ 9572009.351291343569756, 6785293.41031482629478 ], [ 9571946.645022181794047, 6785408.811313293874264 ], [ 9571815.34368279017508, 6785578.089539390988648 ], [ 9571680.435591896995902, 6785691.545290956273675 ], [ 9571620.657025340944529, 6785756.774945300072432 ], [ 9571585.146107777953148, 6785817.871818899177015 ], [ 9571566.188398497179151, 6785874.258234505541623 ], [ 9571566.444433324038982, 6785935.319894716143608 ], [ 9571582.463308049365878, 6786011.363332778215408 ], [ 9571592.838284593075514, 6786102.154320515692234 ], [ 9571577.743361638858914, 6786172.802325715310872 ], [ 9571548.789162086322904, 6786313.125458743423223 ], [ 9571528.139396542683244, 6786397.511842037551105 ], [ 9571519.723643038421869, 6786448.089941572397947 ], [ 9571520.870233794674277, 6786471.176909230649471 ], [ 9571526.892618246376514, 6786495.256740738637745 ], [ 9571585.98100395873189, 6786645.639976211823523 ], [ 9571586.916087681427598, 6786668.222071479074657 ], [ 9571586.793636241927743, 6786693.241156995296478 ], [ 9571582.552363643422723, 6786732.611173111014068 ], [ 9571571.142115836963058, 6786774.38222926389426 ], [ 9571528.918632978573442, 6786868.304712035693228 ], [ 9571479.960320927202702, 6786976.36294571403414 ], [ 9571398.518981464207172, 6787149.663489595986903 ], [ 9571338.996449735015631, 6787276.987595109269023 ], [ 9571302.427997011691332, 6787474.63005409296602 ], [ 9571272.883804153650999, 6787674.985359796322882 ], [ 9571271.147220097482204, 6787826.202917343005538 ], [ 9571284.360843654721975, 6787958.123404622077942 ], [ 9571292.019624620676041, 6788122.652403701096773 ], [ 9571259.670180594548583, 6788205.198003897443414 ], [ 9571144.8663897421211, 6788400.570108262822032 ], [ 9571100.705947743728757, 6788673.640354768373072 ], [ 9571053.751386528834701, 6788926.839802690781653 ], [ 9570975.471520602703094, 6789095.198433560319245 ], [ 9570919.310837496072054, 6789203.304431335069239 ], [ 9570886.438191866502166, 6789324.088001625612378 ], [ 9570789.846269704401493, 6789452.836711504496634 ], [ 9570676.690007312223315, 6789567.917760191485286 ], [ 9570493.714160295203328, 6789664.942484810017049 ], [ 9570446.358848910778761, 6789727.423194358125329 ], [ 9570401.196531496942043, 6789796.459521441720426 ], [ 9570415.033544203266501, 6789882.976973410695791 ], [ 9570469.379719607532024, 6789951.599278951063752 ], [ 9570624.759464856237173, 6790140.403911813162267 ], [ 9570640.900791022926569, 6790172.928234093822539 ], [ 9570646.656008696183562, 6790201.40743974596262 ], [ 9570654.036490935832262, 6790241.011219372041523 ], [ 9570648.147689873352647, 6790297.952150210738182 ], [ 9570621.787234453484416, 6790365.819472346454859 ], [ 9570575.812284756451845, 6790436.287953544408083 ], [ 9570527.054347788915038, 6790574.608059546910226 ], [ 9570453.416504628956318, 6790731.948019989766181 ], [ 9570394.272459169849753, 6790791.005474485456944 ], [ 9570315.001849776133895, 6790846.993061374872923 ], [ 9570143.291535226628184, 6790891.313832018524408 ], [ 9570017.455982834100723, 6790905.058015942573547 ], [ 9569891.453451205044985, 6790939.698519894853234 ], [ 9569762.467557223513722, 6790971.937078204005957 ], [ 9569632.279412742704153, 6790983.785006389021873 ], [ 9569534.95278193987906, 6791005.981857515871525 ], [ 9569468.929191950708628, 6791033.109418058767915 ], [ 9569227.733251249417663, 6791148.827003320679069 ], [ 9569152.49240742251277, 6791145.250877130776644 ], [ 9569110.691938627511263, 6791130.910265747457743 ], [ 9569060.531376078724861, 6791109.417457438074052 ], [ 9569030.074363395571709, 6791114.781623583287001 ], [ 9568986.481650801375508, 6791136.888527608476579 ], [ 9568815.695288028568029, 6791317.82785810995847 ], [ 9568423.360874675214291, 6791797.956184396520257 ], [ 9568253.164505202323198, 6792014.711424618028104 ], [ 9568163.585710959509015, 6792054.12537578959018 ], [ 9568044.151029288768768, 6792072.044155785813928 ], [ 9567972.906555181369185, 6792061.007483175955713 ], [ 9567924.727479565888643, 6792025.459022896364331 ], [ 9567844.699897632002831, 6791946.631591373123229 ], [ 9567793.348216529935598, 6791880.954693093895912 ], [ 9567750.34549723751843, 6791860.652041330002248 ], [ 9567635.374727146700025, 6791848.568013860844076 ], [ 9567515.071753446012735, 6791810.491704413667321 ], [ 9567276.380501287057996, 6791691.820484151132405 ], [ 9567136.463033309206367, 6791650.439497962594032 ], [ 9567017.262122567743063, 6791675.726849821396172 ], [ 9566931.913468975573778, 6791670.615185900591314 ], [ 9566845.941426236182451, 6791674.227668901905417 ], [ 9566624.092813033610582, 6791679.89927046559751 ], [ 9566521.066624304279685, 6791661.060176126658916 ], [ 9566434.204025639221072, 6791619.39035034738481 ], [ 9566324.498667461797595, 6791562.494315453805029 ], [ 9566238.326249638572335, 6791563.25292662344873 ], [ 9565917.169518701732159, 6791566.142874586395919 ], [ 9565770.984763391315937, 6791590.996469641104341 ], [ 9565673.17945878021419, 6791649.735065720044076 ], [ 9565627.972613569349051, 6791690.411612531170249 ], [ 9565593.040557358413935, 6791726.843666469678283 ], [ 9565518.423102680593729, 6791828.87957723159343 ], [ 9565474.463035764172673, 6791915.183923184871674 ], [ 9565312.5599683560431, 6792162.451508270576596 ], [ 9565244.588287277147174, 6792288.770604200661182 ], [ 9565188.750430693849921, 6792424.936595304869115 ], [ 9565168.746318198740482, 6792537.494743266142905 ], [ 9565165.462393220514059, 6792616.02082921564579 ], [ 9565175.915293406695127, 6792696.047046388499439 ], [ 9565253.237811710685492, 6792802.629466504789889 ], [ 9565280.755989834666252, 6792869.722916152328253 ], [ 9565274.833792924880981, 6792911.001741739921272 ], [ 9565265.816914170980453, 6792977.210888249799609 ], [ 9565247.371274545788765, 6793049.761559566482902 ], [ 9565230.951649654656649, 6793135.771800522692502 ], [ 9565213.073739431798458, 6793203.193195194937289 ], [ 9565081.716740297153592, 6793390.66447686124593 ], [ 9564924.82304997369647, 6793531.293369469232857 ], [ 9564878.859232226386666, 6793575.412032507359982 ], [ 9564749.995789682492614, 6793641.13880757894367 ], [ 9564681.946184961125255, 6793667.931925844401121 ], [ 9564620.553485788404942, 6793709.756829132325947 ], [ 9564578.942260129377246, 6793740.832059139385819 ], [ 9564484.944082101806998, 6793788.041343150660396 ], [ 9564459.674557693302631, 6793800.706414117477834 ], [ 9564318.64389480650425, 6793871.38546203635633 ], [ 9563804.180868105962873, 6793954.549763665534556 ], [ 9563763.660573458299041, 6793970.304643950425088 ], [ 9563747.630566783249378, 6794006.692752958275378 ], [ 9563733.871477721258998, 6794084.962069847621024 ], [ 9563656.504431618377566, 6794100.64493253827095 ], [ 9563522.286521570757031, 6794095.965365491807461 ], [ 9563390.506508368998766, 6794146.33860772009939 ], [ 9563205.560306366533041, 6794205.637782954610884 ], [ 9563040.829723889008164, 6794362.542387580499053 ], [ 9562881.676247902214527, 6794488.100784006528556 ], [ 9562769.432805335149169, 6794642.716093515045941 ], [ 9562686.666763931512833, 6794772.29022478684783 ], [ 9562638.020146453753114, 6794909.690578606911004 ], [ 9562598.690970357507467, 6795227.162254345603287 ], [ 9562507.030501637607813, 6795424.312123602256179 ], [ 9562315.304942645132542, 6795627.845938488841057 ], [ 9562213.503268314525485, 6795760.779069202952087 ], [ 9562103.319236325100064, 6795881.299042642116547 ], [ 9562019.473395861685276, 6795932.243622428737581 ], [ 9561971.862049648538232, 6795960.056353761814535 ], [ 9561867.355311691761017, 6796108.157594410702586 ], [ 9561796.890074022114277, 6796210.26679996214807 ], [ 9561778.143871771171689, 6796267.972624944522977 ], [ 9561748.944769334048033, 6796375.758737558498979 ], [ 9561744.347274366766214, 6796451.520727139897645 ], [ 9561760.867086799815297, 6796501.818260168656707 ], [ 9561806.162987602874637, 6796571.201535946689546 ], [ 9561874.669002238661051, 6796649.314911696128547 ], [ 9561926.780909603461623, 6796691.377831071615219 ] ] ] } }
]
}
