{
"type": "FeatureCollection",
"name": "Gidrigraf",
"crs": { "type": "name", "properties": { "name": "urn:ogc:def:crs:OGC:1.3:CRS84" } },
"features": [
{ "type": "Feature", "properties": { "fid": 1, "Название": "Еланда", "Area": 1.9991623514931649, "SUM": 23.433275306965836 }, "geometry": { "type": "Polygon", "coordinates": [ [ [ 85.970652987305158, 51.913393651541476 ], [ 85.969983191995283, 51.913092929529917 ], [ 85.969694925659383, 51.912677145344603 ], [ 85.96961861986459, 51.912452254180948 ], [ 85.969580466967187, 51.9121410657133 ], [ 85.969631337497034, 51.91190048155439 ], [ 85.970076454633357, 51.911536987825976 ], [ 85.97029265438529, 51.91138269823162 ], [ 85.970521571769666, 51.911369622817901 ], [ 85.971009081014202, 51.911662511172686 ], [ 85.971225280766134, 51.911984163147153 ], [ 85.971373653144894, 51.912912495356281 ], [ 85.971254955241889, 51.913087699564066 ], [ 85.971034516279147, 51.913239368326231 ], [ 85.970652987305158, 51.913393651541476 ] ] ] } },
{ "type": "Feature", "properties": { "fid": 2, "Название": "Майма", "Area": 21.434112955472671, "SUM": 23.433275306965836 }, "geometry": { "type": "Polygon", "coordinates": [ [ [ 85.896397933743046, 51.980952032415175 ], [ 85.896078458129935, 51.981060631359775 ], [ 85.895689962536892, 51.980863914465715 ], [ 85.895015928016193, 51.980430480667735 ], [ 85.894494505085078, 51.979741155627622 ], [ 85.894435156133568, 51.97959754490914 ], [ 85.894481787452634, 51.979258099562607 ], [ 85.894973535907951, 51.978333750734549 ], [ 85.89535082567113, 51.978046519813539 ], [ 85.895973989661954, 51.977461607517412 ], [ 85.896690416290866, 51.976887132650397 ], [ 85.896987161048401, 51.976678230872388 ], [ 85.897758697418027, 51.976482384570843 ], [ 85.898420014306254, 51.976054131008688 ], [ 85.898780347226108, 51.97577471946574 ], [ 85.899140680145976, 51.975463970002203 ], [ 85.899501013065844, 51.97517933204773 ], [ 85.90004787126189, 51.97473539768361 ], [ 85.900760058680007, 51.974320184503334 ], [ 85.901395940303289, 51.97395458480684 ], [ 85.90193855928851, 51.973178981287909 ], [ 85.902184433516197, 51.972787257236348 ], [ 85.902158998251238, 51.97244776028824 ], [ 85.9022098687811, 51.97191239448992 ], [ 85.902315849051689, 51.97141358450223 ], [ 85.902638029074154, 51.970669276552563 ], [ 85.902998361994023, 51.970217462539125 ], [ 85.90327814990826, 51.969990247990111 ], [ 85.904075121542817, 51.969298150598171 ], [ 85.904626218949659, 51.96885676969837 ], [ 85.90487209317736, 51.968710512346625 ], [ 85.90563939033612, 51.968261290353183 ], [ 85.90656353829533, 51.96780422847096 ], [ 85.906788216468897, 51.967733709936923 ], [ 85.907220615972733, 51.96744641105871 ], [ 85.907665733109042, 51.967213958800265 ], [ 85.908271940256597, 51.966991952708725 ], [ 85.908657708441382, 51.966892702570924 ], [ 85.910395784878418, 51.966576667773161 ], [ 85.910756117798286, 51.966553160963628 ], [ 85.91140895626485, 51.966568832171355 ], [ 85.911947336039262, 51.966576667773161 ], [ 85.912316147380764, 51.966553160963628 ], [ 85.912439084494608, 51.966425179228729 ], [ 85.912516450092113, 51.966263895603575 ], [ 85.912486775616387, 51.966105223292615 ], [ 85.912567320621989, 51.965935449827555 ], [ 85.912777161557671, 51.965816608019352 ], [ 85.912997600520427, 51.965747392315528 ], [ 85.913775495706275, 51.96565336326362 ], [ 85.914458008648623, 51.965580229420183 ], [ 85.915740369922275, 51.965432655408499 ], [ 85.915931134409277, 51.965392170417701 ], [ 85.916051951917709, 51.965376498798534 ], [ 85.916441959313332, 51.965377804767009 ], [ 85.916800172627774, 51.965403924128459 ], [ 85.91723893094786, 51.965375192830017 ], [ 85.917792147960128, 51.965255043564255 ], [ 85.918288135626298, 51.965129670073985 ], [ 85.918982789635052, 51.964935034282455 ], [ 85.919227120823379, 51.964855414341336 ], [ 85.919719929081438, 51.964705225967109 ], [ 85.920018793444399, 51.964618377677574 ], [ 85.920366408731809, 51.964474065486002 ], [ 85.920685409346163, 51.964359137797437 ], [ 85.920921745349474, 51.964272941837635 ], [ 85.921249224385477, 51.964168461664123 ], [ 85.921685863100151, 51.964033943082086 ], [ 85.92199744509557, 51.96393729841472 ], [ 85.92233022314511, 51.963840653538973 ], [ 85.92262272869182, 51.96375837462918 ], [ 85.923127194779653, 51.963482804482069 ], [ 85.923627421656633, 51.963203314545488 ], [ 85.924119170111993, 51.962917292665928 ], [ 85.924379881577551, 51.962767097797439 ], [ 85.924799563448929, 51.962496745765918 ], [ 85.925013643595435, 51.962312591999229 ], [ 85.925210766898644, 51.962140192042625 ], [ 85.925437564677637, 51.96191816081862 ], [ 85.925674960483661, 51.961650415821076 ], [ 85.925865724970649, 51.96110969665736 ], [ 85.925946269976237, 51.960813212608144 ], [ 85.926175187360613, 51.96044880882183 ], [ 85.926270569604114, 51.960141871434686 ], [ 85.926267390196031, 51.959936809966713 ], [ 85.926145512884887, 51.959652073379246 ], [ 85.925944150370881, 51.959445703529489 ], [ 85.925766103516352, 51.959283741716227 ], [ 85.925352780461196, 51.958844874507122 ], [ 85.925280713877186, 51.958645031765094 ], [ 85.925284953088024, 51.9584491066434 ], [ 85.92528919229882, 51.958029824006125 ], [ 85.925373976515289, 51.95756090201904 ], [ 85.925547784158994, 51.957145529700071 ], [ 85.925734309435171, 51.956903880511163 ], [ 85.926194263809336, 51.956280811458718 ], [ 85.926573673177913, 51.955832771127866 ], [ 85.92691281004366, 51.955511433323004 ], [ 85.927205315590385, 51.955229281156456 ], [ 85.927569887721091, 51.954883119822981 ], [ 85.927870871689436, 51.954570919196186 ], [ 85.928214247766022, 51.954194708021433 ], [ 85.928288433955402, 51.954113717702832 ], [ 85.928629690426575, 51.953802818024442 ], [ 85.9288119764919, 51.953629079029945 ], [ 85.928886162681309, 51.953524574047357 ], [ 85.92950296785591, 51.953136597168871 ], [ 85.929867539986603, 51.952931503657929 ], [ 85.930282982647157, 51.952790419679054 ], [ 85.930651793988659, 51.952717264848573 ], [ 85.931033322962648, 51.95262320846259 ], [ 85.931478440098942, 51.952574873854154 ], [ 85.932222421598212, 51.952538296278007 ], [ 85.933280104698298, 51.952533070907556 ], [ 85.933795168813177, 51.952559197753757 ], [ 85.934049521462484, 51.952547440674842 ], [ 85.934291156479347, 51.952561810437523 ], [ 85.934732034404817, 51.95254613433255 ], [ 85.935064812454357, 51.95253960262054 ], [ 85.93552052761774, 51.952495186953534 ], [ 85.935810913559038, 51.952501718672039 ], [ 85.935946568305354, 51.952526539193634 ], [ 85.9362051601655, 51.95265847963045 ], [ 85.937082676805645, 51.952934116320016 ], [ 85.93747056459587, 51.953030784710293 ], [ 85.93791144252134, 51.953096101072248 ], [ 85.938810155215606, 51.953197994406892 ], [ 85.939094182340682, 51.953187543819119 ], [ 85.939344295779179, 51.953174480580991 ], [ 85.939721585542344, 51.953117002287975 ], [ 85.939963220559193, 51.953139209819014 ], [ 85.940221812419324, 51.953117002287975 ], [ 85.940395620063029, 51.953100020050933 ], [ 85.94086829206968, 51.953096101072248 ], [ 85.941126883929826, 51.953131371868132 ], [ 85.941624991201422, 51.953072587192899 ], [ 85.94176276555315, 51.953026865725555 ], [ 85.942036194651166, 51.952977225222511 ], [ 85.942494029419947, 51.952971999903198 ], [ 85.942886156420968, 51.953000739151847 ], [ 85.943303718686963, 51.953009883454378 ], [ 85.943945959126495, 51.953156192041206 ], [ 85.944518252587457, 51.953312950711599 ], [ 85.945067230388901, 51.953455339362272 ], [ 85.945709470828433, 51.953663043096853 ], [ 85.946455571933114, 51.953900790844799 ], [ 85.947055420264434, 51.954019664246054 ], [ 85.947935056510005, 51.954146375106966 ], [ 85.948236040478363, 51.954152906584945 ], [ 85.948725669328326, 51.954229977953155 ], [ 85.949081763037356, 51.954295292568283 ], [ 85.949372148978668, 51.954510830123155 ], [ 85.94998895415327, 51.954873975902473 ], [ 85.950236947986355, 51.954987621639233 ], [ 85.950412875235472, 51.955101267087947 ], [ 85.950650271041511, 51.955204462130922 ], [ 85.951101746994041, 51.955261937748084 ], [ 85.951485395573442, 51.955280225428986 ], [ 85.951756705066046, 51.955247568850695 ], [ 85.952002579293705, 51.955252793904819 ], [ 85.952324759316198, 51.955195318275955 ], [ 85.952600308019626, 51.955119554834397 ], [ 85.952693570657686, 51.955077754260124 ], [ 85.952746560792974, 51.9550725291856 ], [ 85.952992435020647, 51.954926226851704 ], [ 85.953278581751135, 51.95474987965401 ], [ 85.953535054005869, 51.954552631225958 ], [ 85.95385299481751, 51.954347544191869 ], [ 85.953952616271835, 51.954245653469457 ], [ 85.954264198267239, 51.954058853210356 ], [ 85.954361700116152, 51.95398439414889 ], [ 85.954448603938005, 51.953903403450411 ], [ 85.954524909732797, 51.953805430635754 ], [ 85.954709315403548, 51.953616015920446 ], [ 85.954866166203956, 51.95354024981026 ], [ 85.955027256215189, 51.953386104570242 ], [ 85.955391828345896, 51.953131371868132 ], [ 85.95559954967618, 51.953117002287968 ], [ 85.95569917113049, 51.953067361884713 ], [ 85.955796672979389, 51.952905377028657 ], [ 85.955887816012066, 51.9528178527097 ], [ 85.95612521181809, 51.952648028916933 ], [ 85.956411358548593, 51.952406355487575 ], [ 85.956561850532765, 51.952339731772604 ], [ 85.956803485549614, 51.952116345652996 ], [ 85.957030283328592, 51.951966114595834 ], [ 85.957286755583311, 51.951736194785923 ], [ 85.957589859157096, 51.951487984576964 ], [ 85.957850570622654, 51.951362572580507 ], [ 85.958266013283207, 51.951055572984004 ], [ 85.958528844354163, 51.950845244387651 ], [ 85.9587683597656, 51.950714605011271 ], [ 85.959043908469042, 51.950595722848036 ], [ 85.959580168638013, 51.950253444969746 ], [ 85.959671311670675, 51.950194656521653 ], [ 85.959838760498144, 51.950104514084913 ], [ 85.96033050895349, 51.949990855971613 ], [ 85.960481000937676, 51.950001307304404 ], [ 85.960506436202621, 51.950048338271813 ], [ 85.960701439900433, 51.950141093646302 ], [ 85.961034217949972, 51.950199882164611 ], [ 85.961496291929564, 51.950262589832526 ], [ 85.961704013259833, 51.950266509058864 ], [ 85.962117336314989, 51.950177673177862 ], [ 85.962303861591153, 51.950112352564865 ], [ 85.96242043988876, 51.950082305050934 ], [ 85.962765935570758, 51.949966034046483 ], [ 85.9631792586259, 51.949790973763264 ], [ 85.963492960226716, 51.949709975490535 ], [ 85.963751552086862, 51.949614606368982 ], [ 85.964357759234403, 51.949506172737827 ], [ 85.964527327667298, 51.949489189133288 ], [ 85.964652384386568, 51.949442157579469 ], [ 85.964870703743884, 51.94942909325021 ], [ 85.965031793755116, 51.949401658146385 ], [ 85.965114458366159, 51.949406883881743 ], [ 85.965197122977187, 51.949380755198874 ], [ 85.965351854172198, 51.949349400759324 ], [ 85.965540499053773, 51.949333723531325 ], [ 85.965676153800075, 51.949349400759324 ], [ 85.966203935547384, 51.949304981932443 ], [ 85.96712384429577, 51.949218757025271 ], [ 85.96726797746372, 51.94918348315182 ], [ 85.967384555761313, 51.949174338068985 ], [ 85.967460861556134, 51.949133838394033 ], [ 85.967641028016061, 51.949111628879344 ], [ 85.967852988557169, 51.949098564453806 ], [ 85.968069188309101, 51.949021484265607 ], [ 85.968168809763398, 51.949003194032016 ], [ 85.968338378196279, 51.948995355358186 ], [ 85.968580013213142, 51.948928726575367 ], [ 85.96871142874862, 51.948922194336433 ], [ 85.969332473134031, 51.948792855809536 ], [ 85.969584706177969, 51.948862097693556 ], [ 85.969788188297414, 51.948858178344494 ], [ 85.969938680281601, 51.948816371933077 ], [ 85.970169717271389, 51.948770646125979 ], [ 85.970517332558771, 51.948768033221299 ], [ 85.970811957710907, 51.948737984806634 ], [ 85.971119300495516, 51.948694871828692 ], [ 85.971687354745654, 51.948531564718245 ], [ 85.972461010720679, 51.948173593451699 ], [ 85.972757755478227, 51.947960638386554 ], [ 85.973001510100488, 51.947678438705587 ], [ 85.973164719717118, 51.947485078639765 ], [ 85.973260101960605, 51.947358348955198 ], [ 85.973374560652815, 51.94723684490075 ], [ 85.973556846718154, 51.946958560180889 ], [ 85.97376668765385, 51.946567913459063 ], [ 85.973804840551225, 51.946494748477335 ], [ 85.973832395421582, 51.946328820308636 ], [ 85.973965930562471, 51.946208619991992 ], [ 85.974148216627825, 51.946029625445192 ], [ 85.974351698747284, 51.945755252855363 ], [ 85.974417406515016, 51.94568992580087 ], [ 85.974444961385373, 51.94561414629846 ], [ 85.974495831915249, 51.945308413902247 ], [ 85.974485233888188, 51.945175145282462 ], [ 85.974307187033673, 51.94490468716041 ], [ 85.974097346097977, 51.944734833399821 ], [ 85.973891744373063, 51.944619855104506 ], [ 85.973671305410306, 51.944452613421539 ], [ 85.973510215399074, 51.944344167309453 ], [ 85.97332792933372, 51.944209589239527 ], [ 85.973209231430701, 51.944141646759576 ], [ 85.972798027980971, 51.943931285736376 ], [ 85.972666612445479, 51.943855503262689 ], [ 85.972412259796158, 51.943634688083442 ], [ 85.972246930574087, 51.943433470938011 ], [ 85.972183342411782, 51.943219186751698 ], [ 85.972157907146851, 51.942940877103524 ], [ 85.972223614914583, 51.942893838682558 ], [ 85.972223614914583, 51.94279322856098 ], [ 85.972473728353066, 51.94257632805072 ], [ 85.972564871385757, 51.942517529538932 ], [ 85.972770473110614, 51.942348973377989 ], [ 85.972876453381161, 51.942243135464842 ], [ 85.973173198138682, 51.942069351683109 ], [ 85.973385158679804, 51.941996179363066 ], [ 85.973660707383232, 51.941887727312015 ], [ 85.974018920697688, 51.941797568178409 ], [ 85.974343220325579, 51.94169434228121 ], [ 85.974771380618606, 51.941524476363696 ], [ 85.975046929322033, 51.941400343171026 ], [ 85.975311879998387, 51.941225249452145 ], [ 85.975763355950932, 51.94090250028389 ], [ 85.976038904654374, 51.940713031066977 ], [ 85.976113090843754, 51.940617642813528 ], [ 85.976301735725329, 51.940432092479263 ], [ 85.976484021790668, 51.940200806833133 ], [ 85.976566686401725, 51.940117177831411 ], [ 85.976636633380295, 51.939862369755595 ], [ 85.97675957049411, 51.939668975993513 ], [ 85.976956693797334, 51.939399791396333 ], [ 85.977094468149062, 51.939223383138597 ], [ 85.97736577764168, 51.93890846000582 ], [ 85.977745187010228, 51.938537344430927 ], [ 85.977944429918864, 51.938330877394719 ], [ 85.978135194405851, 51.93809043357269 ], [ 85.978192423751949, 51.937770275396332 ], [ 85.978226337438542, 51.937613462394765 ], [ 85.978283566784626, 51.937448808153228 ], [ 85.978319600076603, 51.937281539733554 ], [ 85.978374709817288, 51.937092055223545 ], [ 85.978434058768784, 51.936983591316292 ], [ 85.978497646931132, 51.936784957938841 ], [ 85.978586670358382, 51.936492233463945 ], [ 85.978578191936748, 51.936183825254709 ], [ 85.978516723379826, 51.935949904055136 ], [ 85.978597268385457, 51.935837516899817 ], [ 85.978667215364027, 51.935548706755988 ], [ 85.978749879975055, 51.935412795456799 ], [ 85.978853740640204, 51.935267735827523 ], [ 85.978972438543224, 51.935093925023466 ], [ 85.979059342365048, 51.935024661883865 ], [ 85.979148365792312, 51.934863918713923 ], [ 85.979379402782115, 51.93464305927295 ], [ 85.979534133977126, 51.934481007867419 ], [ 85.979701582804609, 51.934313728383287 ], [ 85.979924141372749, 51.934044511654065 ], [ 85.980021643221647, 51.933922971533484 ], [ 85.980180613627482, 51.933689038546852 ], [ 85.980212407708635, 51.933528290592101 ], [ 85.980225125341093, 51.933174120301956 ], [ 85.980218766524857, 51.932993766829085 ], [ 85.980170015600393, 51.932809491879837 ], [ 85.980176374416629, 51.932627830018944 ], [ 85.980172135205834, 51.932431791214519 ], [ 85.980159417573375, 51.932169097873853 ], [ 85.980131862703033, 51.931903789108247 ], [ 85.980136101913843, 51.931748262550848 ], [ 85.980146699940917, 51.931582279831979 ], [ 85.980202728313174, 51.931328796783063 ], [ 85.980206986687932, 51.931100153322177 ], [ 85.98024844100064, 51.93074451516501 ], [ 85.980225125341136, 51.930582449679882 ], [ 85.98017425481126, 51.930462207167544 ], [ 85.980225125341136, 51.930324973471727 ], [ 85.98024420178983, 51.930002145884934 ], [ 85.980271756660159, 51.929816551646063 ], [ 85.98037773693072, 51.929480650262086 ], [ 85.980401052590238, 51.929340799528262 ], [ 85.980515511282434, 51.929070245936963 ], [ 85.980602415104286, 51.928854586109011 ], [ 85.980708395374833, 51.928679443425558 ], [ 85.980960628418742, 51.928397122437246 ], [ 85.981151392905744, 51.928215442713942 ], [ 85.981388788711769, 51.92798801526115 ], [ 85.981492649376918, 51.927820711571634 ], [ 85.981554117933811, 51.927746208946708 ], [ 85.981649500177312, 51.927569754868003 ], [ 85.981770317685744, 51.927365851513045 ], [ 85.982011952702607, 51.927073065588395 ], [ 85.982217554427464, 51.926764592637298 ], [ 85.982329893514247, 51.926590748896025 ], [ 85.982382883649507, 51.92644566074685 ], [ 85.982603322612263, 51.926262666015994 ], [ 85.982611801033926, 51.926326714256668 ], [ 85.982539734449944, 51.92642474710108 ], [ 85.982535495239105, 51.926444353644271 ], [ 85.982584246163569, 51.926419518688121 ], [ 85.982804835670464, 51.926211922525454 ], [ 85.982944374298157, 51.925969245389609 ], [ 85.982978517838447, 51.925892164173604 ], [ 85.982912785002284, 51.925615642949339 ], [ 85.982834359602066, 51.92544440902136 ], [ 85.982603322612263, 51.925027432067594 ], [ 85.982412558125262, 51.924769923988983 ], [ 85.982259946535663, 51.924440520638377 ], [ 85.982272664168164, 51.924220917061646 ], [ 85.98234685035753, 51.923950332605699 ], [ 85.982401960098201, 51.923875823556045 ], [ 85.982433754179368, 51.923856215890851 ], [ 85.982433754179368, 51.923703275808343 ], [ 85.982493103130892, 51.923515041145272 ], [ 85.982529136422869, 51.923347720782125 ], [ 85.982630877482592, 51.923134647854333 ], [ 85.982728379331505, 51.922847063157839 ], [ 85.982760173412672, 51.92271111338723 ], [ 85.982817402758769, 51.922580392065669 ], [ 85.982895828158959, 51.922294111041737 ], [ 85.982866153683204, 51.922193454722795 ], [ 85.982813163547931, 51.921911092935176 ], [ 85.982722020515254, 51.921742459353808 ], [ 85.982645714720476, 51.921371201794869 ], [ 85.982630877482563, 51.921184264608236 ], [ 85.982707183277384, 51.920916930006221 ], [ 85.982929741845538, 51.920624102013733 ], [ 85.983073875013488, 51.920495989166376 ], [ 85.983362141349389, 51.920306433772602 ], [ 85.983688560582678, 51.92010511199517 ], [ 85.984144275746047, 51.919847575678034 ], [ 85.984595751698606, 51.919624027727799 ], [ 85.984930649353529, 51.919447541717638 ], [ 85.98510021778641, 51.919290664681711 ], [ 85.985286743062574, 51.919127250519708 ], [ 85.98551142123614, 51.918984752884953 ], [ 85.985837840469429, 51.918690604960759 ], [ 85.985990452059028, 51.918559871931393 ], [ 85.986240565497582, 51.918321936841018 ], [ 85.986494918146903, 51.918089229873587 ], [ 85.986723835531279, 51.917831681992219 ], [ 85.98682345698559, 51.917648652142951 ], [ 85.986961231337304, 51.917422478512798 ], [ 85.987033297921272, 51.91730873758614 ], [ 85.987067211607851, 51.917014578680991 ], [ 85.987069331213235, 51.916861615288667 ], [ 85.986973948969748, 51.916525616947752 ], [ 85.986870088304642, 51.916273289692256 ], [ 85.986728074742089, 51.915941209174143 ], [ 85.98661573565532, 51.915824849671367 ], [ 85.986590300390361, 51.915705875036501 ], [ 85.986634812104001, 51.915538525565978 ], [ 85.986624214076926, 51.915303189317768 ], [ 85.98665027318188, 51.915107686541624 ], [ 85.986547908282148, 51.915035165977208 ], [ 85.986467363276532, 51.914788060114063 ], [ 85.986348665373498, 51.91461547743485 ], [ 85.986210891021784, 51.914418052495961 ], [ 85.986081595091719, 51.914291229395182 ], [ 85.986098551934973, 51.914050656755926 ], [ 85.986191559188072, 51.913774332570732 ], [ 85.98630415365983, 51.913653186093249 ], [ 85.986353333359318, 51.913581165728509 ], [ 85.986570196237764, 51.913551639508611 ], [ 85.986471602487313, 51.913666260842071 ], [ 85.986387954484158, 51.913923302019512 ], [ 85.986370391328933, 51.913953904352802 ], [ 85.986338597247752, 51.913990840261022 ], [ 85.986245334609663, 51.914082689600214 ], [ 85.986209301317686, 51.91412845076669 ], [ 85.986241095398853, 51.914234355001689 ], [ 85.986270769874594, 51.914270310086415 ], [ 85.986325879615279, 51.914359870808617 ], [ 85.986380989355965, 51.914423282306849 ], [ 85.98644775692641, 51.914458583514495 ], [ 85.986504146928141, 51.914502070995994 ], [ 85.986564335224003, 51.914581483798628 ], [ 85.986644880229633, 51.914708306079604 ], [ 85.986695750759523, 51.914816823829462 ], [ 85.986738142867722, 51.914978946244268 ], [ 85.986764637935366, 51.915088770773323 ], [ 85.98679537221382, 51.915293383614014 ], [ 85.986834584913936, 51.915496688100909 ], [ 85.986874857416737, 51.915666652560319 ], [ 85.986922548538487, 51.915861457187901 ], [ 85.986954342619654, 51.916048416539006 ], [ 85.987092116971368, 51.916295515466018 ], [ 85.987182200201332, 51.916533461295664 ], [ 85.987256386390712, 51.916677927791284 ], [ 85.987306197117874, 51.916953785600292 ], [ 85.987255326588013, 51.917219836431357 ], [ 85.987204456058137, 51.917346651260374 ], [ 85.98718008059592, 51.917502227726295 ], [ 85.987099535590289, 51.917604201924078 ], [ 85.987008392557613, 51.917827106255075 ], [ 85.986953282816927, 51.917910776803325 ], [ 85.986831405505797, 51.918093151911123 ], [ 85.986626863583652, 51.918300365740272 ], [ 85.986439278504776, 51.918471626921374 ], [ 85.986301504153062, 51.918556603600784 ], [ 85.986111799468773, 51.918684721982629 ], [ 85.986043972095601, 51.918731785786164 ], [ 85.985970845708934, 51.918790615471217 ], [ 85.985890300703304, 51.918903698982646 ], [ 85.985722851875835, 51.919027240759156 ], [ 85.9855776589052, 51.919161240714409 ], [ 85.985391133629008, 51.919316810892447 ], [ 85.985203548550132, 51.919455385555054 ], [ 85.985058355579483, 51.919542974979656 ], [ 85.984899385173662, 51.919637754388418 ], [ 85.98470120206774, 51.919749528468493 ], [ 85.984462746459002, 51.919861302270284 ], [ 85.984284699604459, 51.91993516433746 ], [ 85.984015509717281, 51.920070468871003 ], [ 85.983867137338478, 51.920138447806409 ], [ 85.983723004170528, 51.920224074972779 ], [ 85.98360960528106, 51.920305780131933 ], [ 85.983478189745568, 51.920409708879497 ], [ 85.983344654604679, 51.920520173762519 ], [ 85.983247152755766, 51.920606453837102 ], [ 85.983188863606969, 51.920659398346224 ], [ 85.98300061760655, 51.920822230367243 ], [ 85.98292179332519, 51.920906471896544 ], [ 85.982843367924971, 51.921026740010987 ], [ 85.982802035619471, 51.921147007803221 ], [ 85.982806274830295, 51.921240476571398 ], [ 85.982824291476291, 51.921292766706479 ], [ 85.982843496220056, 51.921333274743368 ], [ 85.982808394435708, 51.921409112038496 ], [ 85.982824291476291, 51.921503233884195 ], [ 85.982850786543921, 51.921630690235702 ], [ 85.982954647209056, 51.92185488181179 ], [ 85.983009756949741, 51.921895406117137 ], [ 85.983056388268807, 51.921943773788527 ], [ 85.983100899982432, 51.922102602396983 ], [ 85.983110438206765, 51.922185611363808 ], [ 85.98310301958783, 51.922309797720494 ], [ 85.983079703928311, 51.922465356987828 ], [ 85.983060627479617, 51.92259150339283 ], [ 85.983047909847144, 51.922704577330208 ], [ 85.983008697147042, 51.922811768545444 ], [ 85.982948288392834, 51.922988241329996 ], [ 85.982916494311652, 51.9231078502673 ], [ 85.982862444373666, 51.923248374021419 ], [ 85.982839128714176, 51.923359485515569 ], [ 85.982772361143731, 51.923525498647301 ], [ 85.982693935743512, 51.923683014476296 ], [ 85.982634586792031, 51.92381503976609 ], [ 85.982577357445919, 51.923953600543669 ], [ 85.982509530072761, 51.924115036381856 ], [ 85.982448147887752, 51.92420502349249 ], [ 85.982466078161835, 51.924346404951358 ], [ 85.982469257569932, 51.924469278170072 ], [ 85.982520128099807, 51.924568622228662 ], [ 85.982639885805526, 51.9247496631384 ], [ 85.982767062130193, 51.924913710407957 ], [ 85.982870922795342, 51.925062724937916 ], [ 85.982969484446954, 51.925220235372549 ], [ 85.983071225506677, 51.925474473040758 ], [ 85.983122096036539, 51.925665967300162 ], [ 85.983132694063613, 51.925820861376472 ], [ 85.98310513919327, 51.925963337312247 ], [ 85.983013996160594, 51.926135876372108 ], [ 85.982900597271083, 51.926297957915047 ], [ 85.982846547333125, 51.926391415958037 ], [ 85.9827055935733, 51.9265293152325 ], [ 85.982638826002841, 51.926626040537123 ], [ 85.982530726126896, 51.926756096530298 ], [ 85.982368576312979, 51.926902490765229 ], [ 85.982267895055955, 51.927001175895249 ], [ 85.982197948077385, 51.927107703308614 ], [ 85.98213118050694, 51.92722534064923 ], [ 85.982041097276948, 51.927395260707989 ], [ 85.981983867930865, 51.927471070988211 ], [ 85.981993406155212, 51.927533156898193 ], [ 85.981913920952323, 51.927604392204884 ], [ 85.981861990619734, 51.927697193994469 ], [ 85.981789924035752, 51.92781809744659 ], [ 85.981704080016598, 51.927933118806827 ], [ 85.981608697773112, 51.928061863956984 ], [ 85.981515435135023, 51.928203025727626 ], [ 85.981424292102361, 51.928306936191753 ], [ 85.981268501104637, 51.928465742285319 ], [ 85.981228228601836, 51.928548739485116 ], [ 85.981060779774367, 51.928725843232911 ], [ 85.980857297654907, 51.928945424768955 ], [ 85.980723897713048, 51.929141396354346 ], [ 85.980637918494864, 51.929317926703256 ], [ 85.980588107767701, 51.929485878318495 ], [ 85.980569031319007, 51.929761657428365 ], [ 85.980511801972895, 51.930023057863764 ], [ 85.980472589272793, 51.930234791100297 ], [ 85.980440795191626, 51.930457632717811 ], [ 85.980442914797024, 51.930682433697562 ], [ 85.980412180518584, 51.930889589417369 ], [ 85.980420658940233, 51.931126804414156 ], [ 85.980409001110488, 51.931434593904577 ], [ 85.980394163872603, 51.931640439201026 ], [ 85.980385685450941, 51.931911630769171 ], [ 85.980382506042815, 51.932149493831581 ], [ 85.980399462886098, 51.932310246725706 ], [ 85.980436555980788, 51.932421335787595 ], [ 85.980452453021371, 51.932504979135061 ], [ 85.980520280394529, 51.932645473469371 ], [ 85.980556313686506, 51.932832362925353 ], [ 85.980566911713581, 51.933089171292764 ], [ 85.980598705794748, 51.933300890062874 ], [ 85.980578569543326, 51.933428312915197 ], [ 85.980512861775594, 51.933540052657143 ], [ 85.980398403083399, 51.933683157534318 ], [ 85.980275465969569, 51.933843904934278 ], [ 85.980184322936907, 51.934008572405425 ], [ 85.980102718128578, 51.934113776306731 ], [ 85.980038070163545, 51.934164091128856 ], [ 85.980005216279679, 51.934251651853614 ], [ 85.979889697784799, 51.934390833848013 ], [ 85.979729667576251, 51.934586210661088 ], [ 85.979659720597667, 51.934710362708927 ], [ 85.979556919735245, 51.934789427781396 ], [ 85.979483793348564, 51.934860651570389 ], [ 85.979397949329424, 51.934961279483218 ], [ 85.979319523929206, 51.935067134576535 ], [ 85.979259115174997, 51.935152079841167 ], [ 85.979118161415172, 51.935373590197877 ], [ 85.979053513450125, 51.935585298189316 ], [ 85.979012181144611, 51.935695072310125 ], [ 85.978925277322759, 51.935870841027608 ], [ 85.978860629357726, 51.936031580590246 ], [ 85.97874299125742, 51.936162262737099 ], [ 85.978742991257405, 51.936224990032386 ], [ 85.978802340208915, 51.936383114700099 ], [ 85.978815057841388, 51.936424932700859 ], [ 85.978791742181855, 51.936590244103527 ], [ 85.978750409876355, 51.936792798746779 ], [ 85.978683642305867, 51.937053504828746 ], [ 85.97862641295977, 51.937217507126626 ], [ 85.978514073872987, 51.937446194589 ], [ 85.978460023935, 51.937561191272479 ], [ 85.978420811234898, 51.937706243486936 ], [ 85.978376299521273, 51.937825813202991 ], [ 85.978301053529194, 51.93798850591142 ], [ 85.978267139842586, 51.938087166664097 ], [ 85.978195073258604, 51.938236790835262 ], [ 85.978089092988057, 51.938389681394256 ], [ 85.97792800297681, 51.93860072177997 ], [ 85.977674710130216, 51.9388731780234 ], [ 85.977466988799947, 51.939102510413399 ], [ 85.977247609639903, 51.939342948811294 ], [ 85.977153287199116, 51.939456633909423 ], [ 85.976990077582457, 51.939690536825893 ], [ 85.976870319876753, 51.939872823448752 ], [ 85.976820398764033, 51.940030445269137 ], [ 85.976788715068423, 51.940155072242177 ], [ 85.976733605327738, 51.940286395728222 ], [ 85.976639282886936, 51.940485013603563 ], [ 85.976567216302968, 51.940558841734365 ], [ 85.976360554775383, 51.940687550662993 ], [ 85.97616661088027, 51.94079600561566 ], [ 85.975904839612014, 51.940985474482126 ], [ 85.975724673152087, 51.941114835524345 ], [ 85.975405672537718, 51.941357223139534 ], [ 85.975328306940227, 51.94139576983634 ], [ 85.975207489431796, 51.941451956487612 ], [ 85.97503474159079, 51.941544076310109 ], [ 85.974933000531067, 51.941603529428434 ], [ 85.974810063417209, 51.941655142511209 ], [ 85.974558890176027, 51.941738115317278 ], [ 85.974334212002447, 51.941826314588532 ], [ 85.973908171314847, 51.941953713229744 ], [ 85.973601888332965, 51.942050405290288 ], [ 85.973351774894468, 51.942160816915347 ], [ 85.973163130012892, 51.942259468492452 ], [ 85.97302429585848, 51.942341786860943 ], [ 85.97276146478751, 51.942580901265096 ], [ 85.972590836551916, 51.942779508981481 ], [ 85.972440344567744, 51.942951983390202 ], [ 85.972412789697415, 51.943110084348945 ], [ 85.972423387724461, 51.943229639662626 ], [ 85.972442464173142, 51.943396885905521 ], [ 85.972482736675957, 51.943521666875881 ], [ 85.972591896354615, 51.943637954588127 ], [ 85.972737089325278, 51.943739216114459 ], [ 85.972980843947568, 51.94385942304897 ], [ 85.973176907448078, 51.943941738481328 ], [ 85.973339057262024, 51.9440462657968 ], [ 85.973579632476159, 51.944161898855739 ], [ 85.973703629392702, 51.944283411240534 ], [ 85.973953912185593, 51.944419903682792 ], [ 85.974175241596654, 51.944538847492218 ], [ 85.974424295232438, 51.944659052283775 ], [ 85.974549351951694, 51.944817147225699 ], [ 85.974607641100476, 51.944919059372211 ], [ 85.974664870446588, 51.945075193557798 ], [ 85.974706202752103, 51.945209769030612 ], [ 85.974710441962941, 51.945367208755698 ], [ 85.974739056635983, 51.94552530120157 ], [ 85.974692425316931, 51.945629824826725 ], [ 85.974606581297778, 51.945802288275701 ], [ 85.974541933332759, 51.945905504719626 ], [ 85.974394620756698, 51.946045303828228 ], [ 85.974154045542534, 51.946205353674564 ], [ 85.974057603496334, 51.946307915928912 ], [ 85.973954802633898, 51.946445754003221 ], [ 85.973931486974394, 51.946541129863547 ], [ 85.973832925322796, 51.946726001672758 ], [ 85.973724825446837, 51.946934389830311 ], [ 85.97354889819772, 51.947188504486491 ], [ 85.973456695362358, 51.947368800901508 ], [ 85.973363432724256, 51.947503369492509 ], [ 85.973216120148194, 51.947673212768841 ], [ 85.973122857510106, 51.947787529996511 ], [ 85.972949049866401, 51.947980888758352 ], [ 85.972752986365876, 51.948163141692966 ], [ 85.972489095492207, 51.94831795812015 ], [ 85.972240041856409, 51.948425088161969 ], [ 85.972055636185686, 51.948516540434198 ], [ 85.971718618925351, 51.948660250770956 ], [ 85.971375242848765, 51.94875496869566 ], [ 85.971181298953653, 51.948809186452195 ], [ 85.970913168869146, 51.948885613780803 ], [ 85.97062490253326, 51.948925133844085 ], [ 85.970434667947615, 51.948952895851171 ], [ 85.970215288787585, 51.948986863460014 ], [ 85.970103479602145, 51.948988169905988 ], [ 85.970013926273538, 51.948995681969635 ], [ 85.969799316225675, 51.948987190071506 ], [ 85.969696515363268, 51.949014625428887 ], [ 85.969565629729118, 51.949026710045267 ], [ 85.969370626031306, 51.949052512323391 ], [ 85.969192579176763, 51.949070149315091 ], [ 85.969060633739915, 51.94909366529324 ], [ 85.968908552051687, 51.949085173413664 ], [ 85.968759649771556, 51.949079947640818 ], [ 85.968663207725371, 51.949082233916513 ], [ 85.968590611240032, 51.949077334754179 ], [ 85.96834950612454, 51.949126326353536 ], [ 85.968198484238968, 51.949164866374097 ], [ 85.968225509207997, 51.949211571608849 ], [ 85.968075017223811, 51.949254030870961 ], [ 85.96780476753392, 51.949300409403641 ], [ 85.967392504281477, 51.94932000595233 ], [ 85.967006736096693, 51.949356586153641 ], [ 85.966685615876912, 51.949384021285049 ], [ 85.966166312551209, 51.949422561084141 ], [ 85.965675623898548, 51.949466326578559 ], [ 85.965270779265055, 51.949516624183559 ], [ 85.964869114039672, 51.949561696015429 ], [ 85.964379485189738, 51.949642041342535 ], [ 85.964078501221394, 51.949709975490528 ], [ 85.963932248448003, 51.949748515009503 ], [ 85.963507267563116, 51.949885036089931 ], [ 85.962978426013066, 51.950051604309373 ], [ 85.962710295928559, 51.950167875091971 ], [ 85.962567222563322, 51.950208700435702 ], [ 85.962016655057823, 51.950344240310358 ], [ 85.961554581078232, 51.950436341870947 ], [ 85.961178351117766, 51.95043699507282 ], [ 85.961018320909247, 51.950423931033377 ], [ 85.960805300565426, 51.950397149740624 ], [ 85.960365482442654, 51.950300475672719 ], [ 85.96000938873361, 51.950236461648203 ], [ 85.959894930041415, 51.950234502033773 ], [ 85.959659653840802, 51.950314846155457 ], [ 85.959561092189176, 51.950408907383306 ], [ 85.959408480599578, 51.950524524038919 ], [ 85.95923361315316, 51.950619891225415 ], [ 85.959036489849922, 51.95073942652207 ], [ 85.958809692070972, 51.950900112812235 ], [ 85.958490691456618, 51.95110521561439 ], [ 85.958224680977523, 51.951312930234991 ], [ 85.958031796885123, 51.951464469854336 ], [ 85.957807118711543, 51.951612089853164 ], [ 85.95751249355942, 51.951794981213119 ], [ 85.957332327099479, 51.951910594295128 ], [ 85.957194552747765, 51.952051681042249 ], [ 85.957099170504264, 51.952096097148534 ], [ 85.956937020690333, 51.952230651554963 ], [ 85.956914764833513, 51.95230903257648 ], [ 85.956711282714053, 51.95244162682598 ], [ 85.956576687770465, 51.952568995317122 ], [ 85.956403939929444, 51.952666317663962 ], [ 85.956240730312814, 51.952775396821785 ], [ 85.956071161879919, 51.9528870883791 ], [ 85.955980018847214, 51.9529889821887 ], [ 85.95577865633318, 51.953133331355943 ], [ 85.955591071254304, 51.953220201897786 ], [ 85.955480851772947, 51.953294662228274 ], [ 85.955207422674917, 51.953495835134412 ], [ 85.954964727855369, 51.953695700829186 ], [ 85.954687059546515, 51.953925610591938 ], [ 85.954371238340272, 51.954214302431339 ], [ 85.95419849049928, 51.954310968061712 ], [ 85.953516988104781, 51.954968905084769 ], [ 85.953391259861149, 51.955111229879464 ], [ 85.9533459, 51.955166 ], [ 85.953185, 51.9552453 ], [ 85.953106574825284, 51.955331310089697 ], [ 85.953000406147538, 51.955447084572562 ], [ 85.952802340104, 51.955433413518804 ], [ 85.952583351176074, 51.955420648444608 ], [ 85.952331118132179, 51.955446773608301 ], [ 85.951984562647496, 51.955440242318808 ], [ 85.951738688419823, 51.955445467350472 ], [ 85.951313707534908, 51.9554676737283 ], [ 85.950950195206929, 51.955474205013793 ], [ 85.950560187811305, 51.955435670415596 ], [ 85.950243306802363, 51.955324638337274 ], [ 85.94993066500426, 51.955199237071135 ], [ 85.949810907298527, 51.955106492159089 ], [ 85.949176085477902, 51.954690443960715 ], [ 85.948726729130769, 51.954470988410748 ], [ 85.948205306199668, 51.954405674051557 ], [ 85.947395616932667, 51.954267207295416 ], [ 85.946293422118913, 51.954071263041882 ], [ 85.945326882051504, 51.953804777482922 ], [ 85.94424164408106, 51.953457298835922 ], [ 85.943580327192834, 51.953269188971241 ], [ 85.942875473964193, 51.953204564635158 ], [ 85.94260273112539, 51.953265522256665 ], [ 85.942317516022683, 51.953290424305422 ], [ 85.942172531678793, 51.953324115290563 ], [ 85.941799375252756, 51.953354876602702 ], [ 85.941485638639776, 51.953274311216624 ], [ 85.941245582595002, 51.953274311216624 ], [ 85.941074953597024, 51.953282252181793 ], [ 85.939841343247835, 51.953290090106279 ], [ 85.939286006630155, 51.953310991231596 ], [ 85.938603493687808, 51.953350180815271 ], [ 85.937666628096153, 51.953269188971241 ], [ 85.936865417250772, 51.95310459219229 ], [ 85.936144751411021, 51.952856389557738 ], [ 85.935839528231838, 51.952783234834889 ], [ 85.935496152155253, 51.952670889849557 ], [ 85.935021360543189, 51.952683953234413 ], [ 85.934652549201672, 51.952728368714432 ], [ 85.933461330960697, 51.95274927010157 ], [ 85.932151414816687, 51.952780622164013 ], [ 85.931388356868752, 51.952814586873586 ], [ 85.930727039980511, 51.952900804866957 ], [ 85.930192899416923, 51.953036663186751 ], [ 85.929785935178018, 51.953261351043096 ], [ 85.929357774885005, 51.953475587252903 ], [ 85.929034498234302, 51.953652947100359 ], [ 85.928730371683343, 51.954021623695056 ], [ 85.928437866136647, 51.954322071532957 ], [ 85.928094490060062, 51.954457925546514 ], [ 85.927827419778254, 51.954774045792462 ], [ 85.927628176869632, 51.955098001418136 ], [ 85.927217479081563, 51.955418022137117 ], [ 85.927134308808874, 51.955563683529341 ], [ 85.927064361830318, 51.955609402409955 ], [ 85.926963227527835, 51.955657325457203 ], [ 85.926777155297117, 51.955860202297167 ], [ 85.926712507332084, 51.955924861415625 ], [ 85.926505845804513, 51.95616782211814 ], [ 85.926363832241975, 51.956342857507252 ], [ 85.926156110911691, 51.956622390219067 ], [ 85.925995020900459, 51.956858816058833 ], [ 85.92582757207299, 51.957127895884383 ], [ 85.925670721272581, 51.957471427489345 ], [ 85.925499033234289, 51.957847611170372 ], [ 85.925383884611819, 51.957976064960505 ], [ 85.925418488228672, 51.958195055793944 ], [ 85.92534329999998, 51.9584492 ], [ 85.925390031210625, 51.958669668345941 ], [ 85.925501152839701, 51.958876875386316 ], [ 85.925700029226277, 51.959115450615897 ], [ 85.925988025520695, 51.959360077195306 ], [ 85.926226057890275, 51.959571745987333 ], [ 85.926344055404357, 51.959801098476298 ], [ 85.926425300798911, 51.960051095932371 ], [ 85.926440138036796, 51.960183014227681 ], [ 85.92630024407967, 51.960416809064689 ], [ 85.926221818679494, 51.960634929405352 ], [ 85.926084044327766, 51.960926190241373 ], [ 85.926011977743798, 51.961212224825978 ], [ 85.925935671948992, 51.961493033259153 ], [ 85.925882681813732, 51.961665435704731 ], [ 85.925600774294068, 51.961952771640576 ], [ 85.925346421644747, 51.962159129949036 ], [ 85.924922500562559, 51.962545722704135 ], [ 85.924572765669723, 51.962864398008747 ], [ 85.924083136819789, 51.9631151573114 ], [ 85.923752478375661, 51.963257514832925 ], [ 85.923489647304692, 51.963454724964357 ], [ 85.9227944167299, 51.963813880259465 ], [ 85.922334462355721, 51.963952317532076 ], [ 85.921545969142798, 51.964204376751205 ], [ 85.920744758297445, 51.964549160123276 ], [ 85.919829088759883, 51.964841701510622 ], [ 85.919282230563851, 51.965011479118743 ], [ 85.918701458681227, 51.965189091928153 ], [ 85.917823942041082, 51.965411106950157 ], [ 85.917115993833804, 51.965586106251244 ], [ 85.916335979042543, 51.965622673183091 ], [ 85.915585638727052, 51.965687971201447 ], [ 85.914699643665273, 51.965745433378899 ], [ 85.913385488310439, 51.965907371846299 ], [ 85.912906457487551, 51.965964833742468 ], [ 85.91277080274125, 51.966084981105503 ], [ 85.912813194849477, 51.966226023251124 ], [ 85.912639387205772, 51.966515941823253 ], [ 85.912368077713154, 51.966722279124127 ], [ 85.911965352685044, 51.966745785844964 ], [ 85.911535072786606, 51.96675362141584 ], [ 85.911145065390983, 51.966735338414999 ], [ 85.910596087589525, 51.966788881467814 ], [ 85.909722810160218, 51.966932533244687 ], [ 85.9089300777365, 51.967107526605332 ], [ 85.90852735270839, 51.967238118220294 ], [ 85.908010168988099, 51.967342591238285 ], [ 85.907264067883446, 51.967687350469781 ], [ 85.906568837308626, 51.968149637095031 ], [ 85.905945673317802, 51.968463049043862 ], [ 85.905013046936972, 51.968938386316566 ], [ 85.90461880033051, 51.969178664777736 ], [ 85.904050746080358, 51.969591313911479 ], [ 85.903728566057893, 51.969894269084456 ], [ 85.90333855866227, 51.970340863061409 ], [ 85.903033335483087, 51.970722161999035 ], [ 85.902597766626087, 51.971349052721138 ], [ 85.902551550524151, 51.971578880296626 ], [ 85.902588218346779, 51.971772023130654 ], [ 85.902434671294046, 51.97216010255157 ], [ 85.902360396831284, 51.972529453999165 ], [ 85.902314171481123, 51.972759321509564 ], [ 85.902325387275781, 51.973072563259308 ], [ 85.902240603059354, 51.973257978556632 ], [ 85.901943858301806, 51.973600080823807 ], [ 85.901753093814847, 51.973806385508666 ], [ 85.90150721958716, 51.974114535041068 ], [ 85.90103242797511, 51.974524527319709 ], [ 85.900371111086869, 51.974853562995349 ], [ 85.899963193288684, 51.974972678702983 ], [ 85.899697076566184, 51.975221766719805 ], [ 85.899569900241517, 51.975352334689667 ], [ 85.899052716521226, 51.975777983629293 ], [ 85.898662709125603, 51.976037810288865 ], [ 85.898414715292532, 51.976206239831036 ], [ 85.89813916658909, 51.976428200276175 ], [ 85.897797910117902, 51.976562681657967 ], [ 85.897494806544131, 51.976750693786919 ], [ 85.897157789283796, 51.976921731913308 ], [ 85.896856805315409, 51.977054906185522 ], [ 85.8964116881791, 51.977245527494169 ], [ 85.89625271777328, 51.977347365943096 ], [ 85.896015321967241, 51.977635906957936 ], [ 85.895676185101493, 51.977947946959347 ], [ 85.89536036389525, 51.978275651901328 ], [ 85.895226828754346, 51.978508046781933 ], [ 85.894947040840108, 51.978795274743874 ], [ 85.894862256623682, 51.979030278070233 ], [ 85.89479442925051, 51.979248307831689 ], [ 85.894699047007009, 51.979543364382053 ], [ 85.894716003850306, 51.979749641701076 ], [ 85.894821984120867, 51.980087777783261 ], [ 85.895070420784478, 51.980248234995415 ], [ 85.895218311238011, 51.980375198271901 ], [ 85.895330689419495, 51.980566908324441 ], [ 85.895712218393484, 51.980761431250443 ], [ 85.896397933743046, 51.980952032415175 ] ] ] } },
{ "type": "Feature", "properties": { "fid": 3, "Название": null, "Area": null, "SUM": null }, "geometry": { "type": "Polygon", "coordinates": [ [ [ 85.8676174, 51.9442636 ], [ 85.867821587198023, 51.944222960151208 ], [ 85.867892890973707, 51.944165270927897 ], [ 85.867487350749542, 51.94400593840188 ], [ 85.867219961590749, 51.943950996020298 ], [ 85.866983767833815, 51.943805398383638 ], [ 85.866939202974024, 51.943750455756408 ], [ 85.866132579011676, 51.943536178867198 ], [ 85.865989971460323, 51.943475741610811 ], [ 85.865838450937019, 51.943563650320449 ], [ 85.865624539609982, 51.943577386040772 ], [ 85.865339324507275, 51.943401568503035 ], [ 85.865290303161501, 51.943299923674658 ], [ 85.86507410909978, 51.94319999331811 ], [ 85.864626286750507, 51.943308165155813 ], [ 85.864595091348633, 51.943349372538862 ], [ 85.864612917292561, 51.943472994460862 ], [ 85.864782263759793, 51.943640570300069 ], [ 85.865085304806414, 51.943835616799923 ], [ 85.865357150451189, 51.943794409863578 ], [ 85.866404424656452, 51.944082857623037 ], [ 85.866667357329248, 51.944189994889832 ], [ 85.866912464058146, 51.944288890601264 ], [ 85.867019419721672, 51.944305373198638 ], [ 85.867135288357133, 51.944266913795346 ], [ 85.867242244020659, 51.944198236207448 ], [ 85.867344743198188, 51.944146041170306 ], [ 85.86754528506728, 51.944187247783617 ], [ 85.8676174, 51.9442636 ] ] ] } },
{ "type": "Feature", "properties": { "fid": 4, "Название": "Катунь", "Area": null, "SUM": null }, "geometry": { "type": "Polygon", "coordinates": [ [ [ 85.807169537190603, 51.879365616463751 ], [ 85.807906342872599, 51.879629718843823 ], [ 85.808714452330278, 51.879835130733511 ], [ 85.8106634221988, 51.880245951697347 ], [ 85.81140022788081, 51.88042201667551 ], [ 85.812255873188931, 51.881111597867658 ], [ 85.813040214721383, 51.881522407167203 ], [ 85.813372965674546, 51.881713138780214 ], [ 85.813159054347508, 51.881889198012431 ], [ 85.813135286422281, 51.882065256555151 ], [ 85.813705716627723, 51.882373357345777 ], [ 85.814632665711514, 51.882813497669403 ], [ 85.816130045000747, 51.883635081410169 ], [ 85.816724243131404, 51.883855145933879 ], [ 85.817223369561134, 51.883943171441707 ], [ 85.818007711093614, 51.884133892784007 ], [ 85.818649445074698, 51.884207246930963 ], [ 85.819124803579214, 51.884236588556213 ], [ 85.821002469672052, 51.884618027941769 ], [ 85.823640709372128, 51.885336885677894 ], [ 85.824900409409111, 51.885953040301636 ], [ 85.826873147202846, 51.886451825953699 ], [ 85.830390800136286, 51.88683324654118 ], [ 85.835191921031893, 51.887860132035065 ], [ 85.838353055086941, 51.888168193108278 ], [ 85.839945506077072, 51.888329557589657 ], [ 85.841537957067217, 51.888945671189546 ], [ 85.842227226898743, 51.889033686728638 ], [ 85.842940264655539, 51.888989678980643 ], [ 85.845174449626768, 51.889415085406235 ], [ 85.847717617625932, 51.889781811851613 ], [ 85.851306574335041, 51.890016515206213 ], [ 85.854182493287368, 51.89054459327258 ], [ 85.856654357510862, 51.891366035708877 ], [ 85.858436951902803, 51.891806087980562 ], [ 85.859221293435269, 51.892026112500503 ], [ 85.859696651939771, 51.892348813181101 ], [ 85.861407942556042, 51.892686179596765 ], [ 85.863594591676829, 51.893199558413151 ], [ 85.864521540760634, 51.893888943597666 ], [ 85.863879806779536, 51.894211630901189 ], [ 85.863879806779536, 51.894226298450832 ], [ 85.864260093583155, 51.894636987897123 ], [ 85.865591097395779, 51.895414354072166 ], [ 85.865900080423714, 51.896382376168148 ], [ 85.866232831376891, 51.897189045317205 ], [ 85.86606645590031, 51.898098364084177 ], [ 85.866209063451663, 51.898479685832029 ], [ 85.866850797432775, 51.89903699641107 ], [ 85.867730210666124, 51.900034271771887 ], [ 85.867587603114771, 51.900870206121802 ], [ 85.867017172909343, 51.901486147794898 ], [ 85.867421227638189, 51.902322055129204 ], [ 85.867183548385924, 51.902688676245909 ], [ 85.866803261582305, 51.90280599437132 ], [ 85.866137759675993, 51.903128617636362 ], [ 85.86606645590031, 51.903539225713438 ], [ 85.866779493657077, 51.904389759076295 ], [ 85.867516299339101, 51.905342923880092 ], [ 85.867183548385924, 51.906985252705958 ], [ 85.865852544573272, 51.908231622894554 ], [ 85.86525834644263, 51.908451566984517 ], [ 85.864996899265137, 51.90887678917089 ], [ 85.864640380386746, 51.90947795849587 ], [ 85.863499519975903, 51.909961820644092 ], [ 85.862168516163251, 51.911618642450868 ], [ 85.861978372761456, 51.912791576685613 ], [ 85.860290850070399, 51.914638885980025 ], [ 85.858936078332533, 51.915811741325975 ], [ 85.857652610370337, 51.916456798707699 ], [ 85.856131463155876, 51.917101846822113 ], [ 85.854800459343224, 51.918128040632084 ], [ 85.854039885736015, 51.918773064736001 ], [ 85.853564527231484, 51.919110232738511 ], [ 85.852376130970185, 51.919813879543703 ], [ 85.850569768653017, 51.920370925443024 ], [ 85.848501959158369, 51.921059893704495 ], [ 85.847456170448424, 51.921587606923758 ], [ 85.845911255308749, 51.921660899935794 ], [ 85.844437643944744, 51.921528972427957 ], [ 85.843059104281636, 51.921792827055931 ], [ 85.840040577777955, 51.92290686283183 ], [ 85.836546692769758, 51.924123475581922 ], [ 85.836261477667037, 51.924724440797164 ], [ 85.836023798414786, 51.926395374960791 ], [ 85.835738583312065, 51.92737738619234 ], [ 85.835500904059813, 51.927333415999684 ], [ 85.83523945688232, 51.926805770327654 ], [ 85.835500904059813, 51.926673857940401 ], [ 85.835762351237292, 51.92589703268473 ], [ 85.836071334265228, 51.925105536520725 ], [ 85.835857422938204, 51.924797728687601 ], [ 85.834692794602134, 51.925208138662683 ], [ 85.833361790789496, 51.926380717914 ], [ 85.833171647387672, 51.927186848379684 ], [ 85.833504398340835, 51.927113564390197 ], [ 85.834669026676906, 51.926849741037245 ], [ 85.83531076065799, 51.926805770327654 ], [ 85.835548439910255, 51.927333415999684 ], [ 85.834835402153487, 51.927465326448448 ], [ 85.83345686249038, 51.927743802789323 ], [ 85.832244698303867, 51.929839648230548 ], [ 85.83129398129482, 51.931261249915352 ], [ 85.830343264285787, 51.931070728591507 ], [ 85.830794854865076, 51.930118109839128 ], [ 85.831555428472313, 51.929737056676039 ], [ 85.832007019051602, 51.929531872863443 ], [ 85.832244698303867, 51.928593877773558 ], [ 85.832862664359737, 51.927817085749737 ], [ 85.832933968135407, 51.927098907577928 ], [ 85.832458609630905, 51.9269376823272 ], [ 85.83148412469663, 51.92783174232747 ], [ 85.830271960510103, 51.929282719829828 ], [ 85.829059796323577, 51.930381913979758 ], [ 85.827205898155981, 51.932301775180861 ], [ 85.826088805670366, 51.933400895383762 ], [ 85.825708518866747, 51.93495427269059 ], [ 85.825637215091064, 51.936712748138916 ], [ 85.825922430193785, 51.936756709142102 ], [ 85.827063290604627, 51.934382753330731 ], [ 85.828441830267735, 51.933181073496954 ], [ 85.830414568061485, 51.931041417546815 ], [ 85.831270213369621, 51.931231938995111 ], [ 85.830699783164192, 51.932770736426967 ], [ 85.830176888809206, 51.933444859631905 ], [ 85.827514881183916, 51.935980058410998 ], [ 85.826991986828943, 51.936478288727777 ], [ 85.826564164174897, 51.937577306628512 ], [ 85.826611700025339, 51.937870373522024 ], [ 85.827419809483018, 51.938309970272854 ], [ 85.828251686865926, 51.939716650930301 ], [ 85.82801400761366, 51.940449279637591 ], [ 85.82665923587578, 51.942061020678345 ], [ 85.825851126418101, 51.942236843470504 ], [ 85.823284190493709, 51.94200241292782 ], [ 85.823902156549593, 51.940302754853299 ], [ 85.8236407093721, 51.940332059848444 ], [ 85.822499848961257, 51.940874198805631 ], [ 85.822262169709006, 51.941357722618207 ], [ 85.822072026307183, 51.94176798115997 ], [ 85.821858114980159, 51.942529879925985 ], [ 85.821240148924275, 51.942236843470504 ], [ 85.820289431915242, 51.941328418293075 ], [ 85.821430292326099, 51.940771632478409 ], [ 85.822262169709006, 51.93930637362805 ], [ 85.823498101820746, 51.93959942922681 ], [ 85.824211139577514, 51.939115886462275 ], [ 85.824163603727072, 51.938603032380442 ], [ 85.823355494269393, 51.937137702698749 ], [ 85.822761296138736, 51.937533346429369 ], [ 85.822000722531513, 51.937914333390943 ], [ 85.821263916849517, 51.939042621952396 ], [ 85.820004216812549, 51.939951093418387 ], [ 85.819243643205311, 51.940200187219538 ], [ 85.819196107354855, 51.939350332089901 ], [ 85.820883630045898, 51.938661644572228 ], [ 85.821739275354034, 51.937460079335061 ], [ 85.82154913195221, 51.936522249960689 ], [ 85.822095794232425, 51.935862826944174 ], [ 85.823260422568495, 51.935335281552931 ], [ 85.824092299951403, 51.934470679859913 ], [ 85.824520122605449, 51.932682806566639 ], [ 85.824448818829779, 51.9320672927199 ], [ 85.824757801857714, 51.931085384106673 ], [ 85.825138088661333, 51.930689683517187 ], [ 85.825946198119013, 51.930352602485158 ], [ 85.826896915128046, 51.929649120871233 ], [ 85.828156615165014, 51.928110216394828 ], [ 85.828489366118191, 51.927523953190111 ], [ 85.826920683053274, 51.927758459390979 ], [ 85.826136341520836, 51.927743802789323 ], [ 85.825494607539724, 51.927831742327463 ], [ 85.825447071689268, 51.927729146182877 ], [ 85.826088805670366, 51.927465326448434 ], [ 85.827110826455083, 51.927172191591346 ], [ 85.829345011426327, 51.927069593939052 ], [ 85.830580943538067, 51.925120193983915 ], [ 85.830984998266899, 51.924138133365823 ], [ 85.830676015238964, 51.923888950388438 ], [ 85.829915441631726, 51.923940252879213 ], [ 85.828287338753768, 51.924709783204698 ], [ 85.827110826455083, 51.92517882378889 ], [ 85.826136341520836, 51.925984975841359 ], [ 85.825363883950999, 51.92735540110138 ], [ 85.825351999988385, 51.927743802789315 ], [ 85.825458955651897, 51.92774013863815 ], [ 85.825482723577139, 51.927824414039186 ], [ 85.826273007090876, 51.92774013863815 ], [ 85.826088805670381, 51.927923345829797 ], [ 85.825756054717246, 51.928535252429484 ], [ 85.825726344810704, 51.929216767324668 ], [ 85.825815474530316, 51.929898271870663 ], [ 85.825851126418158, 51.930396569719875 ], [ 85.825132146680076, 51.930697011337578 ], [ 85.824900409409125, 51.930938828739613 ], [ 85.824888525446497, 51.930502823692606 ], [ 85.824757801857757, 51.930191388922637 ], [ 85.824906351390425, 51.929579504903543 ], [ 85.824769685820357, 51.928828378383969 ], [ 85.825209392437031, 51.928227468116788 ], [ 85.824947945259552, 51.927780444284487 ], [ 85.82449635468025, 51.928080903416472 ], [ 85.823331726344165, 51.929297375928904 ], [ 85.822951439540574, 51.929619808897989 ], [ 85.823105931054542, 51.929846976189737 ], [ 85.822808831989221, 51.930323290971401 ], [ 85.822214633858579, 51.929986207187277 ], [ 85.820943049859011, 51.930337946730674 ], [ 85.819160455467056, 51.931473753514638 ], [ 85.819267411130568, 51.931979361481154 ], [ 85.819089151691387, 51.932682806566639 ], [ 85.81849495356073, 51.932939268177648 ], [ 85.81775814787872, 51.933261674980479 ], [ 85.816961922383683, 51.933862517840829 ], [ 85.816557867654822, 51.934727131252565 ], [ 85.816427144066083, 51.935818865065144 ], [ 85.816498447841752, 51.936558884288544 ], [ 85.816997574271511, 51.937394138847907 ], [ 85.817841335617032, 51.93828799053761 ], [ 85.818899008289591, 51.939284394380969 ], [ 85.819184223392313, 51.939343005682588 ], [ 85.819243643205368, 51.940207513486868 ], [ 85.819267411130596, 51.940683718296988 ], [ 85.819635813971601, 51.941496917901141 ], [ 85.819885377186466, 51.941533548166966 ], [ 85.820313199840527, 51.941313766123329 ], [ 85.821216380999118, 51.942229517534585 ], [ 85.82185811498023, 51.942581161108876 ], [ 85.821584783840123, 51.943064666522531 ], [ 85.822583036699626, 51.942683723298792 ], [ 85.823307958419008, 51.941995086953618 ], [ 85.825898662268642, 51.942251495338745 ], [ 85.826088805670409, 51.942888846975102 ], [ 85.826326484922674, 51.943855845957735 ], [ 85.825340116025814, 51.944969334114106 ], [ 85.824793453745599, 51.945797106738098 ], [ 85.823854620699194, 51.946976473202689 ], [ 85.823105931054585, 51.948104533845964 ], [ 85.821632319690593, 51.949210591732239 ], [ 85.820907397971183, 51.950250700750473 ], [ 85.820372619653597, 51.95159108735924 ], [ 85.820301315877913, 51.952975379013644 ], [ 85.818625677149498, 51.952470007648209 ], [ 85.818661329037326, 51.951041753430381 ], [ 85.819053499803559, 51.9497452986772 ], [ 85.819623930008973, 51.949130018900156 ], [ 85.821085657410364, 51.948448806443132 ], [ 85.823117815017184, 51.944778870994483 ], [ 85.82261868858744, 51.943592121029916 ], [ 85.821656087615793, 51.943833868939656 ], [ 85.820443923429266, 51.945262352718935 ], [ 85.820693486644146, 51.945416186720152 ], [ 85.821691739503649, 51.944844800627422 ], [ 85.821691739503649, 51.94550409162683 ], [ 85.820443923429266, 51.946493009955503 ], [ 85.818625677149498, 51.9475917825255 ], [ 85.817805683729205, 51.948800401261423 ], [ 85.817021342196753, 51.949943065384204 ], [ 85.817270905411618, 51.950646228834714 ], [ 85.818661329037326, 51.951217541019787 ], [ 85.818661329037354, 51.952491980434708 ], [ 85.820230012102257, 51.9530193240806 ], [ 85.820657834756332, 51.953436800068616 ], [ 85.820657834756332, 51.954843006378745 ], [ 85.821370872513114, 51.957106027059467 ], [ 85.820158708326574, 51.962115025798163 ], [ 85.820372619653597, 51.964663248945726 ], [ 85.819588278121159, 51.965497980199821 ], [ 85.818197854495452, 51.969210149310804 ], [ 85.818946544140061, 51.971494408244268 ], [ 85.813919627954775, 51.970769607925057 ], [ 85.814169191169668, 51.969210149310804 ], [ 85.813349197749361, 51.968595136626533 ], [ 85.812065729787165, 51.968419417166523 ], [ 85.811994426011481, 51.967870289413163 ], [ 85.813206590198007, 51.968046011026289 ], [ 85.813705716627751, 51.966486457632428 ], [ 85.81420484305751, 51.965783542586294 ], [ 85.815381355356166, 51.965366181561627 ], [ 85.81673612709406, 51.96547601378704 ], [ 85.816486563879181, 51.965651744787856 ], [ 85.814490058160217, 51.966156967577191 ], [ 85.813777020403421, 51.967321154931319 ], [ 85.81420484305751, 51.968595136626533 ], [ 85.814810925150752, 51.969012467582729 ], [ 85.816450911991353, 51.968287627119352 ], [ 85.816593519542693, 51.965871407569942 ], [ 85.816504389823109, 51.965651744787856 ], [ 85.816759895019274, 51.965465030576603 ], [ 85.816860908701486, 51.965087938719385 ], [ 85.817365977112516, 51.963125545414101 ], [ 85.8179720592058, 51.961412042194446 ], [ 85.818863356401764, 51.959171208381143 ], [ 85.81929117905581, 51.956974203745141 ], [ 85.818435533747717, 51.954447515311507 ], [ 85.817045110121995, 51.952689735028706 ], [ 85.817259021449033, 51.95455737429122 ], [ 85.81668859124359, 51.959039391139136 ], [ 85.815048604403017, 51.960467390616472 ], [ 85.813586877001626, 51.962268801991897 ], [ 85.811982542048881, 51.964048173863461 ], [ 85.810770377862355, 51.965805508848376 ], [ 85.811305156179927, 51.967145430476073 ], [ 85.811911238273183, 51.967914219881067 ], [ 85.812053845824536, 51.968639066383915 ], [ 85.813016446796183, 51.970198544871124 ], [ 85.81397904776783, 51.970857463133612 ], [ 85.818934660177433, 51.971450481285942 ], [ 85.820111172476118, 51.97261453113304 ], [ 85.821858114980202, 51.97347107680217 ], [ 85.823070279166728, 51.973339301611126 ], [ 85.823818968811352, 51.973580889165341 ], [ 85.825102436773534, 51.973690701259379 ], [ 85.826243297184391, 51.97404209815177 ], [ 85.827419809483061, 51.974107984762291 ], [ 85.825245044324902, 51.972658456950271 ], [ 85.825351999988413, 51.972021528385739 ], [ 85.82267810840051, 51.970440149359007 ], [ 85.822642456512668, 51.969012467582758 ], [ 85.822214633858607, 51.966728082133464 ], [ 85.819683349822043, 51.965476013787047 ], [ 85.820396387578811, 51.964619315291188 ], [ 85.822535500849142, 51.966091069275471 ], [ 85.824710266007315, 51.969847117836132 ], [ 85.828311106679024, 51.972219196840136 ], [ 85.830521523725039, 51.974349568171959 ], [ 85.833908453069739, 51.977094742689317 ], [ 85.839327540021245, 51.980586361629911 ], [ 85.842072735384818, 51.981508630630195 ], [ 85.851057011120204, 51.983726390253793 ], [ 85.854408288577062, 51.98572447568133 ], [ 85.857616958482552, 51.986558814642251 ], [ 85.860255198182614, 51.986756418961697 ], [ 85.862073444462396, 51.988995873648477 ], [ 85.863749083190825, 51.990313147623525 ], [ 85.865531677582766, 51.991740150703151 ], [ 85.86677949365712, 51.992530471302508 ], [ 85.864818639825998, 51.992903673403333 ], [ 85.863749083190825, 51.991366938904562 ], [ 85.862465615228629, 51.99046682706323 ], [ 85.860290850070456, 51.990159467656412 ], [ 85.858044781136613, 51.990137513332336 ], [ 85.856832616950086, 51.989720379129921 ], [ 85.854550896128416, 51.987437049388454 ], [ 85.854087421586513, 51.986580770720792 ], [ 85.852696997960791, 51.985900127280559 ], [ 85.851057011120204, 51.985592736529824 ], [ 85.848525727083654, 51.984582723494597 ], [ 85.843356203347028, 51.982870040640769 ], [ 85.840040577778012, 51.981925841320958 ], [ 85.839612755123937, 51.981903882960417 ], [ 85.842571861814562, 51.986646638891862 ], [ 85.844924886411903, 51.988139624785575 ], [ 85.849452676167445, 51.989259331543394 ], [ 85.853588295156754, 51.990752230337726 ], [ 85.857474350931184, 51.992596330722805 ], [ 85.856832616950072, 51.989786242683365 ], [ 85.857937825473087, 51.990137513332336 ], [ 85.858829122669064, 51.992793908402469 ], [ 85.861574318032638, 51.993013438135137 ], [ 85.864604728498946, 51.993035391049212 ], [ 85.865103854928691, 51.992837814435106 ], [ 85.867136012535497, 51.992574377593471 ], [ 85.867920354067948, 51.991959685602211 ], [ 85.869916859786926, 51.990203376272262 ], [ 85.871378587188318, 51.990137513332336 ], [ 85.873196833468086, 51.99108153954797 ], [ 85.873767263673528, 51.991696243594184 ], [ 85.876191592046553, 51.991740150703158 ], [ 85.879435913839885, 51.99191577870851 ], [ 85.881004596904802, 51.993145155458109 ], [ 85.882430672418351, 51.99468182892933 ], [ 85.882715887521044, 51.996130644183175 ], [ 85.881111552568314, 51.998259878485115 ], [ 85.877332452457424, 52.002035178984762 ], [ 85.876476807149302, 52.003461808484985 ], [ 85.875906376943874, 52.001310872758822 ], [ 85.87861592041962, 51.99926958306456 ], [ 85.879970692157485, 51.997381855991073 ], [ 85.880541122362928, 51.99676722999903 ], [ 85.881753286549426, 51.996108692786706 ], [ 85.881289812007523, 51.994242784747691 ], [ 85.880612426138597, 51.993869593808299 ], [ 85.879400261952071, 51.994133023029583 ], [ 85.879328958176401, 51.994659876822489 ], [ 85.879150698737206, 51.995055013098728 ], [ 85.878865483634499, 51.994659876822489 ], [ 85.879150698737206, 51.993913498786149 ], [ 85.879578521391267, 51.993518352435636 ], [ 85.88032721103589, 51.993628115660577 ], [ 85.880255907260192, 51.993254919597923 ], [ 85.879079394961508, 51.992771955369996 ], [ 85.878152445877703, 51.992881720424691 ], [ 85.877653319447973, 51.992881720424691 ], [ 85.875799421280348, 51.992332892460404 ], [ 85.874159434439761, 51.992310939201914 ], [ 85.871449890964001, 51.993474447070312 ], [ 85.86663688610578, 51.994089118267013 ], [ 85.865353418143584, 51.993518352435636 ], [ 85.864533424723277, 51.993167108307595 ], [ 85.863463868088118, 51.993408588941605 ], [ 85.861752577471847, 51.993342730716037 ], [ 85.859898679304237, 51.993145155458109 ], [ 85.859185641547455, 51.993232966791489 ], [ 85.858900426444762, 51.993606163037114 ], [ 85.860219546294786, 51.994089118266999 ], [ 85.863285608648923, 51.994769637249021 ], [ 85.867278620086879, 51.995955032710036 ], [ 85.871271631524806, 51.997469659015394 ], [ 85.874302041991129, 51.999247633207169 ], [ 85.875870725056032, 52.001223077268349 ], [ 85.876405503373604, 52.00348375627599 ], [ 85.876904629803349, 52.00444944842544 ], [ 85.877582015672289, 52.00559069410334 ], [ 85.878402009092582, 52.007938935008809 ], [ 85.880148951596681, 52.009233706732431 ], [ 85.881361115783207, 52.009255651693032 ], [ 85.883827038025402, 52.010151728392579 ], [ 85.884688625314823, 52.010243163781588 ], [ 85.887273387183157, 52.010170015485329 ], [ 85.888491493350983, 52.010572329635046 ], [ 85.889917568864519, 52.01104778714862 ], [ 85.892472620826311, 52.011541526142516 ], [ 85.894760283629296, 52.01185239604736 ], [ 85.897553014843353, 52.012766706779246 ], [ 85.898058083254398, 52.013205569294364 ], [ 85.89790953372173, 52.013717570121536 ], [ 85.898860250730763, 52.014394133656729 ], [ 85.899454448861405, 52.015034116773933 ], [ 85.898592861571984, 52.015655805893353 ], [ 85.898117503067468, 52.016167778681599 ], [ 85.900791394655371, 52.017191706681714 ], [ 85.90197979091667, 52.01761224174976 ], [ 85.903138477271426, 52.017941353393361 ], [ 85.904297163626183, 52.017996205098562 ], [ 85.905574689607064, 52.018782405482526 ], [ 85.905604399513621, 52.020025670910691 ], [ 85.904891361756825, 52.021159206333103 ], [ 85.90518846082216, 52.022694918180008 ], [ 85.906644246242251, 52.025382287040031 ], [ 85.907089894840226, 52.027265177177235 ], [ 85.906228307550791, 52.028946914933961 ], [ 85.905039911289506, 52.031798412676693 ], [ 85.905366720261355, 52.033114427227964 ], [ 85.903584125869401, 52.032566092538886 ], [ 85.903554415962887, 52.031158669389747 ], [ 85.903970354654334, 52.029897434385944 ], [ 85.904208033906585, 52.029422177185523 ], [ 85.904208033906585, 52.02883723831242 ], [ 85.903435576336747, 52.028727561421896 ], [ 85.902158050355865, 52.02858132514941 ], [ 85.901563852225209, 52.028325410521866 ], [ 85.900613135216176, 52.028307130849562 ], [ 85.899602998394073, 52.02858132514941 ], [ 85.898147212973996, 52.028617884262367 ], [ 85.895800130357927, 52.027173776574102 ], [ 85.896097229423262, 52.026808172293499 ], [ 85.89556245110569, 52.025894148515491 ], [ 85.89476028362931, 52.025181197000435 ], [ 85.894136375592126, 52.024066044916857 ], [ 85.893363918022288, 52.023535880896091 ], [ 85.891967552415281, 52.023188528647452 ], [ 85.891670453349946, 52.022932583159147 ], [ 85.892026972228322, 52.022146455716047 ], [ 85.893453047741886, 52.022822891787236 ], [ 85.895235642133827, 52.023864948959108 ], [ 85.895948679890623, 52.025528533773659 ], [ 85.896780557273502, 52.026186638156915 ], [ 85.897642144562951, 52.026351162739587 ], [ 85.897018236525767, 52.026643649392092 ], [ 85.8974044653107, 52.02774045730223 ], [ 85.89808779316094, 52.028234012085669 ], [ 85.899216769609168, 52.028435088398716 ], [ 85.899989227179006, 52.028179172934287 ], [ 85.90129646306643, 52.027886696324472 ], [ 85.903287026804094, 52.028380249493914 ], [ 85.903910934841264, 52.028343690186681 ], [ 85.903970354654334, 52.027502817871138 ], [ 85.904059484373946, 52.026479125885437 ], [ 85.904445713158864, 52.026223199227594 ], [ 85.90456455278499, 52.025985551733925 ], [ 85.903316736710636, 52.025894148515491 ], [ 85.902276889982005, 52.025948990468962 ], [ 85.900821104561913, 52.026040393575322 ], [ 85.899929807365936, 52.026278040777569 ], [ 85.900167486618201, 52.025875867849386 ], [ 85.901474722505625, 52.025638218510053 ], [ 85.902187760262393, 52.025455410466627 ], [ 85.903346446617164, 52.025327444391628 ], [ 85.904683392411101, 52.025455410466627 ], [ 85.905218170728702, 52.025985551733925 ], [ 85.905485559887495, 52.026643649392092 ], [ 85.905574689607093, 52.027155496431057 ], [ 85.904980491476437, 52.026990974807411 ], [ 85.90456455278499, 52.027320017449448 ], [ 85.90456455278499, 52.027758737206163 ], [ 85.904683392411101, 52.028197452658887 ], [ 85.905099331102576, 52.028160893202219 ], [ 85.905931208485484, 52.027320017449448 ], [ 85.90640656699, 52.026278040777569 ], [ 85.905426140074425, 52.024303702610325 ], [ 85.904148614093543, 52.023682133667442 ], [ 85.902752248486522, 52.023773541406676 ], [ 85.902336309795075, 52.024139170495509 ], [ 85.902068920636282, 52.024797295323182 ], [ 85.902573989047326, 52.025272601675965 ], [ 85.902603698953854, 52.025418848768282 ], [ 85.902128340449323, 52.025510252958114 ], [ 85.90129646306643, 52.024267139970448 ], [ 85.901058783814179, 52.023188528647452 ], [ 85.900464585683523, 52.021872221962077 ], [ 85.900761684748844, 52.020811835627214 ], [ 85.901237043253346, 52.020501027972138 ], [ 85.902247180075449, 52.019897689300279 ], [ 85.902306599888519, 52.018892106763168 ], [ 85.899929807365936, 52.017575673639904 ], [ 85.8979689535348, 52.016716314453234 ], [ 85.896008099703664, 52.015472957049099 ], [ 85.896453748301653, 52.01481469502216 ], [ 85.896780557273502, 52.013552999066022 ], [ 85.896216069049387, 52.012867279819154 ], [ 85.895131657460951, 52.012455843226633 ], [ 85.892814284751438, 52.012181550063112 ], [ 85.891848712789141, 52.012199836326324 ], [ 85.891284224565041, 52.012099261786169 ], [ 85.890586041761537, 52.01186153924715 ], [ 85.88846178344447, 52.011696961364898 ], [ 85.887733890734424, 52.011587242440434 ], [ 85.886961433164586, 52.011358660483701 ], [ 85.886649479145987, 52.011376947083207 ], [ 85.886411799893736, 52.011523239610248 ], [ 85.886337525127416, 52.012062689170072 ], [ 85.886084990921873, 52.012218122582077 ], [ 85.88587702157615, 52.012327839959582 ], [ 85.88562448737062, 52.012172406928705 ], [ 85.885906731482677, 52.01178839359644 ], [ 85.886129555781679, 52.011312943952227 ], [ 85.886174120641471, 52.01106607387517 ], [ 85.885832456716358, 52.010928923243846 ], [ 85.884733190174657, 52.010874062873619 ], [ 85.884213266810335, 52.011084360594253 ], [ 85.884346961389738, 52.011559812667279 ], [ 85.885089709053048, 52.012026116524069 ], [ 85.885594777464092, 52.012163263792424 ], [ 85.885951296342483, 52.012373555454126 ], [ 85.886604914286195, 52.012794135812548 ], [ 85.888417218584678, 52.013845569412858 ], [ 85.889873004004755, 52.01475983941608 ], [ 85.890259232789674, 52.01556438156463 ], [ 85.890348362509272, 52.016515185451226 ], [ 85.890348362509272, 52.017740229898855 ], [ 85.890586041761537, 52.018709271145958 ], [ 85.891774438022821, 52.019312625846844 ], [ 85.891774438022821, 52.020007387845894 ], [ 85.891328789424847, 52.020830118363179 ], [ 85.891536758770556, 52.021616268941422 ], [ 85.892012117275101, 52.022128173518084 ], [ 85.891625888490168, 52.022987428744209 ], [ 85.891774438022821, 52.023755259873766 ], [ 85.891685308303238, 52.024870419706225 ], [ 85.893081673910245, 52.02668021008914 ], [ 85.894715718769532, 52.028636163807619 ], [ 85.897478740077034, 52.031103833824943 ], [ 85.899023655216709, 52.031707021338931 ], [ 85.901608417085043, 52.032163976159644 ], [ 85.903598980822707, 52.032566092538879 ], [ 85.905381575214648, 52.033205815689016 ], [ 85.906213452597555, 52.034265908186235 ], [ 85.908322855961345, 52.035088376428547 ], [ 85.910075740446743, 52.035179760854838 ], [ 85.910699648483927, 52.036203253667622 ], [ 85.910937327736193, 52.037281551104918 ], [ 85.911264136708056, 52.037738448953505 ], [ 85.91355179951104, 52.038579128793899 ], [ 85.915215554276841, 52.039255316323441 ], [ 85.915572073155218, 52.040424913848447 ], [ 85.915007584931118, 52.041667577687249 ], [ 85.916136561379332, 52.041996512332361 ], [ 85.917324957640645, 52.041795497003541 ], [ 85.918097415210482, 52.042179252755879 ], [ 85.918632193528055, 52.043805609610779 ], [ 85.919018422312973, 52.045267452907865 ], [ 85.917324957640645, 52.047094689789724 ], [ 85.915482943435634, 52.048410254084523 ], [ 85.915067004744174, 52.049396901889743 ], [ 85.91423512736128, 52.049287275431624 ], [ 85.914651066052727, 52.048190996058246 ], [ 85.917176408107977, 52.046254170103062 ], [ 85.917948865677815, 52.045212634647136 ], [ 85.917740896332091, 52.043184311730442 ], [ 85.915304683996425, 52.042288896651385 ], [ 85.912749632034647, 52.041923415953754 ], [ 85.910580808857802, 52.041155896761104 ], [ 85.90980835128795, 52.040571111387322 ], [ 85.90980835128795, 52.039767019006227 ], [ 85.908798214465861, 52.039364967391435 ], [ 85.908411985680928, 52.038999462785441 ], [ 85.907758367737216, 52.038487751316204 ], [ 85.909570672035699, 52.039163940227979 ], [ 85.910461969231662, 52.039931493624564 ], [ 85.911145297081916, 52.040735583046981 ], [ 85.913462669791443, 52.041868593591346 ], [ 85.91491845521152, 52.041850319455605 ], [ 85.914413386800462, 52.0407721322225 ], [ 85.914769905678867, 52.040077692777245 ], [ 85.914383676893934, 52.039383242543281 ], [ 85.9123336933432, 52.038469475798252 ], [ 85.910907617829636, 52.037848103742327 ], [ 85.909956900820603, 52.037153618870498 ], [ 85.909897481007533, 52.036312912222115 ], [ 85.909540962129157, 52.035490466507014 ], [ 85.908114886615593, 52.03541735948901 ], [ 85.906718521008585, 52.034978714870434 ], [ 85.905648964373427, 52.034302462651624 ], [ 85.905619254466885, 52.034850776046007 ], [ 85.906035193158345, 52.036459123209696 ], [ 85.907134459700032, 52.037409482973239 ], [ 85.907550398391493, 52.038213617762409 ], [ 85.907877207363356, 52.038542577825226 ], [ 85.908679374839721, 52.039310141891058 ], [ 85.908709084746249, 52.039876668819026 ], [ 85.909154733344252, 52.042435088093661 ], [ 85.910610518764329, 52.044481718078956 ], [ 85.911917754651739, 52.04756975914156 ], [ 85.912809051847717, 52.049068021708557 ], [ 85.913373540071845, 52.049095428482772 ], [ 85.914101432781891, 52.049259868775081 ], [ 85.914324257080878, 52.049296410980084 ], [ 85.915096714650716, 52.049415172939959 ], [ 85.915215554276841, 52.049908488471523 ], [ 85.915928592033609, 52.050840291838504 ], [ 85.915884027173817, 52.051324456504773 ], [ 85.908649664933193, 52.05157110441202 ], [ 85.908070321755815, 52.050511422280735 ], [ 85.907401848858854, 52.048967530059272 ], [ 85.90707503988699, 52.048108774021038 ], [ 85.905842078765872, 52.045952675493659 ], [ 85.905129041009104, 52.045075588701138 ], [ 85.902232325122199, 52.041548795137174 ], [ 85.901652981944821, 52.040808681368141 ], [ 85.903524706056359, 52.040470600630726 ], [ 85.90382180512168, 52.040762994931434 ], [ 85.90388122493475, 52.041457423730009 ], [ 85.905143895962382, 52.042992438580775 ], [ 85.906064903064873, 52.04421675787097 ], [ 85.907312719139227, 52.045340543817581 ], [ 85.907654383064354, 52.045651178850264 ], [ 85.907550398391493, 52.04437207956272 ], [ 85.906168887737735, 52.042398540277929 ], [ 85.905262735588494, 52.041466560879122 ], [ 85.904118904186987, 52.040561974055166 ], [ 85.903524706056345, 52.040479737981585 ], [ 85.901638126991543, 52.040817818649884 ], [ 85.899454448861434, 52.037537414475459 ], [ 85.898102648114204, 52.036075318347436 ], [ 85.900330891104119, 52.035993074019686 ], [ 85.900360601010661, 52.036513952206768 ], [ 85.902143195402601, 52.038579128793899 ], [ 85.903836660074944, 52.039218765907684 ], [ 85.905812368859344, 52.039492893297492 ], [ 85.904401148299044, 52.036550504834118 ], [ 85.903584125869401, 52.036139286053292 ], [ 85.90131131801968, 52.03563668018441 ], [ 85.900479440636786, 52.035782893383605 ], [ 85.900316036150855, 52.035993074019686 ], [ 85.89808779316094, 52.036075318347436 ], [ 85.89679541222678, 52.034869053043352 ], [ 85.895146512414229, 52.032712315780174 ], [ 85.898563151665442, 52.032383312814837 ], [ 85.898889960637305, 52.033160121481849 ], [ 85.899409884001614, 52.033653616448063 ], [ 85.900330891104119, 52.03464059003965 ], [ 85.903346446617149, 52.035298560329778 ], [ 85.904430858205586, 52.035161483984545 ], [ 85.9033315916639, 52.033425147233437 ], [ 85.901519287365403, 52.032675760014683 ], [ 85.898607716525248, 52.032355895791767 ], [ 85.895131657460951, 52.032730593651706 ], [ 85.89421065035846, 52.030985023203904 ], [ 85.892324071293658, 52.029020032532202 ], [ 85.890556331855009, 52.027329157488289 ], [ 85.888387508678136, 52.024239717970943 ], [ 85.885149128866118, 52.022173878998984 ], [ 85.883188275034982, 52.020583300796893 ], [ 85.87938540699885, 52.016944869039769 ], [ 85.876414416345597, 52.013927854478204 ], [ 85.8779593314853, 52.01411070963718 ], [ 85.87926656737271, 52.015994074285125 ], [ 85.880425253727481, 52.01656089666745 ], [ 85.881999878773684, 52.017950495348884 ], [ 85.884138992044015, 52.019029232985687 ], [ 85.885683907183719, 52.018700129345483 ], [ 85.885832456716358, 52.018005347042887 ], [ 85.886634624192737, 52.018133334067322 ], [ 85.887525921388701, 52.018681845738925 ], [ 85.887823020454036, 52.01875498012032 ], [ 85.88710998269724, 52.017292269775005 ], [ 85.885416518024897, 52.0162500594761 ], [ 85.884168701950543, 52.015646663468885 ], [ 85.878939758400847, 52.014000996631481 ], [ 85.878672369242054, 52.012830707830794 ], [ 85.880336124007883, 52.013635284669448 ], [ 85.883604213726429, 52.014330134841508 ], [ 85.886278105314346, 52.014714126359635 ], [ 85.888773737463055, 52.016780309855164 ], [ 85.88820924923894, 52.015738087629444 ], [ 85.885475937837967, 52.013598713308838 ], [ 85.882386107558602, 52.011934684778289 ], [ 85.877305713541574, 52.009740266829958 ], [ 85.876176737093346, 52.00849671555617 ], [ 85.874572402140615, 52.006649612381842 ], [ 85.872641258216007, 52.005277951788173 ], [ 85.87284922756173, 52.004985325420719 ], [ 85.874007913916472, 52.005771754444808 ], [ 85.875018050738589, 52.006356994982731 ], [ 85.875226020084312, 52.005332819019074 ], [ 85.874631821953685, 52.003814800818162 ], [ 85.874512982327545, 52.002699116062608 ], [ 85.874305012981822, 52.002644245603044 ], [ 85.873799944570777, 52.003357556330734 ], [ 85.873443425692372, 52.003723352294358 ], [ 85.872938357281328, 52.004015986912819 ], [ 85.872314449244143, 52.004454935253094 ], [ 85.871898510552697, 52.004893879288517 ], [ 85.87204706008535, 52.005095060532717 ], [ 85.872760097842132, 52.004893879288517 ], [ 85.872819517655188, 52.005021903821273 ], [ 85.872611548309465, 52.005223084490019 ], [ 85.87216589971149, 52.005826621070348 ], [ 85.872492708683353, 52.007381147509179 ], [ 85.874423852607961, 52.009283082878618 ], [ 85.875820218214969, 52.010709481359342 ], [ 85.878137590924496, 52.012501558590415 ], [ 85.87864265933554, 52.012812421825402 ], [ 85.878880338587805, 52.013964425569789 ], [ 85.878137590924496, 52.013818141024117 ], [ 85.877929621578744, 52.014128995111975 ], [ 85.876147027186803, 52.013763284196173 ], [ 85.873265166253177, 52.010471751436718 ], [ 85.870294175599938, 52.006960516272038 ], [ 85.867263765133643, 52.004784143683253 ], [ 85.86545146083516, 52.002662535763704 ], [ 85.863490607004024, 52.000549972787155 ], [ 85.861485188313097, 51.99925129151746 ], [ 85.860073967752811, 51.997065397828742 ], [ 85.862302210742754, 51.997111128915321 ], [ 85.862747859340743, 51.998574499021238 ], [ 85.865094941956798, 52.001336479744424 ], [ 85.867234055227115, 52.003275251826942 ], [ 85.867857963264299, 52.003458150518753 ], [ 85.868838390179846, 52.004006842109959 ], [ 85.870472435039147, 52.00548827580802 ], [ 85.872017350178822, 52.003275251826942 ], [ 85.872938357281328, 52.001775454362686 ], [ 85.872760097842132, 52.000019530059674 ], [ 85.871393442141624, 51.99892204239196 ], [ 85.870234755786882, 51.998592790844853 ], [ 85.870413015226077, 51.999653703826723 ], [ 85.870175335973812, 52.000367062211843 ], [ 85.869818817095435, 52.000732882615075 ], [ 85.869016649619056, 52.00137306112704 ], [ 85.868333321768802, 52.001921778278778 ], [ 85.867857963264299, 52.003330121512953 ], [ 85.86773912363816, 52.003458150518753 ], [ 85.867382604759769, 52.003275251826942 ], [ 85.867768833544702, 52.00095237342201 ], [ 85.869313748684377, 51.99980003467865 ], [ 85.869551427936642, 51.998995209073577 ], [ 85.86767970382509, 51.99797086464875 ], [ 85.864084805134695, 51.997092836486289 ], [ 85.862331920649282, 51.997074544049795 ], [ 85.860163097472409, 51.997092836486289 ], [ 85.857459495977977, 51.995300142184 ], [ 85.85330010906344, 51.993470788287901 ], [ 85.851903743456432, 51.992903673403319 ], [ 85.850507377849397, 51.992995144031831 ], [ 85.84492191542131, 51.991476707403493 ], [ 85.843406710188177, 51.991952367789558 ], [ 85.842248023833406, 51.992610966136361 ], [ 85.840851658226399, 51.992720731585706 ], [ 85.842188604020336, 51.991988956840736 ], [ 85.841921214861557, 51.991330349345091 ], [ 85.843347290375107, 51.991495002127159 ], [ 85.843971198412277, 51.991220580487358 ], [ 85.845189304580117, 51.990872977329317 ], [ 85.844476266823335, 51.990250943890821 ], [ 85.840643688880661, 51.988275015652704 ], [ 85.838682835049511, 51.986372187539956 ], [ 85.835622714676688, 51.981541568457565 ], [ 85.832681433929977, 51.978796666420337 ], [ 85.830750290005355, 51.977460753249822 ], [ 85.82715539131496, 51.976801932087909 ], [ 85.823798171876788, 51.976344411692054 ], [ 85.820530082158243, 51.975905187716414 ], [ 85.815301138608532, 51.973489378881347 ], [ 85.811943919170403, 51.970872105651573 ], [ 85.809953355432739, 51.967595723013282 ], [ 85.808943218610622, 51.964703521424525 ], [ 85.807754822349338, 51.964300795007915 ], [ 85.8064178765554, 51.962763079041594 ], [ 85.807517143097101, 51.961481608771713 ], [ 85.808556989825718, 51.959669181130849 ], [ 85.811587400292026, 51.956556760692692 ], [ 85.814320711693, 51.954780753386508 ], [ 85.815212008888977, 51.953737087410936 ], [ 85.815330848515089, 51.954011738707131 ], [ 85.814469261225668, 51.955055398289886 ], [ 85.812359857861864, 51.95630043408535 ], [ 85.810280164404602, 51.95803976443959 ], [ 85.808735249264913, 51.959925488478127 ], [ 85.807992501601589, 51.961280231541373 ], [ 85.807546853003615, 51.961975894501606 ], [ 85.80710120440564, 51.963239044382647 ], [ 85.808200470947341, 51.96426418333607 ], [ 85.808646119545315, 51.964337406649861 ], [ 85.80840844029305, 51.962872917645804 ], [ 85.808646119545315, 51.961591450516039 ], [ 85.809121478049832, 51.961536529677517 ], [ 85.809121478049832, 51.962451868201342 ], [ 85.80971567618046, 51.963348881820544 ], [ 85.810458423843784, 51.963257350640994 ], [ 85.812389567768392, 51.962177268606766 ], [ 85.813251155057827, 51.960309946751387 ], [ 85.81253811730106, 51.960566250435122 ], [ 85.8109337823483, 51.961335152693913 ], [ 85.809477996928223, 51.961994201275829 ], [ 85.80915118795636, 51.962067428297921 ], [ 85.809121478049832, 51.961481608771706 ], [ 85.812359857861864, 51.960255024342786 ], [ 85.81363738384276, 51.959138254106946 ], [ 85.814766360290974, 51.957124335822435 ], [ 85.815271428702019, 51.954176528677323 ], [ 85.815330848515089, 51.954011738707131 ], [ 85.814706940477905, 51.953077917436183 ], [ 85.813875063094997, 51.951521505433789 ], [ 85.813785933375414, 51.95011153263188 ], [ 85.815122879169351, 51.946174360875006 ], [ 85.816251855617566, 51.944636023123962 ], [ 85.817083733000473, 51.942181898921966 ], [ 85.817707641037671, 51.940899840350781 ], [ 85.815954756552259, 51.938244031034799 ], [ 85.815241718795491, 51.936687104200473 ], [ 85.815063459356296, 51.935386570960375 ], [ 85.814231581973388, 51.934617223692314 ], [ 85.814409841412584, 51.933902817988653 ], [ 85.8148851999171, 51.933170082374311 ], [ 85.817232282533155, 51.930751969952439 ], [ 85.81895545711204, 51.929451264680381 ], [ 85.820856891130106, 51.92923142344528 ], [ 85.822609775615518, 51.92767418386606 ], [ 85.824748888885836, 51.924706118805823 ], [ 85.829621313557141, 51.922672331281809 ], [ 85.83036406122045, 51.922140966205802 ], [ 85.831938686266682, 51.921921089162083 ], [ 85.832711143836519, 51.921572948306959 ], [ 85.834790837293767, 51.922049350901794 ], [ 85.839841521404281, 51.920620127949661 ], [ 85.844416847010265, 51.919227507971883 ], [ 85.847031318785113, 51.9183662608406 ], [ 85.847031318785113, 51.917981442952374 ], [ 85.849942889625282, 51.917761545535342 ], [ 85.851666064204153, 51.917266772409135 ], [ 85.855290672801104, 51.915122692522424 ], [ 85.855944290744802, 51.914426302668936 ], [ 85.857310946445295, 51.913326717752447 ], [ 85.85903412102418, 51.912227105909331 ], [ 85.859331220089501, 51.910999174195489 ], [ 85.860697875789995, 51.909826193143495 ], [ 85.861767432425182, 51.90901975089816 ], [ 85.862123951303559, 51.908103321677977 ], [ 85.861767432425182, 51.907590113146561 ], [ 85.862213081023157, 51.907003581929878 ], [ 85.862391340462352, 51.906178759447251 ], [ 85.86255474494827, 51.905793837105001 ], [ 85.862703294480937, 51.905344756869837 ], [ 85.862272500836212, 51.904052480531703 ], [ 85.862465615228672, 51.90334675364462 ], [ 85.862079386443753, 51.903090122936689 ], [ 85.861826852238224, 51.90216440712905 ], [ 85.862658729621131, 51.901641965034464 ], [ 85.864084805134695, 51.900881205154278 ], [ 85.86490182756431, 51.901513644994075 ], [ 85.86423335466732, 51.901696959225276 ], [ 85.864129369994473, 51.902127744724147 ], [ 85.863624301583414, 51.902751001538157 ], [ 85.863416332237691, 51.903099288344357 ], [ 85.863371767377885, 51.903795853855627 ], [ 85.863193507938703, 51.904345766366248 ], [ 85.863148943078897, 51.904565729485491 ], [ 85.863327202518093, 51.904859011968924 ], [ 85.863550026817094, 51.904776526463998 ], [ 85.863802561022624, 51.904602389900646 ], [ 85.864055095228125, 51.904959827380324 ], [ 85.864040240274875, 51.90505147755799 ], [ 85.863713431303012, 51.90528976714473 ], [ 85.86366886644322, 51.905482230888062 ], [ 85.863371767377913, 51.905867155900708 ], [ 85.863609446630164, 51.906114605952624 ], [ 85.863579736723636, 51.90654534908731 ], [ 85.863416332237705, 51.906893606474029 ], [ 85.863743141209568, 51.908048335330108 ], [ 85.864560163639197, 51.907251025720981 ], [ 85.865258346442715, 51.906582007886762 ], [ 85.865288056349243, 51.90638954885587 ], [ 85.865154361769854, 51.905857991057793 ], [ 85.865169216723103, 51.905454736118081 ], [ 85.865377186068841, 51.905133962557997 ], [ 85.865258346442715, 51.904776526463998 ], [ 85.864263064573862, 51.904895672144704 ], [ 85.864129369994473, 51.904932332290571 ], [ 85.863891690742207, 51.904565729485491 ], [ 85.864188789807542, 51.903960828315682 ], [ 85.864441324013058, 51.903511729754072 ], [ 85.864797842891448, 51.903255099988655 ], [ 85.865273201395965, 51.902760167015025 ], [ 85.86545146083516, 51.902338553143707 ], [ 85.865392041022091, 51.90187110705206 ], [ 85.864916682517574, 51.901513644994075 ], [ 85.86409966008793, 51.900881205154278 ], [ 85.864055095228125, 51.899249652572884 ], [ 85.864055095228125, 51.898479685832001 ], [ 85.863847125882415, 51.897278878030733 ], [ 85.863282637658287, 51.896838879351797 ], [ 85.86286669896684, 51.896609711666649 ], [ 85.86298553859298, 51.89609637181038 ], [ 85.862762714293993, 51.895793865220128 ], [ 85.860905845135719, 51.894877166146287 ], [ 85.858306228314149, 51.89381377179074 ], [ 85.855260962894562, 51.892704514655456 ], [ 85.852245407381531, 51.891870261910121 ], [ 85.850017164391602, 51.891384371306202 ], [ 85.847818631308215, 51.891063497272476 ], [ 85.845219014486631, 51.891008490065218 ], [ 85.843079901216299, 51.89049508621742 ], [ 85.839128483647485, 51.889706633174114 ], [ 85.83776182794702, 51.88961495168995 ], [ 85.835147356172172, 51.889257392114651 ], [ 85.833765845518428, 51.888973176063999 ], [ 85.832354624958128, 51.88903735403899 ], [ 85.831062244023968, 51.888881493083602 ], [ 85.830126381968213, 51.88868895821598 ], [ 85.8292499397255, 51.888569769551268 ], [ 85.828195238043605, 51.888093011731577 ], [ 85.825120262717519, 51.887084468910068 ], [ 85.821941302718542, 51.886451825953678 ], [ 85.819044586831652, 51.885479922325437 ], [ 85.81641526010354, 51.884911440651166 ], [ 85.811958774123681, 51.883150935665725 ], [ 85.806299036929275, 51.880638428933146 ], [ 85.804219343471999, 51.879758101384816 ], [ 85.804219343471999, 51.879758101384816 ], [ 85.807169537190603, 51.879365616463751 ] ] ] } }
]
}
