{
"type": "FeatureCollection",
"name": "Gran",
"crs": { "type": "name", "properties": { "name": "urn:ogc:def:crs:OGC:1.3:CRS84" } },
"features": [
{ "type": "Feature", "properties": { "full_id": "2", "boundary": "administrative", "1": "1980-01-01T00:00:00.839", "2": "2005-01-01T00:00:00.451", "Граница": null, "Года": "1980 – 2005" }, "geometry": { "type": "LineString", "coordinates": [ [ 85.8825763, 51.9703485 ], [ 85.886729412925746, 51.976449757490052 ], [ 85.889298357654965, 51.975794953158243 ], [ 85.892354516039717, 51.978277702266467 ], [ 85.892421, 51.9820184 ], [ 85.8938737, 51.9815864 ], [ 85.9029423, 51.9788894 ], [ 85.9032757, 51.9787903 ], [ 85.9037759, 51.9742705 ], [ 85.9350168, 51.9761618 ], [ 85.9417659, 51.9806272 ], [ 85.9426894, 51.9812382 ], [ 85.934727, 51.9918055 ], [ 85.9551409, 51.9925348 ], [ 85.9618476, 51.9860814 ], [ 85.965237249693359, 51.98535232777995 ], [ 85.964941968689985, 51.980114666155536 ], [ 85.948524344903333, 51.980223790352895 ], [ 85.952185829344955, 51.977531982558659 ], [ 85.95968596683025, 51.976804439173932 ], [ 85.965001024890654, 51.978041255898169 ], [ 85.967245160516171, 51.968400456761607 ], [ 85.96972552094438, 51.968509609492571 ], [ 85.969134958937659, 51.970947284547918 ], [ 85.973623230188693, 51.970401547921419 ], [ 85.980473749466583, 51.97127472333365 ], [ 85.981536761078686, 51.974512600286509 ], [ 85.985139189319682, 51.976186018007439 ], [ 85.988446336557274, 51.975567588304628 ], [ 85.98980462917271, 51.974185185160962 ], [ 85.9918717, 51.9712078 ], [ 85.9925651, 51.9710484 ], [ 85.9930587, 51.9709426 ], [ 85.9931874, 51.9707543 ], [ 85.9933162, 51.9704535 ], [ 85.9936327, 51.9703577 ], [ 85.9939545, 51.9703874 ], [ 85.9941423, 51.9705229 ], [ 85.9947056, 51.9706419 ], [ 85.9950381, 51.970827 ], [ 85.9953707, 51.9708898 ], [ 85.995596, 51.9711046 ], [ 85.9957784, 51.9713227 ], [ 85.9961218, 51.9714251 ], [ 85.9963739, 51.9713822 ], [ 85.9970337, 51.9710219 ], [ 85.9972912, 51.9711508 ], [ 85.9976506, 51.9712235 ], [ 85.9980208, 51.9712334 ], [ 85.9981066, 51.9710847 ], [ 85.9978974, 51.9708137 ], [ 85.9974092, 51.9702717 ], [ 85.9973985, 51.9700735 ], [ 85.9976774, 51.9699181 ], [ 85.9980261, 51.9699479 ], [ 85.998171, 51.9700206 ], [ 85.9982139, 51.9701891 ], [ 85.9983426, 51.9703808 ], [ 85.9986752, 51.9704502 ], [ 85.9990722, 51.9703511 ], [ 85.9996086, 51.9702189 ], [ 85.9998232, 51.9700569 ], [ 85.9997588, 51.9698851 ], [ 85.9994799, 51.9697694 ], [ 85.9994155, 51.9696736 ], [ 85.999496, 51.9694554 ], [ 85.9998769, 51.9693166 ], [ 86.0001075, 51.9693365 ], [ 86.0002363, 51.9695281 ], [ 86.0003918, 51.9696703 ], [ 86.0007781, 51.969657 ], [ 86.0015291, 51.9694389 ], [ 86.0020119, 51.9694125 ], [ 86.0024625, 51.969396 ], [ 86.0025966, 51.9692439 ], [ 86.0025483, 51.9688903 ], [ 86.0030204, 51.968616 ], [ 86.0033476, 51.9687383 ], [ 86.0042757, 51.9685895 ], [ 86.004914, 51.9687052 ], [ 86.0053807, 51.968887 ], [ 86.0053003, 51.969191 ], [ 86.0054398, 51.9693596 ], [ 86.0056651, 51.9694158 ], [ 86.0059386, 51.9694257 ], [ 86.0066575, 51.968811 ], [ 86.006636, 51.9686325 ], [ 86.0065019, 51.9683615 ], [ 86.0067881, 51.9677918 ], [ 86.0074408, 51.9676308 ], [ 86.0078786, 51.9678712 ], [ 86.008753, 51.9681345 ], [ 86.0105191, 51.9679181 ], [ 86.0110592, 51.967555 ], [ 86.010713, 51.9672444 ], [ 86.0104501, 51.9669172 ], [ 86.0104877, 51.9667883 ], [ 86.0106915, 51.9666924 ], [ 86.0112494, 51.9667189 ], [ 86.0118395, 51.9669007 ], [ 86.0120112, 51.9668313 ], [ 86.0120505, 51.9661998 ], [ 86.0138851, 51.9665163 ], [ 86.0196565, 51.9655497 ], [ 86.0221656, 51.9593421 ], [ 86.0256098, 51.9565938 ], [ 86.0297964, 51.9587305 ], [ 86.0324886, 51.9563799 ], [ 86.0328414, 51.9560267 ], [ 86.0333187, 51.9555702 ], [ 86.0375976, 51.9516294 ], [ 86.0363837, 51.9510061 ], [ 86.0362634, 51.9507263 ], [ 86.0369094, 51.9508989 ], [ 86.0375787, 51.9508263 ], [ 86.0375902, 51.9502911 ], [ 86.0368166, 51.9501732 ], [ 86.0369658, 51.9499514 ], [ 86.0376748, 51.9497119 ], [ 86.0372724, 51.9491175 ], [ 86.040679, 51.9476287 ], [ 86.043111, 51.9478269 ], [ 86.0621521, 51.9442776 ], [ 86.0653842, 51.9259471 ], [ 86.0435577, 51.9115529 ], [ 86.0103901, 51.9233341 ], [ 86.0008484, 51.9184692 ], [ 86.0023009, 51.9155931 ], [ 85.991618, 51.9120731 ], [ 85.9912326, 51.9125024 ], [ 85.9898051, 51.9131112 ], [ 85.9853373, 51.9137195 ], [ 85.9676585, 51.9108558 ], [ 85.956626, 51.9041119 ], [ 85.9631323, 51.8987271 ], [ 85.9698425, 51.9001243 ], [ 85.9795249, 51.8928928 ], [ 85.9500592, 51.8702622 ], [ 85.9148644, 51.878546 ], [ 85.9090017, 51.8799257 ], [ 85.9013875, 51.8936391 ], [ 85.9054577, 51.91529 ], [ 85.8934212, 51.9182518 ], [ 85.8886927, 51.9194153 ], [ 85.894687, 51.9338358 ], [ 85.8923296, 51.9475085 ], [ 85.8939956, 51.9531449 ], [ 85.8826328, 51.9695204 ], [ 85.8825233, 51.9700025 ], [ 85.8825763, 51.9703485 ] ] } },
{ "type": "Feature", "properties": { "full_id": "1", "boundary": "administrative", "1": "2005-01-01T00:00:00.459", "2": "2027-01-01T00:00:00.771", "Граница": null, "Года": "2005 – 2027" }, "geometry": { "type": "LineString", "coordinates": [ [ 86.0103901, 51.9233341 ], [ 86.0008484, 51.9184692 ], [ 86.0023009, 51.9155931 ], [ 85.991618, 51.9120731 ], [ 85.9912326, 51.9125024 ], [ 85.9898051, 51.9131112 ], [ 85.9853373, 51.9137195 ], [ 85.9676585, 51.9108558 ], [ 85.956626, 51.9041119 ], [ 85.9631323, 51.8987271 ], [ 85.9698425, 51.9001243 ], [ 85.9795249, 51.8928928 ], [ 85.9500592, 51.8702622 ], [ 85.9148644, 51.878546 ], [ 85.9090017, 51.8799257 ], [ 85.9013875, 51.8936391 ], [ 85.9054577, 51.91529 ], [ 85.8934212, 51.9182518 ], [ 85.8886927, 51.9194153 ], [ 85.894687, 51.9338358 ], [ 85.8923296, 51.9475085 ], [ 85.8939956, 51.9531449 ], [ 85.8826328, 51.9695204 ], [ 85.8825233, 51.9700025 ], [ 85.8825763, 51.9703485 ], [ 85.8824646, 51.972305 ], [ 85.8822617, 51.9749594 ], [ 85.8822475, 51.9751677 ], [ 85.8821675, 51.975952 ], [ 85.8822139, 51.976117 ], [ 85.8820023, 51.9799428 ], [ 85.892421, 51.9820184 ], [ 85.8938737, 51.9815864 ], [ 85.9029423, 51.9788894 ], [ 85.9032757, 51.9787903 ], [ 85.9037759, 51.9742705 ], [ 85.9350168, 51.9761618 ], [ 85.9417659, 51.9806272 ], [ 85.9426894, 51.9812382 ], [ 85.934727, 51.9918055 ], [ 85.9551409, 51.9925348 ], [ 85.9618476, 51.9860814 ], [ 85.9695138, 51.9881003 ], [ 85.9841827, 51.9888188 ], [ 85.9894646, 51.9924998 ], [ 85.9974415, 51.9936497 ], [ 86.0030666, 51.9933406 ], [ 86.0040808, 51.9924124 ], [ 86.0014057, 51.9876288 ], [ 85.9998373, 51.9840146 ], [ 85.9907134, 51.9811935 ], [ 85.9918717, 51.9712078 ], [ 85.9925651, 51.9710484 ], [ 85.9930587, 51.9709426 ], [ 85.9931874, 51.9707543 ], [ 85.9933162, 51.9704535 ], [ 85.9936327, 51.9703577 ], [ 85.9939545, 51.9703874 ], [ 85.9941423, 51.9705229 ], [ 85.9947056, 51.9706419 ], [ 85.9950381, 51.970827 ], [ 85.9953707, 51.9708898 ], [ 85.995596, 51.9711046 ], [ 85.9957784, 51.9713227 ], [ 85.9961218, 51.9714251 ], [ 85.9963739, 51.9713822 ], [ 85.9970337, 51.9710219 ], [ 85.9972912, 51.9711508 ], [ 85.9976506, 51.9712235 ], [ 85.9980208, 51.9712334 ], [ 85.9981066, 51.9710847 ], [ 85.9978974, 51.9708137 ], [ 85.9974092, 51.9702717 ], [ 85.9973985, 51.9700735 ], [ 85.9976774, 51.9699181 ], [ 85.9980261, 51.9699479 ], [ 85.998171, 51.9700206 ], [ 85.9982139, 51.9701891 ], [ 85.9983426, 51.9703808 ], [ 85.9986752, 51.9704502 ], [ 85.9990722, 51.9703511 ], [ 85.9996086, 51.9702189 ], [ 85.9998232, 51.9700569 ], [ 85.9997588, 51.9698851 ], [ 85.9994799, 51.9697694 ], [ 85.9994155, 51.9696736 ], [ 85.999496, 51.9694554 ], [ 85.9998769, 51.9693166 ], [ 86.0001075, 51.9693365 ], [ 86.0002363, 51.9695281 ], [ 86.0003918, 51.9696703 ], [ 86.0007781, 51.969657 ], [ 86.0015291, 51.9694389 ], [ 86.0020119, 51.9694125 ], [ 86.0024625, 51.969396 ], [ 86.0025966, 51.9692439 ], [ 86.0025483, 51.9688903 ], [ 86.0030204, 51.968616 ], [ 86.0033476, 51.9687383 ], [ 86.0042757, 51.9685895 ], [ 86.004914, 51.9687052 ], [ 86.0053807, 51.968887 ], [ 86.0053003, 51.969191 ], [ 86.0054398, 51.9693596 ], [ 86.0056651, 51.9694158 ], [ 86.0059386, 51.9694257 ], [ 86.0066575, 51.968811 ], [ 86.006636, 51.9686325 ], [ 86.0065019, 51.9683615 ], [ 86.0067881, 51.9677918 ], [ 86.0074408, 51.9676308 ], [ 86.0078786, 51.9678712 ], [ 86.008753, 51.9681345 ], [ 86.0105191, 51.9679181 ], [ 86.0110592, 51.967555 ], [ 86.010713, 51.9672444 ], [ 86.0104501, 51.9669172 ], [ 86.0104877, 51.9667883 ], [ 86.0106915, 51.9666924 ], [ 86.0112494, 51.9667189 ], [ 86.0118395, 51.9669007 ], [ 86.0120112, 51.9668313 ], [ 86.0120505, 51.9661998 ], [ 86.0138851, 51.9665163 ], [ 86.0196565, 51.9655497 ], [ 86.0221656, 51.9593421 ], [ 86.0256098, 51.9565938 ], [ 86.0297964, 51.9587305 ], [ 86.0324886, 51.9563799 ], [ 86.0328414, 51.9560267 ], [ 86.0333187, 51.9555702 ], [ 86.0375976, 51.9516294 ], [ 86.0363837, 51.9510061 ], [ 86.0362634, 51.9507263 ], [ 86.0369094, 51.9508989 ], [ 86.0375787, 51.9508263 ], [ 86.0375902, 51.9502911 ], [ 86.0368166, 51.9501732 ], [ 86.0369658, 51.9499514 ], [ 86.0376748, 51.9497119 ], [ 86.0372724, 51.9491175 ], [ 86.040679, 51.9476287 ], [ 86.043111, 51.9478269 ], [ 86.0621521, 51.9442776 ], [ 86.0653842, 51.9259471 ], [ 86.0435577, 51.9115529 ], [ 86.0103901, 51.9233341 ] ] } },
{ "type": "Feature", "properties": { "full_id": "3", "boundary": "administrative", "1": "1970-01-01T00:00:00.459", "2": "1980-01-01T00:00:00.771", "Граница": null, "Года": "1970 – 1980" }, "geometry": { "type": "LineString", "coordinates": [ [ 86.0103901, 51.9233341 ], [ 86.0008484, 51.9184692 ], [ 86.0023009, 51.9155931 ], [ 85.991618, 51.9120731 ], [ 85.9912326, 51.9125024 ], [ 85.9898051, 51.9131112 ], [ 85.9853373, 51.9137195 ], [ 85.9676585, 51.9108558 ], [ 85.956626, 51.9041119 ], [ 85.9631323, 51.8987271 ], [ 85.9698425, 51.9001243 ], [ 85.9795249, 51.8928928 ], [ 85.9500592, 51.8702622 ], [ 85.9148644, 51.878546 ], [ 85.9090017, 51.8799257 ], [ 85.9013875, 51.8936391 ], [ 85.9054577, 51.91529 ], [ 85.8934212, 51.9182518 ], [ 85.8886927, 51.9194153 ], [ 85.894687, 51.9338358 ], [ 85.8923296, 51.9475085 ], [ 85.8939956, 51.9531449 ], [ 85.8826328, 51.9695204 ], [ 85.8825233, 51.9700025 ], [ 85.8825763, 51.9703485 ], [ 85.886729412925746, 51.976449757490052 ], [ 85.889298357654965, 51.975794953158243 ], [ 85.892354516039717, 51.978277702266467 ], [ 85.891047943334385, 51.980272426465305 ], [ 85.883081632485613, 51.978308949344175 ], [ 85.87214147131121, 51.977517759072818 ], [ 85.869395357979997, 51.978499924212791 ], [ 85.873780280879842, 51.984719803411487 ], [ 85.881487115067458, 51.98840221954449 ], [ 85.895837771830656, 51.997184241631835 ], [ 85.909834091389797, 51.991511579601024 ], [ 85.906467887951507, 51.984146955911363 ], [ 85.907619483864607, 51.982783003802737 ], [ 85.909745507088772, 51.980655155576812 ], [ 85.916920835470336, 51.975853485653467 ], [ 85.9350168, 51.9761618 ], [ 85.952185829344955, 51.977531982558659 ], [ 85.95968596683025, 51.976804439173932 ], [ 85.965001024890654, 51.978041255898169 ], [ 85.967245160516171, 51.968400456761607 ], [ 85.96972552094438, 51.968509609492571 ], [ 85.969134958937659, 51.970947284547918 ], [ 85.973623230188693, 51.970401547921419 ], [ 85.980473749466583, 51.97127472333365 ], [ 85.981536761078686, 51.974512600286509 ], [ 85.985139189319682, 51.976186018007439 ], [ 85.988446336557274, 51.975567588304628 ], [ 85.98980462917271, 51.974185185160962 ], [ 85.9918717, 51.9712078 ], [ 85.9925651, 51.9710484 ], [ 85.9930587, 51.9709426 ], [ 85.9931874, 51.9707543 ], [ 85.9933162, 51.9704535 ], [ 85.9936327, 51.9703577 ], [ 85.9939545, 51.9703874 ], [ 85.9941423, 51.9705229 ], [ 85.9947056, 51.9706419 ], [ 85.9950381, 51.970827 ], [ 85.9953707, 51.9708898 ], [ 85.995596, 51.9711046 ], [ 85.9957784, 51.9713227 ], [ 85.9961218, 51.9714251 ], [ 85.9963739, 51.9713822 ], [ 85.9970337, 51.9710219 ], [ 85.9972912, 51.9711508 ], [ 85.9976506, 51.9712235 ], [ 85.9980208, 51.9712334 ], [ 85.9981066, 51.9710847 ], [ 85.9978974, 51.9708137 ], [ 85.9974092, 51.9702717 ], [ 85.9973985, 51.9700735 ], [ 85.9976774, 51.9699181 ], [ 85.9980261, 51.9699479 ], [ 85.998171, 51.9700206 ], [ 85.9982139, 51.9701891 ], [ 85.9983426, 51.9703808 ], [ 85.9986752, 51.9704502 ], [ 85.9990722, 51.9703511 ], [ 85.9996086, 51.9702189 ], [ 85.9998232, 51.9700569 ], [ 85.9997588, 51.9698851 ], [ 85.9994799, 51.9697694 ], [ 85.9994155, 51.9696736 ], [ 85.999496, 51.9694554 ], [ 85.9998769, 51.9693166 ], [ 86.0001075, 51.9693365 ], [ 86.0002363, 51.9695281 ], [ 86.0003918, 51.9696703 ], [ 86.0007781, 51.969657 ], [ 86.0015291, 51.9694389 ], [ 86.0020119, 51.9694125 ], [ 86.0024625, 51.969396 ], [ 86.0025966, 51.9692439 ], [ 86.0025483, 51.9688903 ], [ 86.0030204, 51.968616 ], [ 86.0033476, 51.9687383 ], [ 86.0042757, 51.9685895 ], [ 86.004914, 51.9687052 ], [ 86.0053807, 51.968887 ], [ 86.0053003, 51.969191 ], [ 86.0054398, 51.9693596 ], [ 86.0056651, 51.9694158 ], [ 86.0059386, 51.9694257 ], [ 86.0066575, 51.968811 ], [ 86.006636, 51.9686325 ], [ 86.0065019, 51.9683615 ], [ 86.0067881, 51.9677918 ], [ 86.0074408, 51.9676308 ], [ 86.0078786, 51.9678712 ], [ 86.008753, 51.9681345 ], [ 86.0105191, 51.9679181 ], [ 86.0110592, 51.967555 ], [ 86.010713, 51.9672444 ], [ 86.0104501, 51.9669172 ], [ 86.0104877, 51.9667883 ], [ 86.0106915, 51.9666924 ], [ 86.0112494, 51.9667189 ], [ 86.0118395, 51.9669007 ], [ 86.0120112, 51.9668313 ], [ 86.0120505, 51.9661998 ], [ 86.0138851, 51.9665163 ], [ 86.0196565, 51.9655497 ], [ 86.0221656, 51.9593421 ], [ 86.0256098, 51.9565938 ], [ 86.0297964, 51.9587305 ], [ 86.0324886, 51.9563799 ], [ 86.0328414, 51.9560267 ], [ 86.0333187, 51.9555702 ], [ 86.0375976, 51.9516294 ], [ 86.0363837, 51.9510061 ], [ 86.0362634, 51.9507263 ], [ 86.0369094, 51.9508989 ], [ 86.0375787, 51.9508263 ], [ 86.0375902, 51.9502911 ], [ 86.0368166, 51.9501732 ], [ 86.0369658, 51.9499514 ], [ 86.0376748, 51.9497119 ], [ 86.0372724, 51.9491175 ], [ 86.040679, 51.9476287 ], [ 86.043111, 51.9478269 ], [ 86.0621521, 51.9442776 ], [ 86.0653842, 51.9259471 ], [ 86.0435577, 51.9115529 ], [ 86.0103901, 51.9233341 ] ] } },
{ "type": "Feature", "properties": { "full_id": "5", "boundary": "administrative", "1": "1950-01-01T00:00:00.459", "2": "1957-01-01T00:00:00.771", "Граница": null, "Года": "1950 – 1957" }, "geometry": { "type": "LineString", "coordinates": [ [ 86.034976026118869, 51.917616184007635 ], [ 86.034976026118869, 51.917616184007635 ], [ 86.034976026118869, 51.917616184007635 ], [ 86.029306630854407, 51.918545024751772 ], [ 86.019340896991096, 51.913955271609694 ], [ 86.010128129686336, 51.912889726100758 ], [ 86.0023009, 51.9155931 ], [ 85.991618, 51.9120731 ], [ 85.9912326, 51.9125024 ], [ 85.9898051, 51.9131112 ], [ 85.9853373, 51.9137195 ], [ 85.977086185410656, 51.911742187275443 ], [ 85.979212208634834, 51.909091806964632 ], [ 85.976023173798566, 51.907424992841918 ], [ 85.972479801758269, 51.904938319092331 ], [ 85.96649850343826, 51.901241440153861 ], [ 85.969999441330074, 51.899991888434329 ], [ 85.9795249, 51.8928928 ], [ 85.9500592, 51.8702622 ], [ 85.9148644, 51.878546 ], [ 85.9090017, 51.8799257 ], [ 85.9013875, 51.8936391 ], [ 85.9054577, 51.91529 ], [ 85.8934212, 51.9182518 ], [ 85.8886927, 51.9194153 ], [ 85.894687, 51.9338358 ], [ 85.8923296, 51.9475085 ], [ 85.8939956, 51.9531449 ], [ 85.8826328, 51.9695204 ], [ 85.8825233, 51.9700025 ], [ 85.8825763, 51.9703485 ], [ 85.886729412925746, 51.976449757490052 ], [ 85.889298357654965, 51.975794953158243 ], [ 85.892354516039717, 51.978277702266467 ], [ 85.892354516039717, 51.978277702266467 ], [ 85.896939539074438, 51.977732609537213 ], [ 85.9032757, 51.9787903 ], [ 85.901235877673258, 51.973708249625041 ], [ 85.913726264115297, 51.973776467557457 ], [ 85.921433098302927, 51.971866480883904 ], [ 85.919838580884786, 51.970884170321085 ], [ 85.93423352979849, 51.965099015766555 ], [ 85.945483736026361, 51.964662370020655 ], [ 85.952614772257448, 51.965917715074838 ], [ 85.958682796876417, 51.967173024968986 ], [ 85.963289180528804, 51.96700929088977 ], [ 85.968050586707932, 51.966354348591068 ], [ 85.970708115738148, 51.966572663754043 ], [ 85.974340072079443, 51.965835845816912 ], [ 85.978924309656577, 51.964362173602822 ], [ 85.981404670084785, 51.96226074238092 ], [ 85.985080918576571, 51.963598028193871 ], [ 85.986808312446215, 51.965999584183166 ], [ 85.988513560240591, 51.967227602862401 ], [ 85.989532279702161, 51.968946772485594 ], [ 85.991569718625342, 51.96902863606077 ], [ 85.9918717, 51.9712078 ], [ 85.9925651, 51.9710484 ], [ 85.9930587, 51.9709426 ], [ 85.9931874, 51.9707543 ], [ 85.9933162, 51.9704535 ], [ 85.9936327, 51.9703577 ], [ 85.9939545, 51.9703874 ], [ 85.9941423, 51.9705229 ], [ 85.9947056, 51.9706419 ], [ 85.9950381, 51.970827 ], [ 85.9953707, 51.9708898 ], [ 85.995596, 51.9711046 ], [ 85.9957784, 51.9713227 ], [ 85.9961218, 51.9714251 ], [ 85.9963739, 51.9713822 ], [ 85.9970337, 51.9710219 ], [ 85.9972912, 51.9711508 ], [ 85.9976506, 51.9712235 ], [ 85.9980208, 51.9712334 ], [ 85.9981066, 51.9710847 ], [ 85.9978974, 51.9708137 ], [ 85.9974092, 51.9702717 ], [ 85.9973985, 51.9700735 ], [ 85.9976774, 51.9699181 ], [ 85.9980261, 51.9699479 ], [ 85.998171, 51.9700206 ], [ 85.9982139, 51.9701891 ], [ 85.9983426, 51.9703808 ], [ 85.9986752, 51.9704502 ], [ 85.9990722, 51.9703511 ], [ 85.9996086, 51.9702189 ], [ 85.9998232, 51.9700569 ], [ 85.9997588, 51.9698851 ], [ 85.9994799, 51.9697694 ], [ 85.9994155, 51.9696736 ], [ 85.999496, 51.9694554 ], [ 85.9998769, 51.9693166 ], [ 86.0001075, 51.9693365 ], [ 86.0002363, 51.9695281 ], [ 86.0003918, 51.9696703 ], [ 86.0007781, 51.969657 ], [ 86.0015291, 51.9694389 ], [ 86.0020119, 51.9694125 ], [ 86.0024625, 51.969396 ], [ 86.0025966, 51.9692439 ], [ 86.0025483, 51.9688903 ], [ 86.0030204, 51.968616 ], [ 86.0033476, 51.9687383 ], [ 86.0042757, 51.9685895 ], [ 86.004914, 51.9687052 ], [ 86.0053807, 51.968887 ], [ 86.0053003, 51.969191 ], [ 86.0054398, 51.9693596 ], [ 86.0056651, 51.9694158 ], [ 86.0059386, 51.9694257 ], [ 86.0066575, 51.968811 ], [ 86.006636, 51.9686325 ], [ 86.0065019, 51.9683615 ], [ 86.0067881, 51.9677918 ], [ 86.0074408, 51.9676308 ], [ 86.0078786, 51.9678712 ], [ 86.008753, 51.9681345 ], [ 86.0105191, 51.9679181 ], [ 86.0110592, 51.967555 ], [ 86.010713, 51.9672444 ], [ 86.0104501, 51.9669172 ], [ 86.0104877, 51.9667883 ], [ 86.0106915, 51.9666924 ], [ 86.0112494, 51.9667189 ], [ 86.0118395, 51.9669007 ], [ 86.0120112, 51.9668313 ], [ 86.0120505, 51.9661998 ], [ 86.0138851, 51.9665163 ], [ 86.0196565, 51.9655497 ], [ 86.0221656, 51.9593421 ], [ 86.0256098, 51.9565938 ], [ 86.0297964, 51.9587305 ], [ 86.0324886, 51.9563799 ], [ 86.0328414, 51.9560267 ], [ 86.0333187, 51.9555702 ], [ 86.0375976, 51.9516294 ], [ 86.0363837, 51.9510061 ], [ 86.0362634, 51.9507263 ], [ 86.0369094, 51.9508989 ], [ 86.0375787, 51.9508263 ], [ 86.0375902, 51.9502911 ], [ 86.0368166, 51.9501732 ], [ 86.0369658, 51.9499514 ], [ 86.0376748, 51.9497119 ], [ 86.0372724, 51.9491175 ], [ 86.040679, 51.9476287 ], [ 86.043111, 51.9478269 ], [ 86.0621521, 51.9442776 ], [ 86.0653842, 51.9259471 ], [ 86.0435577, 51.9115529 ], [ 86.034976026118869, 51.917616184007635 ] ] } },
{ "type": "Feature", "properties": { "full_id": "4", "boundary": "administrative", "1": "1957-01-01T00:00:00.459", "2": "1970-01-01T00:00:00.771", "Граница": null, "Года": "1957 – 1970" }, "geometry": { "type": "LineString", "coordinates": [ [ 86.034976026118869, 51.917616184007635 ], [ 86.034976026118869, 51.917616184007635 ], [ 86.034976026118869, 51.917616184007635 ], [ 86.029306630854407, 51.918545024751772 ], [ 86.019340896991096, 51.913955271609694 ], [ 86.010128129686336, 51.912889726100758 ], [ 86.0023009, 51.9155931 ], [ 85.991618, 51.9120731 ], [ 85.9912326, 51.9125024 ], [ 85.9898051, 51.9131112 ], [ 85.9853373, 51.9137195 ], [ 85.977086185410656, 51.911742187275443 ], [ 85.979212208634834, 51.909091806964632 ], [ 85.976023173798566, 51.907424992841918 ], [ 85.972479801758269, 51.904938319092331 ], [ 85.96649850343826, 51.901241440153861 ], [ 85.969999441330074, 51.899991888434329 ], [ 85.9795249, 51.8928928 ], [ 85.9500592, 51.8702622 ], [ 85.9148644, 51.878546 ], [ 85.9090017, 51.8799257 ], [ 85.9013875, 51.8936391 ], [ 85.9054577, 51.91529 ], [ 85.8934212, 51.9182518 ], [ 85.8886927, 51.9194153 ], [ 85.894687, 51.9338358 ], [ 85.8923296, 51.9475085 ], [ 85.8939956, 51.9531449 ], [ 85.8826328, 51.9695204 ], [ 85.8825233, 51.9700025 ], [ 85.8825763, 51.9703485 ], [ 85.886729412925746, 51.976449757490052 ], [ 85.889298357654965, 51.975794953158243 ], [ 85.892354516039717, 51.978277702266467 ], [ 85.892731784776572, 51.980256172781459 ], [ 85.893351874883606, 51.981920282650712 ], [ 85.9032757, 51.9787903 ], [ 85.899198438750091, 51.974663219409763 ], [ 85.9037759, 51.9742705 ], [ 85.918465524219144, 51.975181620056084 ], [ 85.9350168, 51.9761618 ], [ 85.952185829344955, 51.977531982558659 ], [ 85.958970695854688, 51.976068344099119 ], [ 85.96379854025956, 51.974022031365898 ], [ 85.968050586707932, 51.966354348591068 ], [ 85.970708115738148, 51.966572663754043 ], [ 85.974340072079443, 51.965835845816912 ], [ 85.980887142871296, 51.969391918063522 ], [ 85.981338231858999, 51.970720449800361 ], [ 85.98328708648117, 51.971375328294165 ], [ 85.986254660564896, 51.968783044886607 ], [ 85.988513560240591, 51.967227602862401 ], [ 85.989532279702161, 51.968946772485594 ], [ 85.991569718625342, 51.96902863606077 ], [ 85.9918717, 51.9712078 ], [ 85.9925651, 51.9710484 ], [ 85.9930587, 51.9709426 ], [ 85.9931874, 51.9707543 ], [ 85.9933162, 51.9704535 ], [ 85.9936327, 51.9703577 ], [ 85.9939545, 51.9703874 ], [ 85.9941423, 51.9705229 ], [ 85.9947056, 51.9706419 ], [ 85.9950381, 51.970827 ], [ 85.9953707, 51.9708898 ], [ 85.995596, 51.9711046 ], [ 85.9957784, 51.9713227 ], [ 85.9961218, 51.9714251 ], [ 85.9963739, 51.9713822 ], [ 85.9970337, 51.9710219 ], [ 85.9972912, 51.9711508 ], [ 85.9976506, 51.9712235 ], [ 85.9980208, 51.9712334 ], [ 85.9981066, 51.9710847 ], [ 85.9978974, 51.9708137 ], [ 85.9974092, 51.9702717 ], [ 85.9973985, 51.9700735 ], [ 85.9976774, 51.9699181 ], [ 85.9980261, 51.9699479 ], [ 85.998171, 51.9700206 ], [ 85.9982139, 51.9701891 ], [ 85.9983426, 51.9703808 ], [ 85.9986752, 51.9704502 ], [ 85.9990722, 51.9703511 ], [ 85.9996086, 51.9702189 ], [ 85.9998232, 51.9700569 ], [ 85.9997588, 51.9698851 ], [ 85.9994799, 51.9697694 ], [ 85.9994155, 51.9696736 ], [ 85.999496, 51.9694554 ], [ 85.9998769, 51.9693166 ], [ 86.0001075, 51.9693365 ], [ 86.0002363, 51.9695281 ], [ 86.0003918, 51.9696703 ], [ 86.0007781, 51.969657 ], [ 86.0015291, 51.9694389 ], [ 86.0020119, 51.9694125 ], [ 86.0024625, 51.969396 ], [ 86.0025966, 51.9692439 ], [ 86.0025483, 51.9688903 ], [ 86.0030204, 51.968616 ], [ 86.0033476, 51.9687383 ], [ 86.0042757, 51.9685895 ], [ 86.004914, 51.9687052 ], [ 86.0053807, 51.968887 ], [ 86.0053003, 51.969191 ], [ 86.0054398, 51.9693596 ], [ 86.0056651, 51.9694158 ], [ 86.0059386, 51.9694257 ], [ 86.0066575, 51.968811 ], [ 86.006636, 51.9686325 ], [ 86.0065019, 51.9683615 ], [ 86.0067881, 51.9677918 ], [ 86.0074408, 51.9676308 ], [ 86.0078786, 51.9678712 ], [ 86.008753, 51.9681345 ], [ 86.0105191, 51.9679181 ], [ 86.0110592, 51.967555 ], [ 86.010713, 51.9672444 ], [ 86.0104501, 51.9669172 ], [ 86.0104877, 51.9667883 ], [ 86.0106915, 51.9666924 ], [ 86.0112494, 51.9667189 ], [ 86.0118395, 51.9669007 ], [ 86.0120112, 51.9668313 ], [ 86.0120505, 51.9661998 ], [ 86.0138851, 51.9665163 ], [ 86.0196565, 51.9655497 ], [ 86.0221656, 51.9593421 ], [ 86.0256098, 51.9565938 ], [ 86.0297964, 51.9587305 ], [ 86.0324886, 51.9563799 ], [ 86.0328414, 51.9560267 ], [ 86.0333187, 51.9555702 ], [ 86.0375976, 51.9516294 ], [ 86.0363837, 51.9510061 ], [ 86.0362634, 51.9507263 ], [ 86.0369094, 51.9508989 ], [ 86.0375787, 51.9508263 ], [ 86.0375902, 51.9502911 ], [ 86.0368166, 51.9501732 ], [ 86.0369658, 51.9499514 ], [ 86.0376748, 51.9497119 ], [ 86.0372724, 51.9491175 ], [ 86.040679, 51.9476287 ], [ 86.043111, 51.9478269 ], [ 86.0621521, 51.9442776 ], [ 86.0653842, 51.9259471 ], [ 86.0435577, 51.9115529 ], [ 86.034976026118869, 51.917616184007635 ] ] } }
]
}
