{
"type": "FeatureCollection",
"name": "Park",
"crs": { "type": "name", "properties": { "name": "urn:ogc:def:crs:OGC:1.3:CRS84" } },
"features": [
{ "type": "Feature", "properties": { "fid": 1, "Тип": "Сквер", "Название": "Центральный сквер" }, "geometry": { "type": "MultiPolygon", "coordinates": [ [ [ [ 85.9611272, 51.9585176 ], [ 85.9633695, 51.9585077 ], [ 85.9633641, 51.9570994 ], [ 85.9611392, 51.957122 ], [ 85.9610842, 51.9571226 ], [ 85.9611272, 51.9585176 ] ] ] ] } },
{ "type": "Feature", "properties": { "fid": 3, "Тип": "Сквер", "Название": "Сквер Чорос-Гуркина" }, "geometry": { "type": "MultiPolygon", "coordinates": [ [ [ [ 85.9598397, 51.9560977 ], [ 85.9607302, 51.9560911 ], [ 85.960698, 51.9552646 ], [ 85.9604533, 51.9552265 ], [ 85.9602313, 51.9551919 ], [ 85.9598397, 51.9560977 ] ] ] ] } },
{ "type": "Feature", "properties": { "fid": 4, "Тип": "Парк", "Название": "парк Победы" }, "geometry": { "type": "MultiPolygon", "coordinates": [ [ [ [ 85.9033279, 51.9684052 ], [ 85.9046757, 51.9674586 ], [ 85.90581, 51.9680449 ], [ 85.9062193, 51.9677524 ], [ 85.9051253, 51.9671356 ], [ 85.9069102, 51.9660333 ], [ 85.907362, 51.9663919 ], [ 85.9071929, 51.9664245 ], [ 85.9070428, 51.966488 ], [ 85.9069678, 51.9665761 ], [ 85.9069424, 51.9666642 ], [ 85.9069561, 51.9667581 ], [ 85.9070147, 51.9668419 ], [ 85.9071413, 51.9669141 ], [ 85.9072186, 51.9669372 ], [ 85.907303, 51.9669545 ], [ 85.9073921, 51.9669559 ], [ 85.907507, 51.9669545 ], [ 85.9076723, 51.9669003 ], [ 85.9077684, 51.9668295 ], [ 85.9077718, 51.9669588 ], [ 85.9077286, 51.9670057 ], [ 85.9077262, 51.9670779 ], [ 85.9075712, 51.9671714 ], [ 85.9074249, 51.9672547 ], [ 85.9063275, 51.9678696 ], [ 85.9043692, 51.9689584 ], [ 85.9033279, 51.9684052 ] ] ] ] } },
{ "type": "Feature", "properties": { "fid": 8, "Тип": "Парк", "Название": "Сад камней" }, "geometry": { "type": "MultiPolygon", "coordinates": [ [ [ [ 85.9526002, 51.958634 ], [ 85.9525949, 51.9584522 ], [ 85.9535055, 51.9584434 ], [ 85.9535068, 51.9586208 ], [ 85.9526002, 51.958634 ] ] ] ] } },
{ "type": "Feature", "properties": { "fid": 12, "Тип": "Памятник природы", "Название": "памятник природы \"Святой ключ\"" }, "geometry": { "type": "MultiPolygon", "coordinates": [ [ [ [ 85.987254, 51.8736782 ], [ 85.9870814, 51.8737699 ], [ 85.9868633, 51.8738103 ], [ 85.9866374, 51.8737924 ], [ 85.9864429, 51.8737193 ], [ 85.9863133, 51.8736038 ], [ 85.986271, 51.8734656 ], [ 85.9863234, 51.8733288 ], [ 85.9864614, 51.873217 ], [ 85.9866612, 51.8731495 ], [ 85.9868881, 51.873138 ], [ 85.987103, 51.8731845 ], [ 85.9872687, 51.8732809 ], [ 85.9873565, 51.8734106 ], [ 85.9873514, 51.8735511 ], [ 85.987254, 51.8736782 ] ] ] ] } },
{ "type": "Feature", "properties": { "fid": 14, "Тип": "Сквер", "Название": "Сквер семьи" }, "geometry": { "type": "MultiPolygon", "coordinates": [ [ [ [ 85.926615, 51.9533377 ], [ 85.9271246, 51.9533791 ], [ 85.9274626, 51.9534138 ], [ 85.9277549, 51.9534501 ], [ 85.9284764, 51.9535559 ], [ 85.9285381, 51.9535625 ], [ 85.9291336, 51.9532419 ], [ 85.9293884, 51.9530865 ], [ 85.9294233, 51.953065 ], [ 85.9293803, 51.9529823 ], [ 85.9297264, 51.952984 ], [ 85.9295922, 51.9528385 ], [ 85.9295064, 51.9527658 ], [ 85.9294957, 51.9527492 ], [ 85.929324, 51.9527955 ], [ 85.9287715, 51.9527079 ], [ 85.9282082, 51.9526798 ], [ 85.9279936, 51.9527559 ], [ 85.9280151, 51.9528286 ], [ 85.9279346, 51.9529046 ], [ 85.9280366, 51.9530865 ], [ 85.9276476, 51.9531939 ], [ 85.9273445, 51.9532617 ], [ 85.9272319, 51.9531162 ], [ 85.9269798, 51.9531741 ], [ 85.9267866, 51.9532154 ], [ 85.926615, 51.9533377 ] ] ] ] } },
{ "type": "Feature", "properties": { "fid": 37, "Тип": "Парк", "Название": "Городской парк культуры и отдыха" }, "geometry": { "type": "MultiPolygon", "coordinates": [ [ [ [ 85.9535571, 51.9554859 ], [ 85.9535915, 51.9554341 ], [ 85.9536829, 51.9553068 ], [ 85.9537533, 51.9551882 ], [ 85.9538202, 51.9550755 ], [ 85.9538732, 51.9549868 ], [ 85.9539348, 51.9549465 ], [ 85.9544767, 51.9546174 ], [ 85.955856, 51.9533728 ], [ 85.9563818, 51.9530256 ], [ 85.956489, 51.9530984 ], [ 85.9565515, 51.9530882 ], [ 85.9566337, 51.9530227 ], [ 85.957786, 51.9528046 ], [ 85.9584939, 51.9527128 ], [ 85.9585892, 51.9531353 ], [ 85.959002, 51.9530415 ], [ 85.959516, 51.9529737 ], [ 85.9595328, 51.9530394 ], [ 85.9598413, 51.9530119 ], [ 85.9597069, 51.952508 ], [ 85.9600326, 51.9524778 ], [ 85.9601474, 51.9525814 ], [ 85.9603268, 51.9525738 ], [ 85.9603458, 51.9526789 ], [ 85.9605301, 51.9527323 ], [ 85.9606595, 51.9527092 ], [ 85.9609226, 51.9527963 ], [ 85.9610243, 51.9528326 ], [ 85.9610993, 51.9527528 ], [ 85.9613145, 51.9528296 ], [ 85.9612738, 51.952873 ], [ 85.9613813, 51.9529113 ], [ 85.9614576, 51.95283 ], [ 85.961514, 51.9528501 ], [ 85.9615763, 51.9527838 ], [ 85.9615152, 51.952762 ], [ 85.9615967, 51.9526753 ], [ 85.9617398, 51.9525283 ], [ 85.9611809, 51.9523525 ], [ 85.9605836, 51.9522231 ], [ 85.9604586, 51.9520386 ], [ 85.9605058, 51.9517362 ], [ 85.9609324, 51.9514465 ], [ 85.9611103, 51.9514208 ], [ 85.9621834, 51.9508447 ], [ 85.9627291, 51.950844 ], [ 85.9626205, 51.9501921 ], [ 85.9624439, 51.9502465 ], [ 85.9621166, 51.9503358 ], [ 85.9617733, 51.950392 ], [ 85.9614729, 51.9504052 ], [ 85.9611671, 51.9504018 ], [ 85.9606843, 51.9503192 ], [ 85.9603947, 51.9502564 ], [ 85.9602391, 51.9502267 ], [ 85.9600782, 51.9502299 ], [ 85.9599333, 51.9502398 ], [ 85.9597187, 51.9503887 ], [ 85.9595417, 51.9504911 ], [ 85.9592735, 51.9506664 ], [ 85.9589946, 51.9508515 ], [ 85.9588282, 51.9509508 ], [ 85.9586619, 51.9510797 ], [ 85.9584044, 51.951245 ], [ 85.9581362, 51.9514169 ], [ 85.9577044, 51.9517178 ], [ 85.9570634, 51.9521873 ], [ 85.9568863, 51.9523691 ], [ 85.9563767, 51.9527824 ], [ 85.9559368, 51.9530832 ], [ 85.9555399, 51.9532981 ], [ 85.9548907, 51.9538007 ], [ 85.9545903, 51.9540651 ], [ 85.9541934, 51.9543792 ], [ 85.9537804, 51.9547098 ], [ 85.9534746, 51.9550106 ], [ 85.9533459, 51.955166 ], [ 85.953185, 51.9552453 ], [ 85.9530237, 51.9554222 ], [ 85.9533131, 51.9554869 ], [ 85.9535571, 51.9554859 ] ] ] ] } },
{ "type": "Feature", "properties": { "fid": 52, "Тип": "Сквер", "Название": "Сквер имени Н.У. Улагашева" }, "geometry": { "type": "MultiPolygon", "coordinates": [ [ [ [ 85.963610407968233, 51.958570322839449 ], [ 85.963611992496567, 51.958342812751773 ], [ 85.963642098535175, 51.958330119021895 ], [ 85.963882946844137, 51.958286179159913 ], [ 85.963971680431641, 51.958298872902255 ], [ 85.964090520057781, 51.958384799678853 ], [ 85.964233127609134, 51.958488302168398 ], [ 85.964294924214698, 51.958548841249645 ], [ 85.96429809327141, 51.958563487789256 ], [ 85.963610407968233, 51.958570322839449 ] ] ] ] } }
]
}
