{
"type": "FeatureCollection",
"name": "Названия",
"crs": { "type": "name", "properties": { "name": "urn:ogc:def:crs:OGC:1.3:CRS84" } },
"features": [
{ "type": "Feature", "properties": { "fid": 1, "Название": "Улала", "Начало": "31.12.1823 17:00:00 (UTC)", "Конец": "31.12.1931 17:00:00 (UTC)" }, "geometry": { "type": "MultiPoint", "coordinates": [ [ 85.891825054503002, 51.977554608212493 ] ] } },
{ "type": "Feature", "properties": { "fid": 2, "Название": "Ойрот-Тура", "Начало": "31.12.1931 17:00:00 (UTC)", "Конец": "31.12.1947 17:00:00 (UTC)" }, "geometry": { "type": "MultiPoint", "coordinates": [ [ 85.891825054503002, 51.977554608212493 ] ] } },
{ "type": "Feature", "properties": { "fid": 3, "Название": "Горно-Алтайска", "Начало": "31.12.1947 17:00:00 (UTC)", "Конец": "31.12.2026 17:00:00 (UTC)" }, "geometry": { "type": "MultiPoint", "coordinates": [ [ 85.891825054503002, 51.977554608212493 ] ] } }
]
}
